{"type":"FeatureCollection","ridingCode":"11002","ridingName":"Charlottetown","result":{"electors":28003,"voters":21303,"totalVotes":21089,"rejected":214,"turnout":76.07399207227797,"winnerId":"sean-casey","winnerPartyId":"LIB","runnerUpId":"natalie-jameson","runnerUpPartyId":"CPC","margin":35.64417468822609,"top":[{"id":"sean-casey","name":"Sean Casey","shortName":"Casey","partyId":"LIB","votes":13656,"share":64.75413722793874},{"id":"natalie-jameson","name":"Natalie Jameson","shortName":"Jameson","partyId":"CPC","votes":6139,"share":29.109962539712647},{"id":"joe-byrne","name":"Joe Byrne","shortName":"Byrne","partyId":"NDP","votes":906,"share":4.296078524349187},{"id":"daniel-cousins","name":"Daniel Cousins","shortName":"Cousins","partyId":"GRN","votes":257,"share":1.2186447911233345},{"id":"robert-lucas","name":"Robert Lucas","shortName":"Lucas","partyId":"PPC","votes":131,"share":0.6211769168760966}],"partyVotes":{"LIB":13656,"CPC":6139,"BQ":0,"NDP":906,"GRN":257,"PPC":131,"OTH":0}},"buckets":[{"kind":"advance","polls":6,"electors":0,"voters":8138,"totalVotes":8073,"rejected":65,"turnout":0,"winnerId":"sean-casey","winnerPartyId":"LIB","runnerUpId":"natalie-jameson","runnerUpPartyId":"CPC","margin":44.12238325281804,"top":[{"id":"sean-casey","name":"Sean Casey","shortName":"Casey","partyId":"LIB","votes":5632,"share":69.76340889384367},{"id":"natalie-jameson","name":"Natalie Jameson","shortName":"Jameson","partyId":"CPC","votes":2070,"share":25.64102564102564},{"id":"joe-byrne","name":"Joe Byrne","shortName":"Byrne","partyId":"NDP","votes":285,"share":3.530286138981791},{"id":"daniel-cousins","name":"Daniel Cousins","shortName":"Cousins","partyId":"GRN","votes":58,"share":0.7184441967050662},{"id":"robert-lucas","name":"Robert Lucas","shortName":"Lucas","partyId":"PPC","votes":28,"share":0.3468351294438251}],"partyVotes":{"LIB":5632,"CPC":2070,"BQ":0,"NDP":285,"GRN":58,"PPC":28,"OTH":0}},{"kind":"special","polls":2,"electors":99,"voters":2642,"totalVotes":2600,"rejected":42,"turnout":2668.686868686869,"winnerId":"sean-casey","winnerPartyId":"LIB","runnerUpId":"natalie-jameson","runnerUpPartyId":"CPC","margin":44.269230769230774,"top":[{"id":"sean-casey","name":"Sean Casey","shortName":"Casey","partyId":"LIB","votes":1796,"share":69.07692307692308},{"id":"natalie-jameson","name":"Natalie Jameson","shortName":"Jameson","partyId":"CPC","votes":645,"share":24.807692307692307},{"id":"joe-byrne","name":"Joe Byrne","shortName":"Byrne","partyId":"NDP","votes":113,"share":4.346153846153846},{"id":"daniel-cousins","name":"Daniel Cousins","shortName":"Cousins","partyId":"GRN","votes":32,"share":1.2307692307692308},{"id":"robert-lucas","name":"Robert Lucas","shortName":"Lucas","partyId":"PPC","votes":14,"share":0.5384615384615384}],"partyVotes":{"LIB":1796,"CPC":645,"BQ":0,"NDP":113,"GRN":32,"PPC":14,"OTH":0}}],"features":[{"type":"Feature","id":"11002-1","properties":{"ridingCode":"11002","pollNumber":"1","pollType":"N","advancePollNumber":"600","sourceCode":"1-0","geometryPollNumbers":["1"],"code":"11002-1","resultPollNumbers":["1"],"resultStatus":"exact","result":{"electors":425,"voters":157,"totalVotes":155,"rejected":2,"turnout":36.94117647058823,"winnerId":"natalie-jameson","winnerPartyId":"CPC","runnerUpId":"sean-casey","runnerUpPartyId":"LIB","margin":2.5806451612903225,"top":[{"id":"natalie-jameson","name":"Natalie Jameson","shortName":"Jameson","partyId":"CPC","votes":71,"share":45.806451612903224},{"id":"sean-casey","name":"Sean Casey","shortName":"Casey","partyId":"LIB","votes":67,"share":43.225806451612904},{"id":"joe-byrne","name":"Joe Byrne","shortName":"Byrne","partyId":"NDP","votes":11,"share":7.096774193548387},{"id":"daniel-cousins","name":"Daniel Cousins","shortName":"Cousins","partyId":"GRN","votes":4,"share":2.5806451612903225}],"partyVotes":{"LIB":67,"CPC":71,"BQ":0,"NDP":11,"GRN":4,"PPC":2,"OTH":0}}},"geometry":{"type":"Polygon","coordinates":[[[714.96,149.41],[714.94,149.39],[715.03,149.3],[715.11,149.25],[715.13,149.23],[715.15,149.32],[715.16,149.38],[715.15,149.38],[715.12,149.4],[715.07,149.36],[715.02,149.41],[715,149.4],[714.98,149.41],[714.97,149.4],[714.96,149.41]]]}},{"type":"Feature","id":"11002-2","properties":{"ridingCode":"11002","pollNumber":"2","pollType":"N","advancePollNumber":"600","sourceCode":"2-0","geometryPollNumbers":["2"],"code":"11002-2","resultPollNumbers":["2"],"resultStatus":"exact","result":{"electors":555,"voters":318,"totalVotes":316,"rejected":2,"turnout":57.2972972972973,"winnerId":"sean-casey","winnerPartyId":"LIB","runnerUpId":"natalie-jameson","runnerUpPartyId":"CPC","margin":18.670886075949365,"top":[{"id":"sean-casey","name":"Sean Casey","shortName":"Casey","partyId":"LIB","votes":179,"share":56.64556962025317},{"id":"natalie-jameson","name":"Natalie Jameson","shortName":"Jameson","partyId":"CPC","votes":120,"share":37.9746835443038},{"id":"joe-byrne","name":"Joe Byrne","shortName":"Byrne","partyId":"NDP","votes":12,"share":3.79746835443038},{"id":"daniel-cousins","name":"Daniel Cousins","shortName":"Cousins","partyId":"GRN","votes":3,"share":0.949367088607595}],"partyVotes":{"LIB":179,"CPC":120,"BQ":0,"NDP":12,"GRN":3,"PPC":2,"OTH":0}}},"geometry":{"type":"Polygon","coordinates":[[[714.82,149.18],[714.86,149.13],[714.87,149.13],[714.95,149.07],[714.98,149.12],[714.97,149.15],[714.98,149.15],[714.96,149.16],[714.98,149.2],[714.96,149.22],[714.98,149.24],[715.06,149.18],[715.11,149.25],[715.03,149.3],[714.94,149.39],[714.92,149.41],[714.87,149.36],[714.84,149.37],[714.79,149.33],[714.89,149.24],[714.9,149.22],[714.9,149.21],[714.86,149.23],[714.82,149.18]]]}},{"type":"Feature","id":"11002-3","properties":{"ridingCode":"11002","pollNumber":"3","pollType":"N","advancePollNumber":"600","sourceCode":"3-0","geometryPollNumbers":["3"],"code":"11002-3","resultPollNumbers":["3"],"resultStatus":"exact","result":{"electors":493,"voters":235,"totalVotes":233,"rejected":2,"turnout":47.66734279918864,"winnerId":"sean-casey","winnerPartyId":"LIB","runnerUpId":"natalie-jameson","runnerUpPartyId":"CPC","margin":10.300429184549357,"top":[{"id":"sean-casey","name":"Sean Casey","shortName":"Casey","partyId":"LIB","votes":124,"share":53.21888412017167},{"id":"natalie-jameson","name":"Natalie Jameson","shortName":"Jameson","partyId":"CPC","votes":100,"share":42.91845493562232},{"id":"joe-byrne","name":"Joe Byrne","shortName":"Byrne","partyId":"NDP","votes":4,"share":1.7167381974248928},{"id":"robert-lucas","name":"Robert Lucas","shortName":"Lucas","partyId":"PPC","votes":3,"share":1.2875536480686696}],"partyVotes":{"LIB":124,"CPC":100,"BQ":0,"NDP":4,"GRN":2,"PPC":3,"OTH":0}}},"geometry":{"type":"Polygon","coordinates":[[[715.13,149.14],[715.12,149.13],[715.12,149.14],[715.12,149.13],[715.13,149.12],[715.14,149.12],[715.15,149.12],[715.16,149.13],[715.17,149.13],[715.17,149.15],[715.18,149.15],[715.19,149.16],[715.22,149.16],[715.23,149.15],[715.24,149.15],[715.26,149.16],[715.38,149.17],[715.29,149.2],[715.23,149.26],[715.15,149.32],[715.13,149.23],[715.13,149.21],[715.14,149.2],[715.14,149.2],[715.14,149.18],[715.14,149.18],[715.13,149.18],[715.12,149.17],[715.13,149.17],[715.13,149.14]]]}},{"type":"Feature","id":"11002-4","properties":{"ridingCode":"11002","pollNumber":"4","pollType":"N","advancePollNumber":"600","sourceCode":"4-0","geometryPollNumbers":["4"],"code":"11002-4","resultPollNumbers":["4"],"resultStatus":"exact","result":{"electors":580,"voters":287,"totalVotes":283,"rejected":4,"turnout":49.48275862068965,"winnerId":"sean-casey","winnerPartyId":"LIB","runnerUpId":"natalie-jameson","runnerUpPartyId":"CPC","margin":19.78798586572438,"top":[{"id":"sean-casey","name":"Sean Casey","shortName":"Casey","partyId":"LIB","votes":162,"share":57.243816254416956},{"id":"natalie-jameson","name":"Natalie Jameson","shortName":"Jameson","partyId":"CPC","votes":106,"share":37.455830388692576},{"id":"joe-byrne","name":"Joe Byrne","shortName":"Byrne","partyId":"NDP","votes":9,"share":3.180212014134275},{"id":"daniel-cousins","name":"Daniel Cousins","shortName":"Cousins","partyId":"GRN","votes":3,"share":1.0600706713780919}],"partyVotes":{"LIB":162,"CPC":106,"BQ":0,"NDP":9,"GRN":3,"PPC":3,"OTH":0}}},"geometry":{"type":"Polygon","coordinates":[[[715.06,149.18],[714.98,149.24],[714.98,149.22],[715.08,149.15],[715.11,149.13],[715.12,149.14],[715.12,149.13],[715.13,149.14],[715.13,149.17],[715.12,149.17],[715.13,149.18],[715.14,149.18],[715.14,149.18],[715.14,149.2],[715.14,149.2],[715.13,149.21],[715.13,149.23],[715.11,149.25],[715.06,149.18]]]}},{"type":"Feature","id":"11002-5","properties":{"ridingCode":"11002","pollNumber":"5","pollType":"N","advancePollNumber":"601","sourceCode":"5-0","geometryPollNumbers":["5"],"code":"11002-5","resultPollNumbers":["5"],"resultStatus":"exact","result":{"electors":538,"voters":240,"totalVotes":240,"rejected":0,"turnout":44.60966542750929,"winnerId":"sean-casey","winnerPartyId":"LIB","runnerUpId":"natalie-jameson","runnerUpPartyId":"CPC","margin":25.416666666666664,"top":[{"id":"sean-casey","name":"Sean Casey","shortName":"Casey","partyId":"LIB","votes":146,"share":60.83333333333333},{"id":"natalie-jameson","name":"Natalie Jameson","shortName":"Jameson","partyId":"CPC","votes":85,"share":35.41666666666667},{"id":"joe-byrne","name":"Joe Byrne","shortName":"Byrne","partyId":"NDP","votes":7,"share":2.9166666666666665},{"id":"daniel-cousins","name":"Daniel Cousins","shortName":"Cousins","partyId":"GRN","votes":2,"share":0.8333333333333334}],"partyVotes":{"LIB":146,"CPC":85,"BQ":0,"NDP":7,"GRN":2,"PPC":0,"OTH":0}}},"geometry":{"type":"Polygon","coordinates":[[[714.44,149.03],[714.54,149.02],[714.58,149.01],[714.57,149.02],[714.57,149.06],[714.62,149.05],[714.61,149.06],[714.7,149.15],[714.69,149.18],[714.69,149.19],[714.68,149.19],[714.58,149.09],[714.58,149.09],[714.58,149.08],[714.57,149.09],[714.56,149.08],[714.55,149.09],[714.54,149.09],[714.52,149.11],[714.51,149.11],[714.5,149.13],[714.49,149.14],[714.46,149.1],[714.48,149.09],[714.48,149.08],[714.44,149.03]]]}},{"type":"Feature","id":"11002-6","properties":{"ridingCode":"11002","pollNumber":"6","pollType":"N","advancePollNumber":"601","sourceCode":"6-0","geometryPollNumbers":["6"],"code":"11002-6","resultPollNumbers":["6"],"resultStatus":"exact","result":{"electors":380,"voters":166,"totalVotes":165,"rejected":1,"turnout":43.684210526315795,"winnerId":"sean-casey","winnerPartyId":"LIB","runnerUpId":"natalie-jameson","runnerUpPartyId":"CPC","margin":14.545454545454545,"top":[{"id":"sean-casey","name":"Sean Casey","shortName":"Casey","partyId":"LIB","votes":91,"share":55.15151515151515},{"id":"natalie-jameson","name":"Natalie Jameson","shortName":"Jameson","partyId":"CPC","votes":67,"share":40.60606060606061},{"id":"joe-byrne","name":"Joe Byrne","shortName":"Byrne","partyId":"NDP","votes":5,"share":3.0303030303030303},{"id":"daniel-cousins","name":"Daniel Cousins","shortName":"Cousins","partyId":"GRN","votes":1,"share":0.6060606060606061}],"partyVotes":{"LIB":91,"CPC":67,"BQ":0,"NDP":5,"GRN":1,"PPC":1,"OTH":0}}},"geometry":{"type":"Polygon","coordinates":[[[714.58,149.01],[714.62,149],[714.65,148.99],[714.66,149],[714.66,149],[714.67,149.01],[714.63,149.04],[714.62,149.03],[714.62,149.04],[714.63,149.05],[714.63,149.05],[714.62,149.05],[714.57,149.06],[714.57,149.02],[714.58,149.01]]]}},{"type":"Feature","id":"11002-7","properties":{"ridingCode":"11002","pollNumber":"7","pollType":"N","advancePollNumber":"601","sourceCode":"7-0","geometryPollNumbers":["7"],"code":"11002-7","resultPollNumbers":["7"],"resultStatus":"exact","result":{"electors":572,"voters":211,"totalVotes":211,"rejected":0,"turnout":36.888111888111894,"winnerId":"sean-casey","winnerPartyId":"LIB","runnerUpId":"natalie-jameson","runnerUpPartyId":"CPC","margin":10.42654028436019,"top":[{"id":"sean-casey","name":"Sean Casey","shortName":"Casey","partyId":"LIB","votes":113,"share":53.55450236966824},{"id":"natalie-jameson","name":"Natalie Jameson","shortName":"Jameson","partyId":"CPC","votes":91,"share":43.127962085308056},{"id":"joe-byrne","name":"Joe Byrne","shortName":"Byrne","partyId":"NDP","votes":6,"share":2.843601895734597},{"id":"daniel-cousins","name":"Daniel Cousins","shortName":"Cousins","partyId":"GRN","votes":1,"share":0.47393364928909953}],"partyVotes":{"LIB":113,"CPC":91,"BQ":0,"NDP":6,"GRN":1,"PPC":0,"OTH":0}}},"geometry":{"type":"Polygon","coordinates":[[[714.58,149.01],[714.54,148.96],[714.54,148.95],[714.54,148.93],[714.56,148.91],[714.56,148.89],[714.55,148.88],[714.56,148.87],[714.62,148.93],[714.63,148.94],[714.62,148.95],[714.62,148.96],[714.63,148.97],[714.63,148.97],[714.61,148.99],[714.62,149],[714.58,149.01]]]}},{"type":"Feature","id":"11002-8","properties":{"ridingCode":"11002","pollNumber":"8","pollType":"N","advancePollNumber":"600","sourceCode":"8-0","geometryPollNumbers":["8"],"code":"11002-8","resultPollNumbers":["8"],"resultStatus":"exact","result":{"electors":354,"voters":140,"totalVotes":140,"rejected":0,"turnout":39.548022598870055,"winnerId":"sean-casey","winnerPartyId":"LIB","runnerUpId":"natalie-jameson","runnerUpPartyId":"CPC","margin":18.571428571428573,"top":[{"id":"sean-casey","name":"Sean Casey","shortName":"Casey","partyId":"LIB","votes":80,"share":57.14285714285714},{"id":"natalie-jameson","name":"Natalie Jameson","shortName":"Jameson","partyId":"CPC","votes":54,"share":38.57142857142858},{"id":"joe-byrne","name":"Joe Byrne","shortName":"Byrne","partyId":"NDP","votes":5,"share":3.571428571428571},{"id":"daniel-cousins","name":"Daniel Cousins","shortName":"Cousins","partyId":"GRN","votes":1,"share":0.7142857142857143}],"partyVotes":{"LIB":80,"CPC":54,"BQ":0,"NDP":5,"GRN":1,"PPC":0,"OTH":0}}},"geometry":{"type":"Polygon","coordinates":[[[714.95,149.07],[714.96,149.06],[715.06,149.08],[715.06,149.09],[715.05,149.09],[715.05,149.1],[715.08,149.15],[714.98,149.22],[714.98,149.24],[714.96,149.22],[714.98,149.2],[714.96,149.16],[714.98,149.15],[714.97,149.15],[714.98,149.12],[714.95,149.07]]]}},{"type":"Feature","id":"11002-9","properties":{"ridingCode":"11002","pollNumber":"9","pollType":"N","advancePollNumber":"603","sourceCode":"9-0","geometryPollNumbers":["9"],"code":"11002-9","resultPollNumbers":["9"],"resultStatus":"exact","result":{"electors":454,"voters":186,"totalVotes":182,"rejected":4,"turnout":40.969162995594715,"winnerId":"sean-casey","winnerPartyId":"LIB","runnerUpId":"natalie-jameson","runnerUpPartyId":"CPC","margin":15.934065934065933,"top":[{"id":"sean-casey","name":"Sean Casey","shortName":"Casey","partyId":"LIB","votes":102,"share":56.043956043956044},{"id":"natalie-jameson","name":"Natalie Jameson","shortName":"Jameson","partyId":"CPC","votes":73,"share":40.10989010989011},{"id":"joe-byrne","name":"Joe Byrne","shortName":"Byrne","partyId":"NDP","votes":5,"share":2.7472527472527473},{"id":"daniel-cousins","name":"Daniel Cousins","shortName":"Cousins","partyId":"GRN","votes":2,"share":1.098901098901099}],"partyVotes":{"LIB":102,"CPC":73,"BQ":0,"NDP":5,"GRN":2,"PPC":0,"OTH":0}}},"geometry":{"type":"Polygon","coordinates":[[[715.02,149.03],[715.05,149.01],[715.05,149.01],[715.06,149.02],[715.09,148.99],[715.1,149],[715.11,149],[715.1,149.01],[715.1,149.03],[715.1,149.05],[715.07,149.07],[715.06,149.08],[715.06,149.08],[715.05,149.07],[715.06,149.06],[715.04,149.03],[715.03,149.03],[715.04,149.04],[715.03,149.05],[715.02,149.03]]]}},{"type":"Feature","id":"11002-10","properties":{"ridingCode":"11002","pollNumber":"10","pollType":"N","advancePollNumber":"602","sourceCode":"10-0","geometryPollNumbers":["10"],"code":"11002-10","resultPollNumbers":["10"],"resultStatus":"exact","result":{"electors":441,"voters":209,"totalVotes":208,"rejected":1,"turnout":47.3922902494331,"winnerId":"sean-casey","winnerPartyId":"LIB","runnerUpId":"natalie-jameson","runnerUpPartyId":"CPC","margin":41.82692307692308,"top":[{"id":"sean-casey","name":"Sean Casey","shortName":"Casey","partyId":"LIB","votes":141,"share":67.78846153846155},{"id":"natalie-jameson","name":"Natalie Jameson","shortName":"Jameson","partyId":"CPC","votes":54,"share":25.961538461538463},{"id":"joe-byrne","name":"Joe Byrne","shortName":"Byrne","partyId":"NDP","votes":11,"share":5.288461538461538},{"id":"daniel-cousins","name":"Daniel Cousins","shortName":"Cousins","partyId":"GRN","votes":1,"share":0.4807692307692308}],"partyVotes":{"LIB":141,"CPC":54,"BQ":0,"NDP":11,"GRN":1,"PPC":1,"OTH":0}}},"geometry":{"type":"Polygon","coordinates":[[[714.96,149.02],[715.02,148.97],[715.05,149.01],[715.02,149.03],[715.01,149.03],[714.97,149.06],[714.97,149.05],[714.96,149.05],[714.95,149.05],[714.97,149.03],[714.96,149.02]]]}},{"type":"Feature","id":"11002-11","properties":{"ridingCode":"11002","pollNumber":"11","pollType":"N","advancePollNumber":"603","sourceCode":"11-0","geometryPollNumbers":["11"],"code":"11002-11","resultPollNumbers":["11"],"resultStatus":"exact","result":{"electors":493,"voters":222,"totalVotes":222,"rejected":0,"turnout":45.030425963488845,"winnerId":"sean-casey","winnerPartyId":"LIB","runnerUpId":"natalie-jameson","runnerUpPartyId":"CPC","margin":42.792792792792795,"top":[{"id":"sean-casey","name":"Sean Casey","shortName":"Casey","partyId":"LIB","votes":151,"share":68.01801801801803},{"id":"natalie-jameson","name":"Natalie Jameson","shortName":"Jameson","partyId":"CPC","votes":56,"share":25.225225225225223},{"id":"joe-byrne","name":"Joe Byrne","shortName":"Byrne","partyId":"NDP","votes":11,"share":4.954954954954955},{"id":"daniel-cousins","name":"Daniel Cousins","shortName":"Cousins","partyId":"GRN","votes":2,"share":0.9009009009009009}],"partyVotes":{"LIB":151,"CPC":56,"BQ":0,"NDP":11,"GRN":2,"PPC":2,"OTH":0}}},"geometry":{"type":"Polygon","coordinates":[[[715.03,148.97],[715.04,148.96],[715.05,148.96],[715.07,148.95],[715.08,148.94],[715.07,148.94],[715.09,148.92],[715.12,148.95],[715.12,148.96],[715.11,148.98],[715.11,148.99],[715.11,149],[715.1,149],[715.09,148.99],[715.06,149.02],[715.05,149.01],[715.05,149.01],[715.02,148.97],[715.03,148.97]],[[715.1,148.95],[715.1,148.95],[715.1,148.95],[715.1,148.95]]]}},{"type":"Feature","id":"11002-12","properties":{"ridingCode":"11002","pollNumber":"12","pollType":"N","advancePollNumber":"601","sourceCode":"12-0","geometryPollNumbers":["12"],"code":"11002-12","resultPollNumbers":["12"],"resultStatus":"exact","result":{"electors":367,"voters":172,"totalVotes":170,"rejected":2,"turnout":46.86648501362398,"winnerId":"sean-casey","winnerPartyId":"LIB","runnerUpId":"natalie-jameson","runnerUpPartyId":"CPC","margin":8.235294117647058,"top":[{"id":"sean-casey","name":"Sean Casey","shortName":"Casey","partyId":"LIB","votes":88,"share":51.76470588235295},{"id":"natalie-jameson","name":"Natalie Jameson","shortName":"Jameson","partyId":"CPC","votes":74,"share":43.529411764705884},{"id":"joe-byrne","name":"Joe Byrne","shortName":"Byrne","partyId":"NDP","votes":4,"share":2.3529411764705883},{"id":"daniel-cousins","name":"Daniel Cousins","shortName":"Cousins","partyId":"GRN","votes":3,"share":1.7647058823529411}],"partyVotes":{"LIB":88,"CPC":74,"BQ":0,"NDP":4,"GRN":3,"PPC":1,"OTH":0}}},"geometry":{"type":"Polygon","coordinates":[[[714.63,149.05],[714.63,149.05],[714.62,149.04],[714.62,149.03],[714.63,149.04],[714.67,149.01],[714.66,149],[714.66,149],[714.65,148.99],[714.68,148.99],[714.72,148.96],[714.77,149.01],[714.8,149.04],[714.87,149.13],[714.86,149.13],[714.84,149.11],[714.83,149.11],[714.83,149.11],[714.82,149.11],[714.8,149.1],[714.79,149.11],[714.78,149.11],[714.77,149.11],[714.75,149.13],[714.74,149.13],[714.72,149.13],[714.71,149.13],[714.7,149.14],[714.7,149.15],[714.61,149.06],[714.62,149.05],[714.63,149.05]]]}},{"type":"Feature","id":"11002-13","properties":{"ridingCode":"11002","pollNumber":"13","pollType":"N","advancePollNumber":"602","sourceCode":"13-0","geometryPollNumbers":["13"],"code":"11002-13","resultPollNumbers":["13"],"resultStatus":"exact","result":{"electors":459,"voters":162,"totalVotes":160,"rejected":2,"turnout":35.294117647058826,"winnerId":"sean-casey","winnerPartyId":"LIB","runnerUpId":"natalie-jameson","runnerUpPartyId":"CPC","margin":21.875,"top":[{"id":"sean-casey","name":"Sean Casey","shortName":"Casey","partyId":"LIB","votes":93,"share":58.12500000000001},{"id":"natalie-jameson","name":"Natalie Jameson","shortName":"Jameson","partyId":"CPC","votes":58,"share":36.25},{"id":"joe-byrne","name":"Joe Byrne","shortName":"Byrne","partyId":"NDP","votes":6,"share":3.75},{"id":"robert-lucas","name":"Robert Lucas","shortName":"Lucas","partyId":"PPC","votes":2,"share":1.25}],"partyVotes":{"LIB":93,"CPC":58,"BQ":0,"NDP":6,"GRN":1,"PPC":2,"OTH":0}}},"geometry":{"type":"Polygon","coordinates":[[[714.96,149.06],[714.97,149.06],[715.01,149.03],[715.02,149.03],[715.03,149.05],[715.04,149.04],[715.03,149.03],[715.04,149.03],[715.06,149.06],[715.05,149.07],[715.06,149.08],[715.06,149.08],[714.96,149.06]]]}},{"type":"Feature","id":"11002-14","properties":{"ridingCode":"11002","pollNumber":"14","pollType":"N","advancePollNumber":"601","sourceCode":"14-0","geometryPollNumbers":["14"],"code":"11002-14","resultPollNumbers":["14"],"resultStatus":"exact","result":{"electors":448,"voters":176,"totalVotes":173,"rejected":3,"turnout":39.285714285714285,"winnerId":"sean-casey","winnerPartyId":"LIB","runnerUpId":"natalie-jameson","runnerUpPartyId":"CPC","margin":23.699421965317917,"top":[{"id":"sean-casey","name":"Sean Casey","shortName":"Casey","partyId":"LIB","votes":104,"share":60.115606936416185},{"id":"natalie-jameson","name":"Natalie Jameson","shortName":"Jameson","partyId":"CPC","votes":63,"share":36.41618497109826},{"id":"joe-byrne","name":"Joe Byrne","shortName":"Byrne","partyId":"NDP","votes":5,"share":2.8901734104046244},{"id":"robert-lucas","name":"Robert Lucas","shortName":"Lucas","partyId":"PPC","votes":1,"share":0.5780346820809248}],"partyVotes":{"LIB":104,"CPC":63,"BQ":0,"NDP":5,"GRN":0,"PPC":1,"OTH":0}}},"geometry":{"type":"Polygon","coordinates":[[[714.77,149.01],[714.83,148.97],[714.89,149.01],[714.93,148.98],[714.96,149.02],[714.97,149.03],[714.95,149.05],[714.96,149.05],[714.97,149.05],[714.97,149.06],[714.96,149.06],[714.95,149.07],[714.87,149.13],[714.8,149.04],[714.77,149.01]]]}},{"type":"Feature","id":"11002-15","properties":{"ridingCode":"11002","pollNumber":"15","pollType":"N","advancePollNumber":"600","sourceCode":"15-0","geometryPollNumbers":["15"],"code":"11002-15","resultPollNumbers":["15"],"resultStatus":"exact","result":{"electors":407,"voters":157,"totalVotes":154,"rejected":3,"turnout":38.57493857493858,"winnerId":"sean-casey","winnerPartyId":"LIB","runnerUpId":"natalie-jameson","runnerUpPartyId":"CPC","margin":14.285714285714285,"top":[{"id":"sean-casey","name":"Sean Casey","shortName":"Casey","partyId":"LIB","votes":82,"share":53.246753246753244},{"id":"natalie-jameson","name":"Natalie Jameson","shortName":"Jameson","partyId":"CPC","votes":60,"share":38.961038961038966},{"id":"joe-byrne","name":"Joe Byrne","shortName":"Byrne","partyId":"NDP","votes":6,"share":3.896103896103896},{"id":"daniel-cousins","name":"Daniel Cousins","shortName":"Cousins","partyId":"GRN","votes":4,"share":2.5974025974025974}],"partyVotes":{"LIB":82,"CPC":60,"BQ":0,"NDP":6,"GRN":4,"PPC":2,"OTH":0}}},"geometry":{"type":"Polygon","coordinates":[[[715.06,149.09],[715.06,149.08],[715.07,149.08],[715.09,149.08],[715.1,149.06],[715.11,149.08],[715.12,149.13],[715.12,149.14],[715.11,149.13],[715.08,149.15],[715.05,149.1],[715.05,149.09],[715.06,149.09]]]}},{"type":"Feature","id":"11002-16","properties":{"ridingCode":"11002","pollNumber":"16","pollType":"N","advancePollNumber":"600","sourceCode":"16-0","geometryPollNumbers":["16"],"code":"11002-16","resultPollNumbers":["16"],"resultStatus":"exact","result":{"electors":435,"voters":180,"totalVotes":180,"rejected":0,"turnout":41.37931034482759,"winnerId":"natalie-jameson","winnerPartyId":"CPC","runnerUpId":"sean-casey","runnerUpPartyId":"LIB","margin":12.222222222222221,"top":[{"id":"natalie-jameson","name":"Natalie Jameson","shortName":"Jameson","partyId":"CPC","votes":97,"share":53.888888888888886},{"id":"sean-casey","name":"Sean Casey","shortName":"Casey","partyId":"LIB","votes":75,"share":41.66666666666667},{"id":"daniel-cousins","name":"Daniel Cousins","shortName":"Cousins","partyId":"GRN","votes":5,"share":2.7777777777777777},{"id":"joe-byrne","name":"Joe Byrne","shortName":"Byrne","partyId":"NDP","votes":3,"share":1.6666666666666667}],"partyVotes":{"LIB":75,"CPC":97,"BQ":0,"NDP":3,"GRN":5,"PPC":0,"OTH":0}}},"geometry":{"type":"Polygon","coordinates":[[[715.12,149.13],[715.11,149.08],[715.11,149.08],[715.13,149.08],[715.15,149.08],[715.15,149.07],[715.16,149.06],[715.18,149.09],[715.17,149.09],[715.19,149.1],[715.15,149.12],[715.14,149.12],[715.13,149.12],[715.12,149.13]]]}},{"type":"Feature","id":"11002-17","properties":{"ridingCode":"11002","pollNumber":"17","pollType":"N","advancePollNumber":"600","sourceCode":"17-0","geometryPollNumbers":["17"],"code":"11002-17","resultPollNumbers":["17"],"resultStatus":"exact","result":{"electors":475,"voters":202,"totalVotes":202,"rejected":0,"turnout":42.526315789473685,"winnerId":"sean-casey","winnerPartyId":"LIB","runnerUpId":"natalie-jameson","runnerUpPartyId":"CPC","margin":29.207920792079207,"top":[{"id":"sean-casey","name":"Sean Casey","shortName":"Casey","partyId":"LIB","votes":123,"share":60.89108910891089},{"id":"natalie-jameson","name":"Natalie Jameson","shortName":"Jameson","partyId":"CPC","votes":64,"share":31.683168316831683},{"id":"joe-byrne","name":"Joe Byrne","shortName":"Byrne","partyId":"NDP","votes":11,"share":5.445544554455446},{"id":"daniel-cousins","name":"Daniel Cousins","shortName":"Cousins","partyId":"GRN","votes":3,"share":1.4851485148514851}],"partyVotes":{"LIB":123,"CPC":64,"BQ":0,"NDP":11,"GRN":3,"PPC":1,"OTH":0}}},"geometry":{"type":"Polygon","coordinates":[[[715.14,149.04],[715.18,149.04],[715.18,149.05],[715.19,149.05],[715.21,149.07],[715.22,149.07],[715.22,149.07],[715.19,149.1],[715.19,149.1],[715.17,149.09],[715.18,149.09],[715.16,149.06],[715.15,149.06],[715.15,149.05],[715.14,149.05],[715.14,149.04],[715.14,149.04]]]}},{"type":"Feature","id":"11002-18","properties":{"ridingCode":"11002","pollNumber":"18","pollType":"N","advancePollNumber":"600","sourceCode":"18-0","geometryPollNumbers":["18"],"code":"11002-18","resultPollNumbers":["18"],"resultStatus":"exact","result":{"electors":505,"voters":243,"totalVotes":241,"rejected":2,"turnout":48.118811881188115,"winnerId":"sean-casey","winnerPartyId":"LIB","runnerUpId":"natalie-jameson","runnerUpPartyId":"CPC","margin":14.937759336099585,"top":[{"id":"sean-casey","name":"Sean Casey","shortName":"Casey","partyId":"LIB","votes":134,"share":55.601659751037346},{"id":"natalie-jameson","name":"Natalie Jameson","shortName":"Jameson","partyId":"CPC","votes":98,"share":40.66390041493776},{"id":"daniel-cousins","name":"Daniel Cousins","shortName":"Cousins","partyId":"GRN","votes":6,"share":2.4896265560165975},{"id":"joe-byrne","name":"Joe Byrne","shortName":"Byrne","partyId":"NDP","votes":3,"share":1.2448132780082988}],"partyVotes":{"LIB":134,"CPC":98,"BQ":0,"NDP":3,"GRN":6,"PPC":0,"OTH":0}}},"geometry":{"type":"Polygon","coordinates":[[[715.18,149.04],[715.23,149.04],[715.24,149.04],[715.25,149.03],[715.24,149.04],[715.24,149.04],[715.25,149.06],[715.26,149.05],[715.26,149.08],[715.25,149.08],[715.25,149.09],[715.24,149.09],[715.2,149.1],[715.19,149.1],[715.22,149.07],[715.22,149.07],[715.21,149.07],[715.19,149.05],[715.18,149.05],[715.18,149.04]]]}},{"type":"Feature","id":"11002-19","properties":{"ridingCode":"11002","pollNumber":"19","pollType":"N","advancePollNumber":"603","sourceCode":"19-0","geometryPollNumbers":["19"],"code":"11002-19","resultPollNumbers":["19"],"resultStatus":"exact","result":{"electors":485,"voters":233,"totalVotes":231,"rejected":2,"turnout":48.04123711340206,"winnerId":"sean-casey","winnerPartyId":"LIB","runnerUpId":"natalie-jameson","runnerUpPartyId":"CPC","margin":16.883116883116884,"top":[{"id":"sean-casey","name":"Sean Casey","shortName":"Casey","partyId":"LIB","votes":125,"share":54.112554112554115},{"id":"natalie-jameson","name":"Natalie Jameson","shortName":"Jameson","partyId":"CPC","votes":86,"share":37.22943722943723},{"id":"joe-byrne","name":"Joe Byrne","shortName":"Byrne","partyId":"NDP","votes":14,"share":6.0606060606060606},{"id":"daniel-cousins","name":"Daniel Cousins","shortName":"Cousins","partyId":"GRN","votes":4,"share":1.7316017316017316}],"partyVotes":{"LIB":125,"CPC":86,"BQ":0,"NDP":14,"GRN":4,"PPC":2,"OTH":0}}},"geometry":{"type":"Polygon","coordinates":[[[715.24,148.95],[715.35,148.93],[715.36,149.08],[715.38,149.17],[715.26,149.16],[715.24,149.15],[715.23,149.15],[715.22,149.16],[715.19,149.16],[715.18,149.15],[715.17,149.15],[715.17,149.13],[715.16,149.13],[715.15,149.12],[715.19,149.1],[715.19,149.1],[715.2,149.1],[715.24,149.09],[715.25,149.09],[715.25,149.08],[715.26,149.08],[715.26,149.05],[715.25,149.06],[715.24,149.04],[715.24,149.04],[715.25,149.03],[715.25,149.01],[715.24,148.95]]]}},{"type":"Feature","id":"11002-20","properties":{"ridingCode":"11002","pollNumber":"20","pollType":"N","advancePollNumber":"603","sourceCode":"20-0","geometryPollNumbers":["20"],"code":"11002-20","resultPollNumbers":["20"],"resultStatus":"exact","result":{"electors":475,"voters":156,"totalVotes":155,"rejected":1,"turnout":32.8421052631579,"winnerId":"natalie-jameson","winnerPartyId":"CPC","runnerUpId":"sean-casey","runnerUpPartyId":"LIB","margin":6.451612903225806,"top":[{"id":"natalie-jameson","name":"Natalie Jameson","shortName":"Jameson","partyId":"CPC","votes":76,"share":49.03225806451613},{"id":"sean-casey","name":"Sean Casey","shortName":"Casey","partyId":"LIB","votes":66,"share":42.58064516129032},{"id":"daniel-cousins","name":"Daniel Cousins","shortName":"Cousins","partyId":"GRN","votes":7,"share":4.516129032258064},{"id":"joe-byrne","name":"Joe Byrne","shortName":"Byrne","partyId":"NDP","votes":6,"share":3.870967741935484}],"partyVotes":{"LIB":66,"CPC":76,"BQ":0,"NDP":6,"GRN":7,"PPC":0,"OTH":0}}},"geometry":{"type":"Polygon","coordinates":[[[715.06,149.08],[715.06,149.08],[715.06,149.08],[715.07,149.07],[715.1,149.05],[715.1,149.03],[715.1,149.01],[715.14,149.02],[715.14,149.04],[715.14,149.04],[715.14,149.05],[715.15,149.05],[715.15,149.06],[715.16,149.06],[715.15,149.07],[715.15,149.08],[715.13,149.08],[715.11,149.08],[715.11,149.08],[715.1,149.06],[715.09,149.08],[715.07,149.08],[715.06,149.08]]]}},{"type":"Feature","id":"11002-21","properties":{"ridingCode":"11002","pollNumber":"21","pollType":"N","advancePollNumber":"602","sourceCode":"21-0","geometryPollNumbers":["21"],"code":"11002-21","resultPollNumbers":["21"],"resultStatus":"exact","result":{"electors":471,"voters":208,"totalVotes":206,"rejected":2,"turnout":44.161358811040344,"winnerId":"sean-casey","winnerPartyId":"LIB","runnerUpId":"natalie-jameson","runnerUpPartyId":"CPC","margin":38.349514563106794,"top":[{"id":"sean-casey","name":"Sean Casey","shortName":"Casey","partyId":"LIB","votes":136,"share":66.01941747572816},{"id":"natalie-jameson","name":"Natalie Jameson","shortName":"Jameson","partyId":"CPC","votes":57,"share":27.669902912621357},{"id":"joe-byrne","name":"Joe Byrne","shortName":"Byrne","partyId":"NDP","votes":12,"share":5.825242718446602},{"id":"robert-lucas","name":"Robert Lucas","shortName":"Lucas","partyId":"PPC","votes":1,"share":0.48543689320388345}],"partyVotes":{"LIB":136,"CPC":57,"BQ":0,"NDP":12,"GRN":0,"PPC":1,"OTH":0}}},"geometry":{"type":"Polygon","coordinates":[[[714.93,148.98],[714.99,148.94],[715,148.94],[715.01,148.94],[715.03,148.95],[715.02,148.96],[715.03,148.97],[715.02,148.97],[714.96,149.02],[714.93,148.98]]]}},{"type":"Feature","id":"11002-22","properties":{"ridingCode":"11002","pollNumber":"22","pollType":"N","advancePollNumber":"602","sourceCode":"22-0","geometryPollNumbers":["22"],"code":"11002-22","resultPollNumbers":["22"],"resultStatus":"exact","result":{"electors":482,"voters":209,"totalVotes":208,"rejected":1,"turnout":43.36099585062241,"winnerId":"sean-casey","winnerPartyId":"LIB","runnerUpId":"natalie-jameson","runnerUpPartyId":"CPC","margin":37.980769230769226,"top":[{"id":"sean-casey","name":"Sean Casey","shortName":"Casey","partyId":"LIB","votes":135,"share":64.90384615384616},{"id":"natalie-jameson","name":"Natalie Jameson","shortName":"Jameson","partyId":"CPC","votes":56,"share":26.923076923076923},{"id":"joe-byrne","name":"Joe Byrne","shortName":"Byrne","partyId":"NDP","votes":12,"share":5.769230769230769},{"id":"daniel-cousins","name":"Daniel Cousins","shortName":"Cousins","partyId":"GRN","votes":3,"share":1.4423076923076923}],"partyVotes":{"LIB":135,"CPC":56,"BQ":0,"NDP":12,"GRN":3,"PPC":2,"OTH":0}}},"geometry":{"type":"Polygon","coordinates":[[[714.99,148.94],[715.02,148.92],[715.02,148.92],[715.07,148.88],[715.09,148.92],[715.07,148.94],[715.08,148.94],[715.07,148.95],[715.05,148.96],[715.04,148.96],[715.03,148.97],[715.02,148.96],[715.03,148.95],[715.01,148.94],[715,148.94],[714.99,148.94]],[[715.06,148.89],[715.07,148.91],[715.07,148.91],[715.07,148.89],[715.06,148.89]]]}},{"type":"Feature","id":"11002-23","properties":{"ridingCode":"11002","pollNumber":"23","pollType":"N","advancePollNumber":"602","sourceCode":"23-0","geometryPollNumbers":["23"],"code":"11002-23","resultPollNumbers":["23"],"resultStatus":"exact","result":{"electors":447,"voters":112,"totalVotes":110,"rejected":2,"turnout":25.05592841163311,"winnerId":"sean-casey","winnerPartyId":"LIB","runnerUpId":"natalie-jameson","runnerUpPartyId":"CPC","margin":41.81818181818181,"top":[{"id":"sean-casey","name":"Sean Casey","shortName":"Casey","partyId":"LIB","votes":75,"share":68.18181818181817},{"id":"natalie-jameson","name":"Natalie Jameson","shortName":"Jameson","partyId":"CPC","votes":29,"share":26.36363636363636},{"id":"joe-byrne","name":"Joe Byrne","shortName":"Byrne","partyId":"NDP","votes":3,"share":2.727272727272727},{"id":"daniel-cousins","name":"Daniel Cousins","shortName":"Cousins","partyId":"GRN","votes":2,"share":1.8181818181818181}],"partyVotes":{"LIB":75,"CPC":29,"BQ":0,"NDP":3,"GRN":2,"PPC":1,"OTH":0}}},"geometry":{"type":"Polygon","coordinates":[[[714.83,148.97],[714.86,148.95],[714.86,148.95],[714.89,148.92],[714.86,148.87],[714.84,148.86],[714.88,148.83],[714.92,148.88],[714.94,148.87],[714.95,148.88],[715.03,148.82],[715.05,148.84],[715.07,148.88],[715.02,148.92],[715.02,148.91],[715.02,148.92],[714.99,148.94],[714.93,148.98],[714.89,149.01],[714.83,148.97]]]}},{"type":"Feature","id":"11002-24","properties":{"ridingCode":"11002","pollNumber":"24","pollType":"N","advancePollNumber":"604","sourceCode":"24-0","geometryPollNumbers":["24"],"code":"11002-24","resultPollNumbers":["24"],"resultStatus":"exact","result":{"electors":491,"voters":119,"totalVotes":118,"rejected":1,"turnout":24.236252545824847,"winnerId":"sean-casey","winnerPartyId":"LIB","runnerUpId":"natalie-jameson","runnerUpPartyId":"CPC","margin":18.64406779661017,"top":[{"id":"sean-casey","name":"Sean Casey","shortName":"Casey","partyId":"LIB","votes":64,"share":54.23728813559322},{"id":"natalie-jameson","name":"Natalie Jameson","shortName":"Jameson","partyId":"CPC","votes":42,"share":35.59322033898305},{"id":"joe-byrne","name":"Joe Byrne","shortName":"Byrne","partyId":"NDP","votes":7,"share":5.932203389830509},{"id":"robert-lucas","name":"Robert Lucas","shortName":"Lucas","partyId":"PPC","votes":3,"share":2.5423728813559325}],"partyVotes":{"LIB":64,"CPC":42,"BQ":0,"NDP":7,"GRN":2,"PPC":3,"OTH":0}}},"geometry":{"type":"Polygon","coordinates":[[[714.92,148.88],[714.88,148.83],[714.91,148.81],[714.93,148.8],[714.94,148.82],[714.95,148.81],[714.95,148.81],[714.96,148.8],[714.97,148.82],[714.96,148.82],[714.96,148.83],[714.95,148.84],[714.96,148.85],[714.97,148.84],[714.97,148.84],[714.97,148.84],[714.99,148.83],[715,148.83],[715,148.82],[715,148.81],[715,148.81],[714.99,148.8],[715,148.79],[715.01,148.79],[715.03,148.82],[714.95,148.88],[714.94,148.87],[714.92,148.88]]]}},{"type":"Feature","id":"11002-25","properties":{"ridingCode":"11002","pollNumber":"25","pollType":"N","advancePollNumber":"603","sourceCode":"25-0","geometryPollNumbers":["25"],"code":"11002-25","resultPollNumbers":["25"],"resultStatus":"exact","result":{"electors":367,"voters":121,"totalVotes":121,"rejected":0,"turnout":32.9700272479564,"winnerId":"sean-casey","winnerPartyId":"LIB","runnerUpId":"natalie-jameson","runnerUpPartyId":"CPC","margin":9.917355371900827,"top":[{"id":"sean-casey","name":"Sean Casey","shortName":"Casey","partyId":"LIB","votes":59,"share":48.760330578512395},{"id":"natalie-jameson","name":"Natalie Jameson","shortName":"Jameson","partyId":"CPC","votes":47,"share":38.84297520661157},{"id":"joe-byrne","name":"Joe Byrne","shortName":"Byrne","partyId":"NDP","votes":9,"share":7.43801652892562},{"id":"daniel-cousins","name":"Daniel Cousins","shortName":"Cousins","partyId":"GRN","votes":4,"share":3.3057851239669422}],"partyVotes":{"LIB":59,"CPC":47,"BQ":0,"NDP":9,"GRN":4,"PPC":2,"OTH":0}}},"geometry":{"type":"Polygon","coordinates":[[[715.11,149],[715.11,148.99],[715.11,148.99],[715.11,148.98],[715.11,148.98],[715.12,148.96],[715.16,148.97],[715.14,149.02],[715.1,149.01],[715.11,149]],[[715.13,148.99],[715.13,148.99],[715.13,148.99],[715.13,148.99]]]}},{"type":"Feature","id":"11002-26","properties":{"ridingCode":"11002","pollNumber":"26","pollType":"N","advancePollNumber":"603","sourceCode":"26-0","geometryPollNumbers":["26"],"code":"11002-26","resultPollNumbers":["26"],"resultStatus":"exact","result":{"electors":340,"voters":108,"totalVotes":106,"rejected":2,"turnout":31.76470588235294,"winnerId":"sean-casey","winnerPartyId":"LIB","runnerUpId":"natalie-jameson","runnerUpPartyId":"CPC","margin":31.132075471698112,"top":[{"id":"sean-casey","name":"Sean Casey","shortName":"Casey","partyId":"LIB","votes":68,"share":64.15094339622641},{"id":"natalie-jameson","name":"Natalie Jameson","shortName":"Jameson","partyId":"CPC","votes":35,"share":33.0188679245283},{"id":"joe-byrne","name":"Joe Byrne","shortName":"Byrne","partyId":"NDP","votes":2,"share":1.8867924528301887},{"id":"daniel-cousins","name":"Daniel Cousins","shortName":"Cousins","partyId":"GRN","votes":1,"share":0.9433962264150944}],"partyVotes":{"LIB":68,"CPC":35,"BQ":0,"NDP":2,"GRN":1,"PPC":0,"OTH":0}}},"geometry":{"type":"Polygon","coordinates":[[[715.14,149.04],[715.14,149.02],[715.16,148.97],[715.17,148.93],[715.17,148.91],[715.23,148.93],[715.23,148.94],[715.24,148.93],[715.24,148.92],[715.35,148.9],[715.35,148.93],[715.24,148.95],[715.25,149.01],[715.25,149.03],[715.24,149.04],[715.23,149.04],[715.18,149.04],[715.14,149.04]]]}},{"type":"Feature","id":"11002-27","properties":{"ridingCode":"11002","pollNumber":"27","pollType":"N","advancePollNumber":"603","sourceCode":"27-0","geometryPollNumbers":["27"],"code":"11002-27","resultPollNumbers":["27"],"resultStatus":"exact","result":{"electors":352,"voters":108,"totalVotes":106,"rejected":2,"turnout":30.681818181818183,"winnerId":"sean-casey","winnerPartyId":"LIB","runnerUpId":"natalie-jameson","runnerUpPartyId":"CPC","margin":44.339622641509436,"top":[{"id":"sean-casey","name":"Sean Casey","shortName":"Casey","partyId":"LIB","votes":72,"share":67.9245283018868},{"id":"natalie-jameson","name":"Natalie Jameson","shortName":"Jameson","partyId":"CPC","votes":25,"share":23.58490566037736},{"id":"joe-byrne","name":"Joe Byrne","shortName":"Byrne","partyId":"NDP","votes":7,"share":6.60377358490566},{"id":"daniel-cousins","name":"Daniel Cousins","shortName":"Cousins","partyId":"GRN","votes":1,"share":0.9433962264150944}],"partyVotes":{"LIB":72,"CPC":25,"BQ":0,"NDP":7,"GRN":1,"PPC":1,"OTH":0}}},"geometry":{"type":"Polygon","coordinates":[[[715.16,148.97],[715.12,148.96],[715.13,148.92],[715.17,148.93],[715.16,148.97]]]}},{"type":"Feature","id":"11002-28","properties":{"ridingCode":"11002","pollNumber":"28","pollType":"N","advancePollNumber":"603","sourceCode":"28-0","geometryPollNumbers":["28"],"code":"11002-28","resultPollNumbers":["28"],"resultStatus":"exact","result":{"electors":422,"voters":148,"totalVotes":147,"rejected":1,"turnout":35.07109004739337,"winnerId":"sean-casey","winnerPartyId":"LIB","runnerUpId":"natalie-jameson","runnerUpPartyId":"CPC","margin":31.292517006802722,"top":[{"id":"sean-casey","name":"Sean Casey","shortName":"Casey","partyId":"LIB","votes":91,"share":61.904761904761905},{"id":"natalie-jameson","name":"Natalie Jameson","shortName":"Jameson","partyId":"CPC","votes":45,"share":30.612244897959183},{"id":"joe-byrne","name":"Joe Byrne","shortName":"Byrne","partyId":"NDP","votes":8,"share":5.442176870748299},{"id":"robert-lucas","name":"Robert Lucas","shortName":"Lucas","partyId":"PPC","votes":2,"share":1.3605442176870748}],"partyVotes":{"LIB":91,"CPC":45,"BQ":0,"NDP":8,"GRN":1,"PPC":2,"OTH":0}}},"geometry":{"type":"Polygon","coordinates":[[[715.13,148.91],[715.15,148.85],[715.19,148.86],[715.2,148.82],[715.23,148.83],[715.23,148.84],[715.24,148.84],[715.25,148.84],[715.29,148.86],[715.34,148.85],[715.35,148.9],[715.24,148.92],[715.24,148.93],[715.23,148.94],[715.23,148.93],[715.17,148.91],[715.17,148.93],[715.13,148.92],[715.13,148.91]]]}},{"type":"Feature","id":"11002-29","properties":{"ridingCode":"11002","pollNumber":"29","pollType":"N","advancePollNumber":"603","sourceCode":"29-0","geometryPollNumbers":["29"],"code":"11002-29","resultPollNumbers":["29"],"resultStatus":"exact","result":{"electors":446,"voters":113,"totalVotes":113,"rejected":0,"turnout":25.336322869955158,"winnerId":"sean-casey","winnerPartyId":"LIB","runnerUpId":"natalie-jameson","runnerUpPartyId":"CPC","margin":30.973451327433626,"top":[{"id":"sean-casey","name":"Sean Casey","shortName":"Casey","partyId":"LIB","votes":68,"share":60.17699115044248},{"id":"natalie-jameson","name":"Natalie Jameson","shortName":"Jameson","partyId":"CPC","votes":33,"share":29.20353982300885},{"id":"joe-byrne","name":"Joe Byrne","shortName":"Byrne","partyId":"NDP","votes":6,"share":5.3097345132743365},{"id":"daniel-cousins","name":"Daniel Cousins","shortName":"Cousins","partyId":"GRN","votes":3,"share":2.6548672566371683}],"partyVotes":{"LIB":68,"CPC":33,"BQ":0,"NDP":6,"GRN":3,"PPC":3,"OTH":0}}},"geometry":{"type":"Polygon","coordinates":[[[715.1,148.86],[715.14,148.84],[715.14,148.83],[715.14,148.83],[715.14,148.84],[715.15,148.85],[715.13,148.91],[715.1,148.86]]]}},{"type":"Feature","id":"11002-30","properties":{"ridingCode":"11002","pollNumber":"30","pollType":"N","advancePollNumber":"605","sourceCode":"30-0","geometryPollNumbers":["30"],"code":"11002-30","resultPollNumbers":["30"],"resultStatus":"exact","result":{"electors":435,"voters":168,"totalVotes":161,"rejected":7,"turnout":38.62068965517241,"winnerId":"sean-casey","winnerPartyId":"LIB","runnerUpId":"natalie-jameson","runnerUpPartyId":"CPC","margin":27.32919254658385,"top":[{"id":"sean-casey","name":"Sean Casey","shortName":"Casey","partyId":"LIB","votes":90,"share":55.90062111801242},{"id":"natalie-jameson","name":"Natalie Jameson","shortName":"Jameson","partyId":"CPC","votes":46,"share":28.57142857142857},{"id":"joe-byrne","name":"Joe Byrne","shortName":"Byrne","partyId":"NDP","votes":20,"share":12.422360248447205},{"id":"daniel-cousins","name":"Daniel Cousins","shortName":"Cousins","partyId":"GRN","votes":3,"share":1.8633540372670807}],"partyVotes":{"LIB":90,"CPC":46,"BQ":0,"NDP":20,"GRN":3,"PPC":2,"OTH":0}}},"geometry":{"type":"Polygon","coordinates":[[[715.15,148.85],[715.16,148.81],[715.17,148.8],[715.19,148.81],[715.2,148.81],[715.2,148.81],[715.2,148.82],[715.19,148.86],[715.15,148.85]],[[715.18,148.84],[715.19,148.84],[715.18,148.84],[715.18,148.84]]]}},{"type":"Feature","id":"11002-31","properties":{"ridingCode":"11002","pollNumber":"31","pollType":"N","advancePollNumber":"605","sourceCode":"31-0","geometryPollNumbers":["31"],"code":"11002-31","resultPollNumbers":["31"],"resultStatus":"exact","result":{"electors":454,"voters":173,"totalVotes":171,"rejected":2,"turnout":38.1057268722467,"winnerId":"sean-casey","winnerPartyId":"LIB","runnerUpId":"natalie-jameson","runnerUpPartyId":"CPC","margin":44.44444444444444,"top":[{"id":"sean-casey","name":"Sean Casey","shortName":"Casey","partyId":"LIB","votes":116,"share":67.83625730994152},{"id":"natalie-jameson","name":"Natalie Jameson","shortName":"Jameson","partyId":"CPC","votes":40,"share":23.391812865497073},{"id":"joe-byrne","name":"Joe Byrne","shortName":"Byrne","partyId":"NDP","votes":11,"share":6.432748538011696},{"id":"daniel-cousins","name":"Daniel Cousins","shortName":"Cousins","partyId":"GRN","votes":2,"share":1.1695906432748537}],"partyVotes":{"LIB":116,"CPC":40,"BQ":0,"NDP":11,"GRN":2,"PPC":2,"OTH":0}}},"geometry":{"type":"Polygon","coordinates":[[[715.17,148.8],[715.17,148.78],[715.18,148.78],[715.2,148.77],[715.22,148.77],[715.23,148.8],[715.24,148.81],[715.25,148.81],[715.25,148.8],[715.24,148.77],[715.25,148.74],[715.25,148.74],[715.25,148.73],[715.25,148.73],[715.25,148.73],[715.25,148.72],[715.29,148.71],[715.32,148.76],[715.33,148.8],[715.34,148.83],[715.34,148.85],[715.29,148.86],[715.25,148.84],[715.24,148.84],[715.23,148.84],[715.23,148.83],[715.2,148.82],[715.2,148.81],[715.2,148.81],[715.19,148.81],[715.17,148.8],[715.17,148.8],[715.17,148.8]]]}},{"type":"Feature","id":"11002-32","properties":{"ridingCode":"11002","pollNumber":"32","pollType":"N","advancePollNumber":"605","sourceCode":"32-0","geometryPollNumbers":["32"],"code":"11002-32","resultPollNumbers":["32"],"resultStatus":"exact","result":{"electors":398,"voters":127,"totalVotes":127,"rejected":0,"turnout":31.909547738693465,"winnerId":"sean-casey","winnerPartyId":"LIB","runnerUpId":"natalie-jameson","runnerUpPartyId":"CPC","margin":29.133858267716533,"top":[{"id":"sean-casey","name":"Sean Casey","shortName":"Casey","partyId":"LIB","votes":73,"share":57.48031496062992},{"id":"natalie-jameson","name":"Natalie Jameson","shortName":"Jameson","partyId":"CPC","votes":36,"share":28.346456692913385},{"id":"joe-byrne","name":"Joe Byrne","shortName":"Byrne","partyId":"NDP","votes":15,"share":11.811023622047244},{"id":"daniel-cousins","name":"Daniel Cousins","shortName":"Cousins","partyId":"GRN","votes":2,"share":1.574803149606299}],"partyVotes":{"LIB":73,"CPC":36,"BQ":0,"NDP":15,"GRN":2,"PPC":1,"OTH":0}}},"geometry":{"type":"Polygon","coordinates":[[[715.2,148.74],[715.21,148.74],[715.24,148.73],[715.25,148.73],[715.25,148.73],[715.25,148.73],[715.25,148.74],[715.25,148.74],[715.24,148.77],[715.25,148.8],[715.25,148.81],[715.24,148.81],[715.23,148.8],[715.22,148.77],[715.2,148.77],[715.2,148.74]]]}},{"type":"Feature","id":"11002-33","properties":{"ridingCode":"11002","pollNumber":"33","pollType":"N","advancePollNumber":"603","sourceCode":"33-0","geometryPollNumbers":["33"],"code":"11002-33","resultPollNumbers":["33"],"resultStatus":"exact","result":{"electors":386,"voters":181,"totalVotes":181,"rejected":0,"turnout":46.89119170984456,"winnerId":"sean-casey","winnerPartyId":"LIB","runnerUpId":"natalie-jameson","runnerUpPartyId":"CPC","margin":35.91160220994475,"top":[{"id":"sean-casey","name":"Sean Casey","shortName":"Casey","partyId":"LIB","votes":115,"share":63.53591160220995},{"id":"natalie-jameson","name":"Natalie Jameson","shortName":"Jameson","partyId":"CPC","votes":50,"share":27.624309392265197},{"id":"joe-byrne","name":"Joe Byrne","shortName":"Byrne","partyId":"NDP","votes":13,"share":7.18232044198895},{"id":"daniel-cousins","name":"Daniel Cousins","shortName":"Cousins","partyId":"GRN","votes":3,"share":1.6574585635359116}],"partyVotes":{"LIB":115,"CPC":50,"BQ":0,"NDP":13,"GRN":3,"PPC":0,"OTH":0}}},"geometry":{"type":"Polygon","coordinates":[[[715.03,148.82],[715.06,148.8],[715.09,148.77],[715.14,148.83],[715.14,148.84],[715.1,148.86],[715.13,148.91],[715.13,148.92],[715.12,148.96],[715.12,148.95],[715.09,148.92],[715.07,148.88],[715.05,148.84],[715.03,148.82]]]}},{"type":"Feature","id":"11002-34","properties":{"ridingCode":"11002","pollNumber":"34","pollType":"N","advancePollNumber":"601","sourceCode":"34-0","geometryPollNumbers":["34"],"code":"11002-34","resultPollNumbers":["34"],"resultStatus":"exact","result":{"electors":570,"voters":220,"totalVotes":219,"rejected":1,"turnout":38.59649122807017,"winnerId":"sean-casey","winnerPartyId":"LIB","runnerUpId":"natalie-jameson","runnerUpPartyId":"CPC","margin":14.61187214611872,"top":[{"id":"sean-casey","name":"Sean Casey","shortName":"Casey","partyId":"LIB","votes":117,"share":53.42465753424658},{"id":"natalie-jameson","name":"Natalie Jameson","shortName":"Jameson","partyId":"CPC","votes":85,"share":38.81278538812785},{"id":"joe-byrne","name":"Joe Byrne","shortName":"Byrne","partyId":"NDP","votes":10,"share":4.5662100456621},{"id":"daniel-cousins","name":"Daniel Cousins","shortName":"Cousins","partyId":"GRN","votes":5,"share":2.28310502283105}],"partyVotes":{"LIB":117,"CPC":85,"BQ":0,"NDP":10,"GRN":5,"PPC":2,"OTH":0}}},"geometry":{"type":"Polygon","coordinates":[[[714.63,148.94],[714.62,148.93],[714.63,148.93],[714.64,148.93],[714.66,148.92],[714.65,148.92],[714.63,148.92],[714.63,148.91],[714.65,148.9],[714.65,148.91],[714.67,148.93],[714.69,148.92],[714.71,148.92],[714.73,148.95],[714.72,148.96],[714.68,148.99],[714.65,148.99],[714.62,149],[714.61,148.99],[714.63,148.97],[714.63,148.97],[714.62,148.96],[714.62,148.95],[714.63,148.94]]]}},{"type":"Feature","id":"11002-35","properties":{"ridingCode":"11002","pollNumber":"35","pollType":"N","advancePollNumber":"601","sourceCode":"35-0","geometryPollNumbers":["35"],"code":"11002-35","resultPollNumbers":["35"],"resultStatus":"exact","result":{"electors":334,"voters":152,"totalVotes":152,"rejected":0,"turnout":45.50898203592814,"winnerId":"sean-casey","winnerPartyId":"LIB","runnerUpId":"natalie-jameson","runnerUpPartyId":"CPC","margin":17.105263157894736,"top":[{"id":"sean-casey","name":"Sean Casey","shortName":"Casey","partyId":"LIB","votes":87,"share":57.23684210526315},{"id":"natalie-jameson","name":"Natalie Jameson","shortName":"Jameson","partyId":"CPC","votes":61,"share":40.131578947368425},{"id":"joe-byrne","name":"Joe Byrne","shortName":"Byrne","partyId":"NDP","votes":3,"share":1.9736842105263157},{"id":"daniel-cousins","name":"Daniel Cousins","shortName":"Cousins","partyId":"GRN","votes":1,"share":0.6578947368421052}],"partyVotes":{"LIB":87,"CPC":61,"BQ":0,"NDP":3,"GRN":1,"PPC":0,"OTH":0}}},"geometry":{"type":"Polygon","coordinates":[[[714.77,149.01],[714.72,148.96],[714.73,148.95],[714.78,148.91],[714.82,148.95],[714.83,148.97],[714.77,149.01]]]}},{"type":"Feature","id":"11002-36","properties":{"ridingCode":"11002","pollNumber":"36","pollType":"N","advancePollNumber":"602","sourceCode":"36-0","geometryPollNumbers":["36"],"code":"11002-36","resultPollNumbers":["36"],"resultStatus":"exact","result":{"electors":399,"voters":142,"totalVotes":138,"rejected":4,"turnout":35.58897243107769,"winnerId":"sean-casey","winnerPartyId":"LIB","runnerUpId":"natalie-jameson","runnerUpPartyId":"CPC","margin":22.463768115942027,"top":[{"id":"sean-casey","name":"Sean Casey","shortName":"Casey","partyId":"LIB","votes":82,"share":59.42028985507246},{"id":"natalie-jameson","name":"Natalie Jameson","shortName":"Jameson","partyId":"CPC","votes":51,"share":36.95652173913043},{"id":"joe-byrne","name":"Joe Byrne","shortName":"Byrne","partyId":"NDP","votes":4,"share":2.898550724637681},{"id":"robert-lucas","name":"Robert Lucas","shortName":"Lucas","partyId":"PPC","votes":1,"share":0.7246376811594203}],"partyVotes":{"LIB":82,"CPC":51,"BQ":0,"NDP":4,"GRN":0,"PPC":1,"OTH":0}}},"geometry":{"type":"Polygon","coordinates":[[[714.78,148.91],[714.84,148.86],[714.86,148.87],[714.89,148.92],[714.86,148.95],[714.86,148.95],[714.86,148.95],[714.83,148.97],[714.82,148.95],[714.78,148.91]]]}},{"type":"Feature","id":"11002-37","properties":{"ridingCode":"11002","pollNumber":"37","pollType":"N","advancePollNumber":"601","sourceCode":"37-0","geometryPollNumbers":["37"],"code":"11002-37","resultPollNumbers":["37"],"resultStatus":"exact","result":{"electors":540,"voters":194,"totalVotes":194,"rejected":0,"turnout":35.92592592592593,"winnerId":"sean-casey","winnerPartyId":"LIB","runnerUpId":"natalie-jameson","runnerUpPartyId":"CPC","margin":28.865979381443296,"top":[{"id":"sean-casey","name":"Sean Casey","shortName":"Casey","partyId":"LIB","votes":121,"share":62.371134020618555},{"id":"natalie-jameson","name":"Natalie Jameson","shortName":"Jameson","partyId":"CPC","votes":65,"share":33.50515463917525},{"id":"joe-byrne","name":"Joe Byrne","shortName":"Byrne","partyId":"NDP","votes":4,"share":2.0618556701030926},{"id":"daniel-cousins","name":"Daniel Cousins","shortName":"Cousins","partyId":"GRN","votes":3,"share":1.5463917525773196}],"partyVotes":{"LIB":121,"CPC":65,"BQ":0,"NDP":4,"GRN":3,"PPC":1,"OTH":0}}},"geometry":{"type":"Polygon","coordinates":[[[714.65,148.9],[714.7,148.86],[714.7,148.86],[714.72,148.85],[714.74,148.88],[714.77,148.89],[714.78,148.91],[714.73,148.95],[714.71,148.92],[714.69,148.92],[714.67,148.93],[714.65,148.91],[714.65,148.9]]]}},{"type":"Feature","id":"11002-38","properties":{"ridingCode":"11002","pollNumber":"38","pollType":"N","advancePollNumber":"602","sourceCode":"38-0","geometryPollNumbers":["38"],"code":"11002-38","resultPollNumbers":["38"],"resultStatus":"exact","result":{"electors":371,"voters":155,"totalVotes":154,"rejected":1,"turnout":41.77897574123989,"winnerId":"sean-casey","winnerPartyId":"LIB","runnerUpId":"natalie-jameson","runnerUpPartyId":"CPC","margin":20.77922077922078,"top":[{"id":"sean-casey","name":"Sean Casey","shortName":"Casey","partyId":"LIB","votes":88,"share":57.14285714285714},{"id":"natalie-jameson","name":"Natalie Jameson","shortName":"Jameson","partyId":"CPC","votes":56,"share":36.36363636363637},{"id":"joe-byrne","name":"Joe Byrne","shortName":"Byrne","partyId":"NDP","votes":5,"share":3.2467532467532463},{"id":"daniel-cousins","name":"Daniel Cousins","shortName":"Cousins","partyId":"GRN","votes":4,"share":2.5974025974025974}],"partyVotes":{"LIB":88,"CPC":56,"BQ":0,"NDP":5,"GRN":4,"PPC":1,"OTH":0}}},"geometry":{"type":"Polygon","coordinates":[[[714.74,148.88],[714.72,148.85],[714.79,148.8],[714.82,148.85],[714.84,148.86],[714.78,148.91],[714.77,148.89],[714.74,148.88]]]}},{"type":"Feature","id":"11002-39","properties":{"ridingCode":"11002","pollNumber":"39","pollType":"N","advancePollNumber":"602","sourceCode":"39-0","geometryPollNumbers":["39"],"code":"11002-39","resultPollNumbers":["39"],"resultStatus":"exact","result":{"electors":499,"voters":184,"totalVotes":183,"rejected":1,"turnout":36.87374749498998,"winnerId":"sean-casey","winnerPartyId":"LIB","runnerUpId":"natalie-jameson","runnerUpPartyId":"CPC","margin":31.147540983606557,"top":[{"id":"sean-casey","name":"Sean Casey","shortName":"Casey","partyId":"LIB","votes":116,"share":63.387978142076506},{"id":"natalie-jameson","name":"Natalie Jameson","shortName":"Jameson","partyId":"CPC","votes":59,"share":32.240437158469945},{"id":"joe-byrne","name":"Joe Byrne","shortName":"Byrne","partyId":"NDP","votes":3,"share":1.639344262295082},{"id":"daniel-cousins","name":"Daniel Cousins","shortName":"Cousins","partyId":"GRN","votes":3,"share":1.639344262295082}],"partyVotes":{"LIB":116,"CPC":59,"BQ":0,"NDP":3,"GRN":3,"PPC":2,"OTH":0}}},"geometry":{"type":"Polygon","coordinates":[[[714.79,148.8],[714.79,148.79],[714.79,148.78],[714.8,148.77],[714.81,148.76],[714.81,148.77],[714.81,148.77],[714.81,148.78],[714.82,148.79],[714.82,148.78],[714.82,148.79],[714.84,148.81],[714.84,148.81],[714.84,148.82],[714.86,148.81],[714.85,148.8],[714.87,148.78],[714.89,148.8],[714.9,148.81],[714.91,148.81],[714.88,148.83],[714.84,148.86],[714.82,148.85],[714.79,148.8]]]}},{"type":"Feature","id":"11002-40","properties":{"ridingCode":"11002","pollNumber":"40","pollType":"N","advancePollNumber":"602","sourceCode":"40-0","geometryPollNumbers":["40"],"code":"11002-40","resultPollNumbers":["40"],"resultStatus":"exact","result":{"electors":456,"voters":172,"totalVotes":169,"rejected":3,"turnout":37.719298245614034,"winnerId":"sean-casey","winnerPartyId":"LIB","runnerUpId":"natalie-jameson","runnerUpPartyId":"CPC","margin":34.9112426035503,"top":[{"id":"sean-casey","name":"Sean Casey","shortName":"Casey","partyId":"LIB","votes":111,"share":65.68047337278107},{"id":"natalie-jameson","name":"Natalie Jameson","shortName":"Jameson","partyId":"CPC","votes":52,"share":30.76923076923077},{"id":"joe-byrne","name":"Joe Byrne","shortName":"Byrne","partyId":"NDP","votes":5,"share":2.9585798816568047},{"id":"daniel-cousins","name":"Daniel Cousins","shortName":"Cousins","partyId":"GRN","votes":1,"share":0.591715976331361}],"partyVotes":{"LIB":111,"CPC":52,"BQ":0,"NDP":5,"GRN":1,"PPC":0,"OTH":0}}},"geometry":{"type":"Polygon","coordinates":[[[714.62,148.93],[714.56,148.87],[714.55,148.88],[714.54,148.87],[714.56,148.86],[714.53,148.84],[714.55,148.82],[714.55,148.81],[714.56,148.79],[714.57,148.79],[714.58,148.8],[714.59,148.8],[714.59,148.81],[714.61,148.79],[714.65,148.76],[714.68,148.74],[714.72,148.71],[714.8,148.66],[714.9,148.64],[714.96,148.62],[714.95,148.67],[714.94,148.71],[714.91,148.71],[714.9,148.72],[714.89,148.73],[714.89,148.73],[714.88,148.73],[714.87,148.73],[714.85,148.75],[714.84,148.74],[714.81,148.76],[714.81,148.76],[714.8,148.77],[714.79,148.78],[714.79,148.79],[714.79,148.8],[714.72,148.85],[714.7,148.86],[714.7,148.86],[714.65,148.9],[714.63,148.91],[714.63,148.92],[714.65,148.92],[714.66,148.92],[714.64,148.93],[714.63,148.93],[714.62,148.93]],[[714.8,148.71],[714.8,148.71],[714.79,148.72],[714.8,148.72],[714.8,148.71],[714.8,148.71]]]}},{"type":"Feature","id":"11002-41","properties":{"ridingCode":"11002","pollNumber":"41","pollType":"N","advancePollNumber":"602","sourceCode":"41-0","geometryPollNumbers":["41"],"code":"11002-41","resultPollNumbers":["41"],"resultStatus":"exact","result":{"electors":365,"voters":128,"totalVotes":126,"rejected":2,"turnout":35.06849315068493,"winnerId":"sean-casey","winnerPartyId":"LIB","runnerUpId":"natalie-jameson","runnerUpPartyId":"CPC","margin":23.809523809523807,"top":[{"id":"sean-casey","name":"Sean Casey","shortName":"Casey","partyId":"LIB","votes":76,"share":60.317460317460316},{"id":"natalie-jameson","name":"Natalie Jameson","shortName":"Jameson","partyId":"CPC","votes":46,"share":36.507936507936506},{"id":"daniel-cousins","name":"Daniel Cousins","shortName":"Cousins","partyId":"GRN","votes":3,"share":2.380952380952381},{"id":"joe-byrne","name":"Joe Byrne","shortName":"Byrne","partyId":"NDP","votes":1,"share":0.7936507936507936}],"partyVotes":{"LIB":76,"CPC":46,"BQ":0,"NDP":1,"GRN":3,"PPC":0,"OTH":0}}},"geometry":{"type":"Polygon","coordinates":[[[714.81,148.76],[714.84,148.74],[714.85,148.75],[714.87,148.78],[714.85,148.8],[714.86,148.81],[714.84,148.82],[714.84,148.81],[714.84,148.81],[714.82,148.79],[714.82,148.78],[714.82,148.79],[714.81,148.78],[714.81,148.77],[714.81,148.77],[714.81,148.76]]]}},{"type":"Feature","id":"11002-42","properties":{"ridingCode":"11002","pollNumber":"42","pollType":"N","advancePollNumber":"602","sourceCode":"42-0","geometryPollNumbers":["42"],"code":"11002-42","resultPollNumbers":["42"],"resultStatus":"exact","result":{"electors":408,"voters":148,"totalVotes":148,"rejected":0,"turnout":36.27450980392157,"winnerId":"sean-casey","winnerPartyId":"LIB","runnerUpId":"natalie-jameson","runnerUpPartyId":"CPC","margin":18.91891891891892,"top":[{"id":"sean-casey","name":"Sean Casey","shortName":"Casey","partyId":"LIB","votes":84,"share":56.75675675675676},{"id":"natalie-jameson","name":"Natalie Jameson","shortName":"Jameson","partyId":"CPC","votes":56,"share":37.83783783783784},{"id":"joe-byrne","name":"Joe Byrne","shortName":"Byrne","partyId":"NDP","votes":6,"share":4.054054054054054},{"id":"daniel-cousins","name":"Daniel Cousins","shortName":"Cousins","partyId":"GRN","votes":1,"share":0.6756756756756757}],"partyVotes":{"LIB":84,"CPC":56,"BQ":0,"NDP":6,"GRN":1,"PPC":1,"OTH":0}}},"geometry":{"type":"Polygon","coordinates":[[[714.85,148.75],[714.87,148.73],[714.88,148.73],[714.89,148.73],[714.89,148.73],[714.9,148.72],[714.91,148.71],[714.94,148.71],[714.93,148.74],[714.9,148.81],[714.9,148.81],[714.89,148.8],[714.87,148.78],[714.85,148.75]]]}},{"type":"Feature","id":"11002-43","properties":{"ridingCode":"11002","pollNumber":"43","pollType":"N","advancePollNumber":"604","sourceCode":"43-0","geometryPollNumbers":["43"],"code":"11002-43","resultPollNumbers":["43"],"resultStatus":"exact","result":{"electors":413,"voters":106,"totalVotes":106,"rejected":0,"turnout":25.66585956416465,"winnerId":"sean-casey","winnerPartyId":"LIB","runnerUpId":"natalie-jameson","runnerUpPartyId":"CPC","margin":20.754716981132077,"top":[{"id":"sean-casey","name":"Sean Casey","shortName":"Casey","partyId":"LIB","votes":59,"share":55.660377358490564},{"id":"natalie-jameson","name":"Natalie Jameson","shortName":"Jameson","partyId":"CPC","votes":37,"share":34.90566037735849},{"id":"joe-byrne","name":"Joe Byrne","shortName":"Byrne","partyId":"NDP","votes":6,"share":5.660377358490567},{"id":"daniel-cousins","name":"Daniel Cousins","shortName":"Cousins","partyId":"GRN","votes":4,"share":3.7735849056603774}],"partyVotes":{"LIB":59,"CPC":37,"BQ":0,"NDP":6,"GRN":4,"PPC":0,"OTH":0}}},"geometry":{"type":"Polygon","coordinates":[[[714.94,148.82],[714.93,148.8],[714.96,148.77],[714.97,148.79],[714.98,148.78],[714.99,148.78],[715,148.79],[714.99,148.8],[715,148.81],[715,148.81],[715,148.82],[715,148.83],[714.99,148.83],[714.97,148.84],[714.97,148.84],[714.97,148.84],[714.96,148.85],[714.95,148.84],[714.96,148.83],[714.96,148.82],[714.97,148.82],[714.96,148.8],[714.95,148.81],[714.95,148.81],[714.94,148.82]]]}},{"type":"Feature","id":"11002-44","properties":{"ridingCode":"11002","pollNumber":"44","pollType":"N","advancePollNumber":"604","sourceCode":"44-0","geometryPollNumbers":["44"],"code":"11002-44","resultPollNumbers":["44"],"resultStatus":"exact","result":{"electors":407,"voters":104,"totalVotes":104,"rejected":0,"turnout":25.552825552825553,"winnerId":"sean-casey","winnerPartyId":"LIB","runnerUpId":"natalie-jameson","runnerUpPartyId":"CPC","margin":8.653846153846153,"top":[{"id":"sean-casey","name":"Sean Casey","shortName":"Casey","partyId":"LIB","votes":53,"share":50.96153846153846},{"id":"natalie-jameson","name":"Natalie Jameson","shortName":"Jameson","partyId":"CPC","votes":44,"share":42.30769230769231},{"id":"joe-byrne","name":"Joe Byrne","shortName":"Byrne","partyId":"NDP","votes":5,"share":4.807692307692308},{"id":"daniel-cousins","name":"Daniel Cousins","shortName":"Cousins","partyId":"GRN","votes":2,"share":1.9230769230769231}],"partyVotes":{"LIB":53,"CPC":44,"BQ":0,"NDP":5,"GRN":2,"PPC":0,"OTH":0}}},"geometry":{"type":"Polygon","coordinates":[[[714.96,148.77],[714.97,148.77],[714.97,148.77],[714.97,148.77],[715.02,148.73],[715.02,148.74],[715.01,148.75],[715.01,148.76],[715,148.77],[715.01,148.79],[715,148.79],[714.99,148.78],[714.98,148.78],[714.97,148.79],[714.96,148.77]]]}},{"type":"Feature","id":"11002-45","properties":{"ridingCode":"11002","pollNumber":"45","pollType":"N","advancePollNumber":"603","sourceCode":"45-0","geometryPollNumbers":["45"],"code":"11002-45","resultPollNumbers":["45"],"resultStatus":"exact","result":{"electors":311,"voters":85,"totalVotes":85,"rejected":0,"turnout":27.331189710610932,"winnerId":"sean-casey","winnerPartyId":"LIB","runnerUpId":"natalie-jameson","runnerUpPartyId":"CPC","margin":30.58823529411765,"top":[{"id":"sean-casey","name":"Sean Casey","shortName":"Casey","partyId":"LIB","votes":46,"share":54.11764705882353},{"id":"natalie-jameson","name":"Natalie Jameson","shortName":"Jameson","partyId":"CPC","votes":20,"share":23.52941176470588},{"id":"joe-byrne","name":"Joe Byrne","shortName":"Byrne","partyId":"NDP","votes":13,"share":15.294117647058824},{"id":"daniel-cousins","name":"Daniel Cousins","shortName":"Cousins","partyId":"GRN","votes":3,"share":3.5294117647058822}],"partyVotes":{"LIB":46,"CPC":20,"BQ":0,"NDP":13,"GRN":3,"PPC":3,"OTH":0}}},"geometry":{"type":"Polygon","coordinates":[[[715.12,148.75],[715.13,148.74],[715.15,148.73],[715.16,148.74],[715.17,148.74],[715.17,148.75],[715.14,148.77],[715.14,148.77],[715.13,148.77],[715.13,148.77],[715.12,148.75]],[[715.14,148.77],[715.14,148.77],[715.14,148.77],[715.14,148.77]]]}},{"type":"Feature","id":"11002-46","properties":{"ridingCode":"11002","pollNumber":"46","pollType":"N","advancePollNumber":"605","sourceCode":"46-0","geometryPollNumbers":["46"],"code":"11002-46","resultPollNumbers":["46"],"resultStatus":"exact","result":{"electors":393,"voters":111,"totalVotes":110,"rejected":1,"turnout":28.24427480916031,"winnerId":"sean-casey","winnerPartyId":"LIB","runnerUpId":"natalie-jameson","runnerUpPartyId":"CPC","margin":51.81818181818182,"top":[{"id":"sean-casey","name":"Sean Casey","shortName":"Casey","partyId":"LIB","votes":78,"share":70.9090909090909},{"id":"natalie-jameson","name":"Natalie Jameson","shortName":"Jameson","partyId":"CPC","votes":21,"share":19.090909090909093},{"id":"joe-byrne","name":"Joe Byrne","shortName":"Byrne","partyId":"NDP","votes":7,"share":6.363636363636363},{"id":"daniel-cousins","name":"Daniel Cousins","shortName":"Cousins","partyId":"GRN","votes":4,"share":3.6363636363636362}],"partyVotes":{"LIB":78,"CPC":21,"BQ":0,"NDP":7,"GRN":4,"PPC":0,"OTH":0}}},"geometry":{"type":"Polygon","coordinates":[[[715.17,148.74],[715.16,148.71],[715.19,148.7],[715.21,148.74],[715.2,148.74],[715.2,148.77],[715.18,148.78],[715.17,148.78],[715.18,148.77],[715.17,148.75],[715.17,148.74]],[[715.19,148.74],[715.19,148.74],[715.19,148.74],[715.19,148.74]]]}},{"type":"Feature","id":"11002-47","properties":{"ridingCode":"11002","pollNumber":"47","pollType":"N","advancePollNumber":"604","sourceCode":"47-0","geometryPollNumbers":["47"],"code":"11002-47","resultPollNumbers":["47"],"resultStatus":"exact","result":{"electors":478,"voters":168,"totalVotes":168,"rejected":0,"turnout":35.146443514644346,"winnerId":"sean-casey","winnerPartyId":"LIB","runnerUpId":"natalie-jameson","runnerUpPartyId":"CPC","margin":42.857142857142854,"top":[{"id":"sean-casey","name":"Sean Casey","shortName":"Casey","partyId":"LIB","votes":117,"share":69.64285714285714},{"id":"natalie-jameson","name":"Natalie Jameson","shortName":"Jameson","partyId":"CPC","votes":45,"share":26.785714285714285},{"id":"joe-byrne","name":"Joe Byrne","shortName":"Byrne","partyId":"NDP","votes":3,"share":1.7857142857142856},{"id":"daniel-cousins","name":"Daniel Cousins","shortName":"Cousins","partyId":"GRN","votes":2,"share":1.1904761904761905}],"partyVotes":{"LIB":117,"CPC":45,"BQ":0,"NDP":3,"GRN":2,"PPC":1,"OTH":0}}},"geometry":{"type":"Polygon","coordinates":[[[715,148.7],[715.01,148.7],[715.02,148.7],[715.03,148.69],[715.04,148.71],[715.04,148.72],[715.05,148.73],[715.06,148.73],[715.06,148.73],[715.08,148.75],[715.09,148.77],[715.06,148.8],[715.02,148.74],[715.02,148.73],[715,148.72],[715.01,148.71],[715,148.7]]]}},{"type":"Feature","id":"11002-48","properties":{"ridingCode":"11002","pollNumber":"48","pollType":"N","advancePollNumber":"604","sourceCode":"48-0","geometryPollNumbers":["48"],"code":"11002-48","resultPollNumbers":["48"],"resultStatus":"exact","result":{"electors":457,"voters":132,"totalVotes":132,"rejected":0,"turnout":28.88402625820569,"winnerId":"sean-casey","winnerPartyId":"LIB","runnerUpId":"natalie-jameson","runnerUpPartyId":"CPC","margin":31.060606060606062,"top":[{"id":"sean-casey","name":"Sean Casey","shortName":"Casey","partyId":"LIB","votes":83,"share":62.878787878787875},{"id":"natalie-jameson","name":"Natalie Jameson","shortName":"Jameson","partyId":"CPC","votes":42,"share":31.818181818181817},{"id":"joe-byrne","name":"Joe Byrne","shortName":"Byrne","partyId":"NDP","votes":4,"share":3.0303030303030303},{"id":"daniel-cousins","name":"Daniel Cousins","shortName":"Cousins","partyId":"GRN","votes":2,"share":1.5151515151515151}],"partyVotes":{"LIB":83,"CPC":42,"BQ":0,"NDP":4,"GRN":2,"PPC":1,"OTH":0}}},"geometry":{"type":"Polygon","coordinates":[[[714.9,148.81],[714.93,148.74],[714.94,148.71],[714.95,148.67],[714.96,148.62],[714.97,148.62],[715.02,148.69],[715.02,148.69],[715.03,148.69],[715.02,148.7],[715.01,148.7],[715,148.7],[715.01,148.71],[715,148.72],[715.02,148.73],[714.97,148.77],[714.97,148.77],[714.96,148.77],[714.93,148.8],[714.91,148.81],[714.9,148.81],[714.9,148.81]]]}},{"type":"Feature","id":"11002-49","properties":{"ridingCode":"11002","pollNumber":"49","pollType":"N","advancePollNumber":"603","sourceCode":"49-0","geometryPollNumbers":["49"],"code":"11002-49","resultPollNumbers":["49"],"resultStatus":"exact","result":{"electors":415,"voters":128,"totalVotes":124,"rejected":4,"turnout":30.843373493975907,"winnerId":"sean-casey","winnerPartyId":"LIB","runnerUpId":"natalie-jameson","runnerUpPartyId":"CPC","margin":37.096774193548384,"top":[{"id":"sean-casey","name":"Sean Casey","shortName":"Casey","partyId":"LIB","votes":74,"share":59.67741935483871},{"id":"natalie-jameson","name":"Natalie Jameson","shortName":"Jameson","partyId":"CPC","votes":28,"share":22.58064516129032},{"id":"joe-byrne","name":"Joe Byrne","shortName":"Byrne","partyId":"NDP","votes":15,"share":12.096774193548388},{"id":"daniel-cousins","name":"Daniel Cousins","shortName":"Cousins","partyId":"GRN","votes":4,"share":3.225806451612903}],"partyVotes":{"LIB":74,"CPC":28,"BQ":0,"NDP":15,"GRN":4,"PPC":3,"OTH":0}}},"geometry":{"type":"Polygon","coordinates":[[[715.08,148.75],[715.1,148.74],[715.11,148.76],[715.12,148.75],[715.13,148.77],[715.13,148.77],[715.16,148.8],[715.16,148.81],[715.15,148.85],[715.14,148.84],[715.14,148.83],[715.14,148.83],[715.09,148.77],[715.08,148.75]]]}},{"type":"Feature","id":"11002-50","properties":{"ridingCode":"11002","pollNumber":"50","pollType":"N","advancePollNumber":"603","sourceCode":"50-0","geometryPollNumbers":["50"],"code":"11002-50","resultPollNumbers":["50"],"resultStatus":"exact","result":{"electors":448,"voters":141,"totalVotes":140,"rejected":1,"turnout":31.473214285714285,"winnerId":"sean-casey","winnerPartyId":"LIB","runnerUpId":"natalie-jameson","runnerUpPartyId":"CPC","margin":32.142857142857146,"top":[{"id":"sean-casey","name":"Sean Casey","shortName":"Casey","partyId":"LIB","votes":85,"share":60.71428571428571},{"id":"natalie-jameson","name":"Natalie Jameson","shortName":"Jameson","partyId":"CPC","votes":40,"share":28.57142857142857},{"id":"joe-byrne","name":"Joe Byrne","shortName":"Byrne","partyId":"NDP","votes":8,"share":5.714285714285714},{"id":"robert-lucas","name":"Robert Lucas","shortName":"Lucas","partyId":"PPC","votes":6,"share":4.285714285714286}],"partyVotes":{"LIB":85,"CPC":40,"BQ":0,"NDP":8,"GRN":1,"PPC":6,"OTH":0}}},"geometry":{"type":"Polygon","coordinates":[[[715.16,148.8],[715.13,148.77],[715.14,148.77],[715.14,148.77],[715.17,148.75],[715.18,148.77],[715.17,148.78],[715.17,148.8],[715.17,148.8],[715.16,148.81],[715.16,148.8]]]}},{"type":"Feature","id":"11002-51","properties":{"ridingCode":"11002","pollNumber":"51","pollType":"N","advancePollNumber":"605","sourceCode":"51-0","geometryPollNumbers":["51"],"code":"11002-51","resultPollNumbers":["51"],"resultStatus":"exact","result":{"electors":478,"voters":155,"totalVotes":152,"rejected":3,"turnout":32.42677824267782,"winnerId":"sean-casey","winnerPartyId":"LIB","runnerUpId":"natalie-jameson","runnerUpPartyId":"CPC","margin":42.76315789473684,"top":[{"id":"sean-casey","name":"Sean Casey","shortName":"Casey","partyId":"LIB","votes":99,"share":65.13157894736842},{"id":"natalie-jameson","name":"Natalie Jameson","shortName":"Jameson","partyId":"CPC","votes":34,"share":22.36842105263158},{"id":"joe-byrne","name":"Joe Byrne","shortName":"Byrne","partyId":"NDP","votes":17,"share":11.18421052631579},{"id":"daniel-cousins","name":"Daniel Cousins","shortName":"Cousins","partyId":"GRN","votes":1,"share":0.6578947368421052}],"partyVotes":{"LIB":99,"CPC":34,"BQ":0,"NDP":17,"GRN":1,"PPC":1,"OTH":0}}},"geometry":{"type":"Polygon","coordinates":[[[715.2,148.67],[715.2,148.65],[715.24,148.56],[715.28,148.67],[715.28,148.7],[715.29,148.71],[715.25,148.72],[715.25,148.73],[715.24,148.73],[715.23,148.7],[715.22,148.7],[715.21,148.68],[715.21,148.67],[715.2,148.67]]]}},{"type":"Feature","id":"11002-52","properties":{"ridingCode":"11002","pollNumber":"52","pollType":"N","advancePollNumber":"604","sourceCode":"52-0","geometryPollNumbers":["52"],"code":"11002-52","resultPollNumbers":["52"],"resultStatus":"exact","result":{"electors":469,"voters":124,"totalVotes":123,"rejected":1,"turnout":26.439232409381663,"winnerId":"sean-casey","winnerPartyId":"LIB","runnerUpId":"natalie-jameson","runnerUpPartyId":"CPC","margin":27.64227642276423,"top":[{"id":"sean-casey","name":"Sean Casey","shortName":"Casey","partyId":"LIB","votes":76,"share":61.78861788617886},{"id":"natalie-jameson","name":"Natalie Jameson","shortName":"Jameson","partyId":"CPC","votes":42,"share":34.146341463414636},{"id":"joe-byrne","name":"Joe Byrne","shortName":"Byrne","partyId":"NDP","votes":3,"share":2.4390243902439024},{"id":"daniel-cousins","name":"Daniel Cousins","shortName":"Cousins","partyId":"GRN","votes":2,"share":1.6260162601626018}],"partyVotes":{"LIB":76,"CPC":42,"BQ":0,"NDP":3,"GRN":2,"PPC":0,"OTH":0}}},"geometry":{"type":"Polygon","coordinates":[[[715,148.77],[715.01,148.76],[715.01,148.75],[715.02,148.74],[715.06,148.8],[715.03,148.82],[715.01,148.79],[715,148.77]]]}},{"type":"Feature","id":"11002-53","properties":{"ridingCode":"11002","pollNumber":"53","pollType":"N","advancePollNumber":"604","sourceCode":"53-0","geometryPollNumbers":["53"],"code":"11002-53","resultPollNumbers":["53"],"resultStatus":"exact","result":{"electors":447,"voters":128,"totalVotes":128,"rejected":0,"turnout":28.635346756152124,"winnerId":"sean-casey","winnerPartyId":"LIB","runnerUpId":"natalie-jameson","runnerUpPartyId":"CPC","margin":48.4375,"top":[{"id":"sean-casey","name":"Sean Casey","shortName":"Casey","partyId":"LIB","votes":89,"share":69.53125},{"id":"natalie-jameson","name":"Natalie Jameson","shortName":"Jameson","partyId":"CPC","votes":27,"share":21.09375},{"id":"joe-byrne","name":"Joe Byrne","shortName":"Byrne","partyId":"NDP","votes":11,"share":8.59375},{"id":"robert-lucas","name":"Robert Lucas","shortName":"Lucas","partyId":"PPC","votes":1,"share":0.78125}],"partyVotes":{"LIB":89,"CPC":27,"BQ":0,"NDP":11,"GRN":0,"PPC":1,"OTH":0}}},"geometry":{"type":"Polygon","coordinates":[[[715.06,148.73],[715.11,148.71],[715.12,148.7],[715.12,148.71],[715.12,148.71],[715.12,148.73],[715.11,148.73],[715.12,148.74],[715.13,148.73],[715.13,148.74],[715.12,148.75],[715.11,148.76],[715.1,148.74],[715.08,148.75],[715.06,148.73]]]}},{"type":"Feature","id":"11002-54","properties":{"ridingCode":"11002","pollNumber":"54","pollType":"N","advancePollNumber":"605","sourceCode":"54-0","geometryPollNumbers":["54"],"code":"11002-54","resultPollNumbers":["54"],"resultStatus":"exact","result":{"electors":419,"voters":117,"totalVotes":116,"rejected":1,"turnout":27.923627684964202,"winnerId":"sean-casey","winnerPartyId":"LIB","runnerUpId":"natalie-jameson","runnerUpPartyId":"CPC","margin":26.72413793103448,"top":[{"id":"sean-casey","name":"Sean Casey","shortName":"Casey","partyId":"LIB","votes":68,"share":58.620689655172406},{"id":"natalie-jameson","name":"Natalie Jameson","shortName":"Jameson","partyId":"CPC","votes":37,"share":31.896551724137932},{"id":"joe-byrne","name":"Joe Byrne","shortName":"Byrne","partyId":"NDP","votes":8,"share":6.896551724137931},{"id":"daniel-cousins","name":"Daniel Cousins","shortName":"Cousins","partyId":"GRN","votes":2,"share":1.7241379310344827}],"partyVotes":{"LIB":68,"CPC":37,"BQ":0,"NDP":8,"GRN":2,"PPC":1,"OTH":0}}},"geometry":{"type":"Polygon","coordinates":[[[715.14,148.7],[715.14,148.69],[715.15,148.68],[715.16,148.71],[715.17,148.74],[715.16,148.74],[715.15,148.73],[715.14,148.72],[715.15,148.71],[715.14,148.7],[715.14,148.7]]]}},{"type":"Feature","id":"11002-55","properties":{"ridingCode":"11002","pollNumber":"55","pollType":"N","advancePollNumber":"605","sourceCode":"55-0","geometryPollNumbers":["55"],"code":"11002-55","resultPollNumbers":["55"],"resultStatus":"exact","result":{"electors":428,"voters":129,"totalVotes":128,"rejected":1,"turnout":30.140186915887853,"winnerId":"sean-casey","winnerPartyId":"LIB","runnerUpId":"natalie-jameson","runnerUpPartyId":"CPC","margin":42.96875,"top":[{"id":"sean-casey","name":"Sean Casey","shortName":"Casey","partyId":"LIB","votes":84,"share":65.625},{"id":"natalie-jameson","name":"Natalie Jameson","shortName":"Jameson","partyId":"CPC","votes":29,"share":22.65625},{"id":"joe-byrne","name":"Joe Byrne","shortName":"Byrne","partyId":"NDP","votes":12,"share":9.375},{"id":"daniel-cousins","name":"Daniel Cousins","shortName":"Cousins","partyId":"GRN","votes":3,"share":2.34375}],"partyVotes":{"LIB":84,"CPC":29,"BQ":0,"NDP":12,"GRN":3,"PPC":0,"OTH":0}}},"geometry":{"type":"Polygon","coordinates":[[[715.1,148.69],[715.12,148.68],[715.12,148.69],[715.13,148.68],[715.14,148.69],[715.14,148.7],[715.14,148.7],[715.15,148.71],[715.14,148.72],[715.15,148.73],[715.13,148.74],[715.13,148.73],[715.12,148.74],[715.11,148.73],[715.12,148.73],[715.12,148.71],[715.12,148.71],[715.12,148.7],[715.11,148.71],[715.1,148.69]]]}},{"type":"Feature","id":"11002-56","properties":{"ridingCode":"11002","pollNumber":"56","pollType":"N","advancePollNumber":"604","sourceCode":"56-0","geometryPollNumbers":["56"],"code":"11002-56","resultPollNumbers":["56"],"resultStatus":"exact","result":{"electors":354,"voters":99,"totalVotes":96,"rejected":3,"turnout":27.966101694915253,"winnerId":"sean-casey","winnerPartyId":"LIB","runnerUpId":"natalie-jameson","runnerUpPartyId":"CPC","margin":55.208333333333336,"top":[{"id":"sean-casey","name":"Sean Casey","shortName":"Casey","partyId":"LIB","votes":73,"share":76.04166666666666},{"id":"natalie-jameson","name":"Natalie Jameson","shortName":"Jameson","partyId":"CPC","votes":20,"share":20.833333333333336},{"id":"joe-byrne","name":"Joe Byrne","shortName":"Byrne","partyId":"NDP","votes":3,"share":3.125},{"id":"daniel-cousins","name":"Daniel Cousins","shortName":"Cousins","partyId":"GRN","votes":0,"share":0}],"partyVotes":{"LIB":73,"CPC":20,"BQ":0,"NDP":3,"GRN":0,"PPC":0,"OTH":0}}},"geometry":{"type":"Polygon","coordinates":[[[715.03,148.69],[715.05,148.67],[715.06,148.67],[715.06,148.67],[715.07,148.68],[715.08,148.67],[715.09,148.68],[715.1,148.69],[715.11,148.71],[715.06,148.73],[715.06,148.73],[715.05,148.73],[715.04,148.72],[715.04,148.71],[715.03,148.69]]]}},{"type":"Feature","id":"11002-57","properties":{"ridingCode":"11002","pollNumber":"57","pollType":"N","advancePollNumber":"605","sourceCode":"57-0","geometryPollNumbers":["57"],"code":"11002-57","resultPollNumbers":["57"],"resultStatus":"exact","result":{"electors":396,"voters":119,"totalVotes":118,"rejected":1,"turnout":30.05050505050505,"winnerId":"sean-casey","winnerPartyId":"LIB","runnerUpId":"natalie-jameson","runnerUpPartyId":"CPC","margin":41.52542372881356,"top":[{"id":"sean-casey","name":"Sean Casey","shortName":"Casey","partyId":"LIB","votes":79,"share":66.94915254237289},{"id":"natalie-jameson","name":"Natalie Jameson","shortName":"Jameson","partyId":"CPC","votes":30,"share":25.423728813559322},{"id":"joe-byrne","name":"Joe Byrne","shortName":"Byrne","partyId":"NDP","votes":7,"share":5.932203389830509},{"id":"daniel-cousins","name":"Daniel Cousins","shortName":"Cousins","partyId":"GRN","votes":2,"share":1.694915254237288}],"partyVotes":{"LIB":79,"CPC":30,"BQ":0,"NDP":7,"GRN":2,"PPC":0,"OTH":0}}},"geometry":{"type":"Polygon","coordinates":[[[715.05,148.67],[715.05,148.67],[715.07,148.65],[715.08,148.65],[715.09,148.64],[715.09,148.63],[715.09,148.62],[715.08,148.62],[715.1,148.61],[715.12,148.65],[715.12,148.65],[715.12,148.66],[715.09,148.68],[715.08,148.67],[715.07,148.68],[715.06,148.67],[715.06,148.67],[715.05,148.67]]]}},{"type":"Feature","id":"11002-58","properties":{"ridingCode":"11002","pollNumber":"58","pollType":"N","advancePollNumber":"604","sourceCode":"58-0","geometryPollNumbers":["58"],"code":"11002-58","resultPollNumbers":["58"],"resultStatus":"exact","result":{"electors":458,"voters":112,"totalVotes":112,"rejected":0,"turnout":24.45414847161572,"winnerId":"sean-casey","winnerPartyId":"LIB","runnerUpId":"natalie-jameson","runnerUpPartyId":"CPC","margin":40.17857142857143,"top":[{"id":"sean-casey","name":"Sean Casey","shortName":"Casey","partyId":"LIB","votes":75,"share":66.96428571428571},{"id":"natalie-jameson","name":"Natalie Jameson","shortName":"Jameson","partyId":"CPC","votes":30,"share":26.785714285714285},{"id":"joe-byrne","name":"Joe Byrne","shortName":"Byrne","partyId":"NDP","votes":5,"share":4.464285714285714},{"id":"robert-lucas","name":"Robert Lucas","shortName":"Lucas","partyId":"PPC","votes":2,"share":1.7857142857142856}],"partyVotes":{"LIB":75,"CPC":30,"BQ":0,"NDP":5,"GRN":0,"PPC":2,"OTH":0}}},"geometry":{"type":"Polygon","coordinates":[[[714.97,148.62],[715.1,148.57],[715.11,148.6],[715.09,148.6],[715.1,148.61],[715.08,148.62],[715.09,148.62],[715.09,148.63],[715.09,148.64],[715.08,148.65],[715.07,148.65],[715.05,148.67],[715.05,148.67],[715.03,148.69],[715.02,148.69],[715.02,148.69],[714.97,148.62]]]}},{"type":"Feature","id":"11002-59","properties":{"ridingCode":"11002","pollNumber":"59","pollType":"N","advancePollNumber":"605","sourceCode":"59-0","geometryPollNumbers":["59"],"code":"11002-59","resultPollNumbers":["59"],"resultStatus":"exact","result":{"electors":543,"voters":200,"totalVotes":193,"rejected":7,"turnout":36.83241252302026,"winnerId":"sean-casey","winnerPartyId":"LIB","runnerUpId":"natalie-jameson","runnerUpPartyId":"CPC","margin":53.36787564766839,"top":[{"id":"sean-casey","name":"Sean Casey","shortName":"Casey","partyId":"LIB","votes":140,"share":72.53886010362694},{"id":"natalie-jameson","name":"Natalie Jameson","shortName":"Jameson","partyId":"CPC","votes":37,"share":19.170984455958546},{"id":"joe-byrne","name":"Joe Byrne","shortName":"Byrne","partyId":"NDP","votes":9,"share":4.66321243523316},{"id":"daniel-cousins","name":"Daniel Cousins","shortName":"Cousins","partyId":"GRN","votes":5,"share":2.5906735751295336}],"partyVotes":{"LIB":140,"CPC":37,"BQ":0,"NDP":9,"GRN":5,"PPC":2,"OTH":0}}},"geometry":{"type":"Polygon","coordinates":[[[715.19,148.7],[715.19,148.68],[715.21,148.68],[715.22,148.7],[715.23,148.7],[715.24,148.73],[715.21,148.74],[715.19,148.7]]]}},{"type":"Feature","id":"11002-60","properties":{"ridingCode":"11002","pollNumber":"60","pollType":"N","advancePollNumber":"605","sourceCode":"60-0","geometryPollNumbers":["60"],"code":"11002-60","resultPollNumbers":["60"],"resultStatus":"exact","result":{"electors":495,"voters":152,"totalVotes":151,"rejected":1,"turnout":30.707070707070706,"winnerId":"sean-casey","winnerPartyId":"LIB","runnerUpId":"natalie-jameson","runnerUpPartyId":"CPC","margin":49.668874172185426,"top":[{"id":"sean-casey","name":"Sean Casey","shortName":"Casey","partyId":"LIB","votes":107,"share":70.86092715231787},{"id":"natalie-jameson","name":"Natalie Jameson","shortName":"Jameson","partyId":"CPC","votes":32,"share":21.192052980132452},{"id":"joe-byrne","name":"Joe Byrne","shortName":"Byrne","partyId":"NDP","votes":8,"share":5.298013245033113},{"id":"daniel-cousins","name":"Daniel Cousins","shortName":"Cousins","partyId":"GRN","votes":3,"share":1.9867549668874174}],"partyVotes":{"LIB":107,"CPC":32,"BQ":0,"NDP":8,"GRN":3,"PPC":1,"OTH":0}}},"geometry":{"type":"Polygon","coordinates":[[[715.09,148.68],[715.12,148.66],[715.12,148.65],[715.12,148.65],[715.1,148.61],[715.09,148.6],[715.11,148.6],[715.15,148.67],[715.15,148.68],[715.14,148.69],[715.13,148.68],[715.12,148.69],[715.12,148.68],[715.1,148.69],[715.09,148.68]]]}},{"type":"Feature","id":"11002-61","properties":{"ridingCode":"11002","pollNumber":"61","pollType":"N","advancePollNumber":"605","sourceCode":"61-0","geometryPollNumbers":["61"],"code":"11002-61","resultPollNumbers":["61"],"resultStatus":"exact","result":{"electors":496,"voters":162,"totalVotes":162,"rejected":0,"turnout":32.66129032258064,"winnerId":"sean-casey","winnerPartyId":"LIB","runnerUpId":"natalie-jameson","runnerUpPartyId":"CPC","margin":35.18518518518518,"top":[{"id":"sean-casey","name":"Sean Casey","shortName":"Casey","partyId":"LIB","votes":104,"share":64.19753086419753},{"id":"natalie-jameson","name":"Natalie Jameson","shortName":"Jameson","partyId":"CPC","votes":47,"share":29.01234567901235},{"id":"joe-byrne","name":"Joe Byrne","shortName":"Byrne","partyId":"NDP","votes":8,"share":4.938271604938271},{"id":"robert-lucas","name":"Robert Lucas","shortName":"Lucas","partyId":"PPC","votes":2,"share":1.2345679012345678}],"partyVotes":{"LIB":104,"CPC":47,"BQ":0,"NDP":8,"GRN":1,"PPC":2,"OTH":0}}},"geometry":{"type":"Polygon","coordinates":[[[715.11,148.6],[715.1,148.57],[715.23,148.51],[715.24,148.56],[715.2,148.65],[715.2,148.67],[715.21,148.67],[715.21,148.68],[715.19,148.68],[715.19,148.7],[715.16,148.71],[715.15,148.68],[715.15,148.67],[715.11,148.6]],[[715.16,148.68],[715.16,148.69],[715.16,148.68],[715.16,148.68]],[[715.17,148.67],[715.17,148.67],[715.17,148.67],[715.17,148.67]],[[715.19,148.66],[715.19,148.66],[715.19,148.66],[715.19,148.66]],[[715.17,148.69],[715.17,148.69],[715.17,148.69],[715.17,148.69]]]}},{"type":"Feature","id":"11002-501","properties":{"ridingCode":"11002","pollNumber":"501","pollType":"M","advancePollNumber":"602","sourceCode":"502-0","geometryPollNumbers":["500","501","502","503","504","505","506","507","508","509","510","511","512","513","514","515","516"],"code":"11002-501","resultPollNumbers":["501"],"resultStatus":"resolved-combination","result":{"electors":110,"voters":609,"totalVotes":589,"rejected":20,"turnout":553.6363636363636,"winnerId":"sean-casey","winnerPartyId":"LIB","runnerUpId":"natalie-jameson","runnerUpPartyId":"CPC","margin":32.597623089983024,"top":[{"id":"sean-casey","name":"Sean Casey","shortName":"Casey","partyId":"LIB","votes":349,"share":59.25297113752123},{"id":"natalie-jameson","name":"Natalie Jameson","shortName":"Jameson","partyId":"CPC","votes":157,"share":26.6553480475382},{"id":"joe-byrne","name":"Joe Byrne","shortName":"Byrne","partyId":"NDP","votes":46,"share":7.809847198641766},{"id":"daniel-cousins","name":"Daniel Cousins","shortName":"Cousins","partyId":"GRN","votes":23,"share":3.904923599320883}],"partyVotes":{"LIB":349,"CPC":157,"BQ":0,"NDP":46,"GRN":23,"PPC":14,"OTH":0}}},"geometry":{"type":"MultiPolygon","coordinates":[[[[714.86,148.95],[714.86,148.95],[714.86,148.95],[714.86,148.95]]],[[[715.11,148.98],[715.11,148.99],[715.11,148.99],[715.11,148.98],[715.11,148.98]]],[[[715.19,148.74],[715.19,148.74],[715.19,148.74],[715.19,148.74]]],[[[715.17,148.67],[715.17,148.67],[715.17,148.67],[715.17,148.67]]],[[[715.07,148.91],[715.07,148.91],[715.06,148.89],[715.07,148.89],[715.07,148.91]]],[[[715.17,148.69],[715.17,148.69],[715.17,148.69],[715.17,148.69]]],[[[715.13,148.99],[715.13,148.99],[715.13,148.99],[715.13,148.99]]],[[[715.16,148.69],[715.16,148.68],[715.16,148.68],[715.16,148.69]]],[[[715.14,148.77],[715.14,148.77],[715.14,148.77],[715.14,148.77]]],[[[715.02,148.92],[715.02,148.92],[715.02,148.91],[715.02,148.92]]],[[[715.17,148.8],[715.17,148.8],[715.17,148.8],[715.17,148.8]]],[[[715.19,148.66],[715.19,148.66],[715.19,148.66],[715.19,148.66]]],[[[714.97,148.77],[714.97,148.77],[714.97,148.77],[714.97,148.77]]],[[[715.1,148.95],[715.1,148.95],[715.1,148.95],[715.1,148.95]]],[[[715.19,148.84],[715.18,148.84],[715.18,148.84],[715.19,148.84]]],[[[714.8,148.77],[714.81,148.76],[714.81,148.76],[714.8,148.77]]],[[[714.8,148.71],[714.8,148.72],[714.79,148.72],[714.8,148.71],[714.8,148.71],[714.8,148.71]]]]}}]}