{"type":"FeatureCollection","ridingCode":"59018","ridingName":"Mission--Matsqui--Abbotsford","result":{"electors":85337,"voters":59945,"totalVotes":59599,"rejected":346,"turnout":70.24502853393018,"winnerId":"brad-vis","winnerPartyId":"CPC","runnerUpId":"jeff-howe","runnerUpPartyId":"LIB","margin":20.055705632644845,"top":[{"id":"brad-vis","name":"Brad Vis","shortName":"Vis","partyId":"CPC","votes":33791,"share":56.6972600211413},{"id":"jeff-howe","name":"Jeff Howe","shortName":"Howe","partyId":"LIB","votes":21838,"share":36.64155438849645},{"id":"jules-co-te","name":"Jules Côté","shortName":"Côté","partyId":"NDP","votes":2745,"share":4.605781976207655},{"id":"john-kidder","name":"John Kidder","shortName":"Kidder","partyId":"GRN","votes":723,"share":1.2131076024765515},{"id":"kevin-sinclair","name":"Kevin Sinclair","shortName":"Sinclair","partyId":"PPC","votes":502,"share":0.8422960116780484}],"partyVotes":{"LIB":21838,"CPC":33791,"BQ":0,"NDP":2745,"GRN":723,"PPC":502,"OTH":0}},"buckets":[{"kind":"ordinary","polls":201,"electors":84641,"voters":31857,"totalVotes":31716,"rejected":141,"turnout":37.63778783331955,"winnerId":"brad-vis","winnerPartyId":"CPC","runnerUpId":"jeff-howe","runnerUpPartyId":"LIB","margin":24.48921679909194,"top":[{"id":"brad-vis","name":"Brad Vis","shortName":"Vis","partyId":"CPC","votes":18553,"share":58.49728843485937},{"id":"jeff-howe","name":"Jeff Howe","shortName":"Howe","partyId":"LIB","votes":10786,"share":34.008071635767436},{"id":"jules-co-te","name":"Jules Côté","shortName":"Côté","partyId":"NDP","votes":1622,"share":5.114137974523899},{"id":"john-kidder","name":"John Kidder","shortName":"Kidder","partyId":"GRN","votes":443,"share":1.3967713456930255},{"id":"kevin-sinclair","name":"Kevin Sinclair","shortName":"Sinclair","partyId":"PPC","votes":312,"share":0.9837306091562618}],"partyVotes":{"LIB":10786,"CPC":18553,"BQ":0,"NDP":1622,"GRN":443,"PPC":312,"OTH":0}},{"kind":"advance","polls":29,"electors":0,"voters":24071,"totalVotes":23976,"rejected":95,"turnout":0,"winnerId":"brad-vis","winnerPartyId":"CPC","runnerUpId":"jeff-howe","runnerUpPartyId":"LIB","margin":15.874207540874208,"top":[{"id":"brad-vis","name":"Brad Vis","shortName":"Vis","partyId":"CPC","votes":13237,"share":55.20937604270938},{"id":"jeff-howe","name":"Jeff Howe","shortName":"Howe","partyId":"LIB","votes":9431,"share":39.33516850183516},{"id":"jules-co-te","name":"Jules Côté","shortName":"Côté","partyId":"NDP","votes":919,"share":3.8329996663329995},{"id":"john-kidder","name":"John Kidder","shortName":"Kidder","partyId":"GRN","votes":236,"share":0.9843176509843177},{"id":"kevin-sinclair","name":"Kevin Sinclair","shortName":"Sinclair","partyId":"PPC","votes":153,"share":0.6381381381381381}],"partyVotes":{"LIB":9431,"CPC":13237,"BQ":0,"NDP":919,"GRN":236,"PPC":153,"OTH":0}},{"kind":"special","polls":2,"electors":251,"voters":3650,"totalVotes":3551,"rejected":99,"turnout":1454.183266932271,"winnerId":"brad-vis","winnerPartyId":"CPC","runnerUpId":"jeff-howe","runnerUpPartyId":"LIB","margin":12.728808786257392,"top":[{"id":"brad-vis","name":"Brad Vis","shortName":"Vis","partyId":"CPC","votes":1895,"share":53.36524922557027},{"id":"jeff-howe","name":"Jeff Howe","shortName":"Howe","partyId":"LIB","votes":1443,"share":40.63644043931287},{"id":"jules-co-te","name":"Jules Côté","shortName":"Côté","partyId":"NDP","votes":148,"share":4.16784004505773},{"id":"john-kidder","name":"John Kidder","shortName":"Kidder","partyId":"GRN","votes":38,"share":1.0701210926499578},{"id":"kevin-sinclair","name":"Kevin Sinclair","shortName":"Sinclair","partyId":"PPC","votes":27,"share":0.7603491974091805}],"partyVotes":{"LIB":1443,"CPC":1895,"BQ":0,"NDP":148,"GRN":38,"PPC":27,"OTH":0}}],"features":[],"geometryStatus":"unavailable"}