{"type":"FeatureCollection","features":[{"type":"Feature","id":"75056","properties":{"code":"75056","name":"Paris","departmentCode":"75","rounds":{"1":{"code":"75056","name":"Paris","departmentCode":"75","registered":1368025,"voters":1071357,"expressed":1055062,"blank":11028,"invalid":5267,"turnout":78.31413899599788,"abstention":21.68586100400212,"winnerId":"MACRON","runnerUpId":"MELENCHON","margin":5.255425747491617,"top":[{"id":"MACRON","name":"Emmanuel Macron","shortName":"Macron","votes":372820,"share":35.336311989248024},{"id":"MELENCHON","name":"Jean-Luc Mélenchon","shortName":"Mélenchon","votes":317372,"share":30.08088624175641},{"id":"ZEMMOUR","name":"Éric Zemmour","shortName":"Zemmour","votes":86088,"share":8.15952048315644}]},"2":{"code":"75056","name":"Paris","departmentCode":"75","registered":1368623,"voters":1014129,"expressed":949512,"blank":49446,"invalid":15171,"turnout":74.09849169566783,"abstention":25.901508304332165,"winnerId":"MACRON","runnerUpId":"LE_PEN","margin":70.21522634785026,"top":[{"id":"MACRON","name":"Emmanuel Macron","shortName":"Macron","votes":808107,"share":85.10761317392513},{"id":"LE_PEN","name":"Marine Le Pen","shortName":"Le Pen","votes":141405,"share":14.892386826074869}]}}},"geometry":{"type":"Polygon","coordinates":[[[480.27,409.14],[480.02,409.15],[479.65,409.15],[479.28,409.2],[478.72,409.44],[478.32,409.58],[477.95,409.73],[477.14,410.02],[475.94,410.97],[476.01,411.21],[476.2,411.68],[476.63,412],[477.69,412.13],[477.82,412.46],[478.44,412.83],[478.94,413.11],[479.25,413.16],[479.93,413.15],[480.36,413.2],[480.49,413.19],[481.07,413.14],[481.38,412.62],[481.75,412.05],[481.81,411.82],[481.86,410.97],[481.89,410.69],[481.89,410.59],[482.26,410.35],[482.88,410.49],[483.47,410.2],[483.44,409.59],[483.28,409.22],[482.01,409.51],[481.08,409.61],[480.27,409.14]]]}}]}