{"type":"FeatureCollection","features":[{"type":"Feature","id":"92002","properties":{"code":"92002","name":"Antony","departmentCode":"92","rounds":{"1":{"code":"92002","name":"Antony","departmentCode":"92","registered":41966,"voters":33657,"expressed":32935,"blank":722,"invalid":0,"turnout":80.20063861220989,"abstention":19.799361387790114,"winnerId":"MACRON","runnerUpId":"MELENCHON","margin":12.995293760437225,"top":[{"id":"MACRON","name":"Emmanuel Macron","shortName":"Macron","votes":12282,"share":37.29163503871262},{"id":"MELENCHON","name":"Jean-Luc Mélenchon","shortName":"Mélenchon","votes":8002,"share":24.296341278275392},{"id":"LE_PEN","name":"Marine Le Pen","shortName":"Le Pen","votes":2869,"share":8.711097616517382}]},"2":{"code":"92002","name":"Antony","departmentCode":"92","registered":41993,"voters":31866,"expressed":29264,"blank":2602,"invalid":0,"turnout":75.8840759174148,"abstention":24.115924082585195,"winnerId":"MACRON","runnerUpId":"LE_PEN","margin":60.97594313832696,"top":[{"id":"MACRON","name":"Emmanuel Macron","shortName":"Macron","votes":23554,"share":80.48797156916348},{"id":"LE_PEN","name":"Marine Le Pen","shortName":"Le Pen","votes":5710,"share":19.512028430836523}]}}},"geometry":{"type":"Polygon","coordinates":[[[478.64,407.08],[478.88,407.03],[478.76,406.85],[478.91,406],[478.37,405.06],[477.47,405.63],[477.51,406.39],[477.95,406.85],[478.64,407.08]]]}},{"type":"Feature","id":"92004","properties":{"code":"92004","name":"Asnières-sur-Seine","departmentCode":"92","rounds":{"1":{"code":"92004","name":"Asnières-sur-Seine","departmentCode":"92","registered":48963,"voters":39236,"expressed":38525,"blank":495,"invalid":216,"turnout":80.13397871862426,"abstention":19.86602128137573,"winnerId":"MACRON","runnerUpId":"MELENCHON","margin":5.370538611291369,"top":[{"id":"MACRON","name":"Emmanuel Macron","shortName":"Macron","votes":13790,"share":35.794938351719665},{"id":"MELENCHON","name":"Jean-Luc Mélenchon","shortName":"Mélenchon","votes":11721,"share":30.424399740428292},{"id":"PECRESSE","name":"Valérie Pécresse","shortName":"Pécresse","votes":2848,"share":7.3926022063595065}]},"2":{"code":"92004","name":"Asnières-sur-Seine","departmentCode":"92","registered":49044,"voters":36695,"expressed":34155,"blank":1998,"invalid":542,"turnout":74.82056928472393,"abstention":25.17943071527608,"winnerId":"MACRON","runnerUpId":"LE_PEN","margin":64.9597423510467,"top":[{"id":"MACRON","name":"Emmanuel Macron","shortName":"Macron","votes":28171,"share":82.47987117552334},{"id":"LE_PEN","name":"Marine Le Pen","shortName":"Le Pen","votes":5984,"share":17.52012882447665}]}}},"geometry":{"type":"Polygon","coordinates":[[[478.94,413.87],[478.76,413.77],[477.92,413.31],[477.82,413.22],[477.27,413.41],[477.49,414.4],[477.5,414.73],[478.2,413.73],[479.01,414.01],[478.94,413.87]]]}},{"type":"Feature","id":"92007","properties":{"code":"92007","name":"Bagneux","departmentCode":"92","rounds":{"1":{"code":"92007","name":"Bagneux","departmentCode":"92","registered":22715,"voters":16059,"expressed":15772,"blank":186,"invalid":101,"turnout":70.69777679947171,"abstention":29.30222320052829,"winnerId":"MELENCHON","runnerUpId":"MACRON","margin":24.26451940147096,"top":[{"id":"MELENCHON","name":"Jean-Luc Mélenchon","shortName":"Mélenchon","votes":7423,"share":47.064417955871164},{"id":"MACRON","name":"Emmanuel Macron","shortName":"Macron","votes":3596,"share":22.7998985544002},{"id":"LE_PEN","name":"Marine Le Pen","shortName":"Le Pen","votes":1552,"share":9.840223180319553}]},"2":{"code":"92007","name":"Bagneux","departmentCode":"92","registered":22732,"voters":14410,"expressed":13089,"blank":1002,"invalid":319,"turnout":63.39081471054021,"abstention":36.609185289459795,"winnerId":"MACRON","runnerUpId":"LE_PEN","margin":54.05302162120865,"top":[{"id":"MACRON","name":"Emmanuel Macron","shortName":"Macron","votes":10082,"share":77.02651081060432},{"id":"LE_PEN","name":"Marine Le Pen","shortName":"Le Pen","votes":3007,"share":22.973489189395675}]}}},"geometry":{"type":"Polygon","coordinates":[[[478.87,408.87],[479.02,408.49],[478.86,407.84],[478.58,407.7],[478.36,407.7],[478.03,408.22],[478.37,408.92],[478.87,408.87]]]}},{"type":"Feature","id":"92009","properties":{"code":"92009","name":"Bois-Colombes","departmentCode":"92","rounds":{"1":{"code":"92009","name":"Bois-Colombes","departmentCode":"92","registered":18207,"voters":14826,"expressed":14556,"blank":194,"invalid":76,"turnout":81.43021914648212,"abstention":18.569780853517877,"winnerId":"MACRON","runnerUpId":"MELENCHON","margin":18.212420994778785,"top":[{"id":"MACRON","name":"Emmanuel Macron","shortName":"Macron","votes":5918,"share":40.65677383896675},{"id":"MELENCHON","name":"Jean-Luc Mélenchon","shortName":"Mélenchon","votes":3267,"share":22.444352844187964},{"id":"PECRESSE","name":"Valérie Pécresse","shortName":"Pécresse","votes":1150,"share":7.9005221214619406}]},"2":{"code":"92009","name":"Bois-Colombes","departmentCode":"92","registered":18212,"voters":14099,"expressed":13198,"blank":747,"invalid":154,"turnout":77.41598945750054,"abstention":22.58401054249945,"winnerId":"MACRON","runnerUpId":"LE_PEN","margin":64.72192756478255,"top":[{"id":"MACRON","name":"Emmanuel Macron","shortName":"Macron","votes":10870,"share":82.36096378239127},{"id":"LE_PEN","name":"Marine Le Pen","shortName":"Le Pen","votes":2328,"share":17.639036217608727}]}}},"geometry":{"type":"Polygon","coordinates":[[[477.27,413.41],[477.02,413.41],[476.99,413.79],[477.49,414.4],[477.27,413.41]]]}},{"type":"Feature","id":"92012","properties":{"code":"92012","name":"Boulogne-Billancourt","departmentCode":"92","rounds":{"1":{"code":"92012","name":"Boulogne-Billancourt","departmentCode":"92","registered":72832,"voters":59130,"expressed":58113,"blank":1017,"invalid":0,"turnout":81.1868409490334,"abstention":18.813159050966608,"winnerId":"MACRON","runnerUpId":"MELENCHON","margin":29.781632336998605,"top":[{"id":"MACRON","name":"Emmanuel Macron","shortName":"Macron","votes":26514,"share":45.62490320582314},{"id":"MELENCHON","name":"Jean-Luc Mélenchon","shortName":"Mélenchon","votes":9207,"share":15.843270868824533},{"id":"ZEMMOUR","name":"Éric Zemmour","shortName":"Zemmour","votes":6219,"share":10.701564193898095}]},"2":{"code":"92012","name":"Boulogne-Billancourt","departmentCode":"92","registered":72858,"voters":56527,"expressed":52905,"blank":3622,"invalid":0,"turnout":77.58516566471766,"abstention":22.41483433528233,"winnerId":"MACRON","runnerUpId":"LE_PEN","margin":66.566487099518,"top":[{"id":"MACRON","name":"Emmanuel Macron","shortName":"Macron","votes":44061,"share":83.283243549759},{"id":"LE_PEN","name":"Marine Le Pen","shortName":"Le Pen","votes":8844,"share":16.716756450241}]}}},"geometry":{"type":"Polygon","coordinates":[[[476.3,409.46],[476.21,409.51],[475.93,410.08],[475.94,410.97],[477.14,410.02],[476.3,409.46]]]}},{"type":"Feature","id":"92014","properties":{"code":"92014","name":"Bourg-la-Reine","departmentCode":"92","rounds":{"1":{"code":"92014","name":"Bourg-la-Reine","departmentCode":"92","registered":13525,"voters":11098,"expressed":10925,"blank":136,"invalid":37,"turnout":82.0554528650647,"abstention":17.944547134935306,"winnerId":"MACRON","runnerUpId":"MELENCHON","margin":12.759725400457667,"top":[{"id":"MACRON","name":"Emmanuel Macron","shortName":"Macron","votes":4058,"share":37.1441647597254},{"id":"MELENCHON","name":"Jean-Luc Mélenchon","shortName":"Mélenchon","votes":2664,"share":24.384439359267734},{"id":"PECRESSE","name":"Valérie Pécresse","shortName":"Pécresse","votes":1020,"share":9.336384439359268}]},"2":{"code":"92014","name":"Bourg-la-Reine","departmentCode":"92","registered":13533,"voters":10463,"expressed":9760,"blank":559,"invalid":144,"turnout":77.3147121850292,"abstention":22.685287814970813,"winnerId":"MACRON","runnerUpId":"LE_PEN","margin":66.57786885245902,"top":[{"id":"MACRON","name":"Emmanuel Macron","shortName":"Macron","votes":8129,"share":83.28893442622952},{"id":"LE_PEN","name":"Marine Le Pen","shortName":"Le Pen","votes":1631,"share":16.711065573770494}]}}},"geometry":{"type":"Polygon","coordinates":[[[478.88,407.03],[478.64,407.08],[478.58,407.7],[478.86,407.84],[479.08,407.55],[478.88,407.03]]]}},{"type":"Feature","id":"92019","properties":{"code":"92019","name":"Châtenay-Malabry","departmentCode":"92","rounds":{"1":{"code":"92019","name":"Châtenay-Malabry","departmentCode":"92","registered":19838,"voters":15277,"expressed":14869,"blank":408,"invalid":0,"turnout":77.0087710454683,"abstention":22.991228954531707,"winnerId":"MACRON","runnerUpId":"MELENCHON","margin":4.49929383280651,"top":[{"id":"MACRON","name":"Emmanuel Macron","shortName":"Macron","votes":5076,"share":34.1381397538503},{"id":"MELENCHON","name":"Jean-Luc Mélenchon","shortName":"Mélenchon","votes":4407,"share":29.63884592104378},{"id":"LE_PEN","name":"Marine Le Pen","shortName":"Le Pen","votes":1520,"share":10.222610800995358}]},"2":{"code":"92019","name":"Châtenay-Malabry","departmentCode":"92","registered":19843,"voters":14316,"expressed":13006,"blank":1310,"invalid":0,"turnout":72.14634883838129,"abstention":27.853651161618707,"winnerId":"MACRON","runnerUpId":"LE_PEN","margin":55.65123789020452,"top":[{"id":"MACRON","name":"Emmanuel Macron","shortName":"Macron","votes":10122,"share":77.82561894510226},{"id":"LE_PEN","name":"Marine Le Pen","shortName":"Le Pen","votes":2884,"share":22.17438105489774}]}}},"geometry":{"type":"Polygon","coordinates":[[[476.18,406.82],[476.06,407.2],[476.31,407.29],[477.62,407.61],[477.95,406.85],[477.51,406.39],[476.18,406.82]]]}},{"type":"Feature","id":"92020","properties":{"code":"92020","name":"Châtillon","departmentCode":"92","rounds":{"1":{"code":"92020","name":"Châtillon","departmentCode":"92","registered":22251,"voters":18058,"expressed":17720,"blank":260,"invalid":78,"turnout":81.15590310547842,"abstention":18.844096894521595,"winnerId":"MACRON","runnerUpId":"MELENCHON","margin":10.406320541760723,"top":[{"id":"MACRON","name":"Emmanuel Macron","shortName":"Macron","votes":6454,"share":36.42212189616253},{"id":"MELENCHON","name":"Jean-Luc Mélenchon","shortName":"Mélenchon","votes":4610,"share":26.01580135440181},{"id":"LE_PEN","name":"Marine Le Pen","shortName":"Le Pen","votes":1652,"share":9.322799097065463}]},"2":{"code":"92020","name":"Châtillon","departmentCode":"92","registered":22266,"voters":16995,"expressed":15805,"blank":927,"invalid":263,"turnout":76.32713554298033,"abstention":23.67286445701967,"winnerId":"MACRON","runnerUpId":"LE_PEN","margin":59.620373299588735,"top":[{"id":"MACRON","name":"Emmanuel Macron","shortName":"Macron","votes":12614,"share":79.81018664979437},{"id":"LE_PEN","name":"Marine Le Pen","shortName":"Le Pen","votes":3191,"share":20.189813350205633}]}}},"geometry":{"type":"Polygon","coordinates":[[[477.4,408.13],[477.66,408.93],[478.28,408.93],[478.37,408.92],[478.03,408.22],[477.4,408.13]]]}},{"type":"Feature","id":"92022","properties":{"code":"92022","name":"Chaville","departmentCode":"92","rounds":{"1":{"code":"92022","name":"Chaville","departmentCode":"92","registered":13646,"voters":11198,"expressed":11014,"blank":146,"invalid":38,"turnout":82.0606771215008,"abstention":17.939322878499194,"winnerId":"MACRON","runnerUpId":"MELENCHON","margin":16.98747049210096,"top":[{"id":"MACRON","name":"Emmanuel Macron","shortName":"Macron","votes":4274,"share":38.805157072816414},{"id":"MELENCHON","name":"Jean-Luc Mélenchon","shortName":"Mélenchon","votes":2403,"share":21.817686580715453},{"id":"PECRESSE","name":"Valérie Pécresse","shortName":"Pécresse","votes":973,"share":8.834211004176503}]},"2":{"code":"92022","name":"Chaville","departmentCode":"92","registered":13643,"voters":10799,"expressed":10060,"blank":593,"invalid":146,"turnout":79.15414498277505,"abstention":20.845855017224952,"winnerId":"MACRON","runnerUpId":"LE_PEN","margin":61.80914512922465,"top":[{"id":"MACRON","name":"Emmanuel Macron","shortName":"Macron","votes":8139,"share":80.90457256461234},{"id":"LE_PEN","name":"Marine Le Pen","shortName":"Le Pen","votes":1921,"share":19.095427435387673}]}}},"geometry":{"type":"Polygon","coordinates":[[[474.47,409.1],[474.53,409.15],[475.36,408.86],[475.26,408.34],[474.64,408.3],[474.47,409.1]]]}},{"type":"Feature","id":"92023","properties":{"code":"92023","name":"Clamart","departmentCode":"92","rounds":{"1":{"code":"92023","name":"Clamart","departmentCode":"92","registered":36492,"voters":28690,"expressed":28214,"blank":379,"invalid":97,"turnout":78.61997150060287,"abstention":21.380028499397127,"winnerId":"MACRON","runnerUpId":"MELENCHON","margin":9.77174452399518,"top":[{"id":"MACRON","name":"Emmanuel Macron","shortName":"Macron","votes":9825,"share":34.82313744949316},{"id":"MELENCHON","name":"Jean-Luc Mélenchon","shortName":"Mélenchon","votes":7068,"share":25.05139292549798},{"id":"LE_PEN","name":"Marine Le Pen","shortName":"Le Pen","votes":2889,"share":10.23959736301127}]},"2":{"code":"92023","name":"Clamart","departmentCode":"92","registered":36503,"voters":27157,"expressed":25150,"blank":1592,"invalid":415,"turnout":74.39662493493685,"abstention":25.603375065063144,"winnerId":"MACRON","runnerUpId":"LE_PEN","margin":55.81709741550696,"top":[{"id":"MACRON","name":"Emmanuel Macron","shortName":"Macron","votes":19594,"share":77.90854870775348},{"id":"LE_PEN","name":"Marine Le Pen","shortName":"Le Pen","votes":5556,"share":22.091451292246518}]}}},"geometry":{"type":"Polygon","coordinates":[[[476,407.3],[476,407.58],[476.79,409.17],[477.44,409.07],[477.6,409.07],[477.66,408.93],[477.4,408.13],[477.4,407.99],[476.31,407.29],[476.06,407.2],[476,407.3]]]}},{"type":"Feature","id":"92024","properties":{"code":"92024","name":"Clichy","departmentCode":"92","rounds":{"1":{"code":"92024","name":"Clichy","departmentCode":"92","registered":31899,"voters":24147,"expressed":23716,"blank":303,"invalid":128,"turnout":75.69829775228064,"abstention":24.301702247719366,"winnerId":"MELENCHON","runnerUpId":"MACRON","margin":13.37493675156013,"top":[{"id":"MELENCHON","name":"Jean-Luc Mélenchon","shortName":"Mélenchon","votes":9996,"share":42.14876033057851},{"id":"MACRON","name":"Emmanuel Macron","shortName":"Macron","votes":6824,"share":28.77382357901838},{"id":"LE_PEN","name":"Marine Le Pen","shortName":"Le Pen","votes":1706,"share":7.193455894754595}]},"2":{"code":"92024","name":"Clichy","departmentCode":"92","registered":31900,"voters":22165,"expressed":20374,"blank":1409,"invalid":382,"turnout":69.48275862068965,"abstention":30.517241379310345,"winnerId":"MACRON","runnerUpId":"LE_PEN","margin":64.7001079807598,"top":[{"id":"MACRON","name":"Emmanuel Macron","shortName":"Macron","votes":16778,"share":82.3500539903799},{"id":"LE_PEN","name":"Marine Le Pen","shortName":"Le Pen","votes":3596,"share":17.649946009620106}]}}},"geometry":{"type":"Polygon","coordinates":[[[478.44,412.83],[477.92,413.31],[478.76,413.77],[478.94,413.11],[478.44,412.83]]]}},{"type":"Feature","id":"92025","properties":{"code":"92025","name":"Colombes","departmentCode":"92","rounds":{"1":{"code":"92025","name":"Colombes","departmentCode":"92","registered":48884,"voters":37529,"expressed":36777,"blank":752,"invalid":0,"turnout":76.77154079044269,"abstention":23.22845920955732,"winnerId":"MELENCHON","runnerUpId":"MACRON","margin":4.3750169943171,"top":[{"id":"MELENCHON","name":"Jean-Luc Mélenchon","shortName":"Mélenchon","votes":13266,"share":36.071457704543604},{"id":"MACRON","name":"Emmanuel Macron","shortName":"Macron","votes":11657,"share":31.696440710226497},{"id":"LE_PEN","name":"Marine Le Pen","shortName":"Le Pen","votes":3329,"share":9.051853060336622}]},"2":{"code":"92025","name":"Colombes","departmentCode":"92","registered":48924,"voters":34196,"expressed":31387,"blank":2809,"invalid":0,"turnout":69.89616548115445,"abstention":30.103834518845556,"winnerId":"MACRON","runnerUpId":"LE_PEN","margin":60.50594195048905,"top":[{"id":"MACRON","name":"Emmanuel Macron","shortName":"Macron","votes":25189,"share":80.25297097524454},{"id":"LE_PEN","name":"Marine Le Pen","shortName":"Le Pen","votes":6198,"share":19.747029024755474}]}}},"geometry":{"type":"Polygon","coordinates":[[[475.85,414.13],[476.19,414.46],[476.72,414.88],[477.5,414.73],[477.49,414.4],[476.99,413.79],[476.12,413.42],[475.85,414.13]]]}},{"type":"Feature","id":"92026","properties":{"code":"92026","name":"Courbevoie","departmentCode":"92","rounds":{"1":{"code":"92026","name":"Courbevoie","departmentCode":"92","registered":52492,"voters":40778,"expressed":39952,"blank":826,"invalid":0,"turnout":77.6842185475882,"abstention":22.315781452411795,"winnerId":"MACRON","runnerUpId":"MELENCHON","margin":17.300760913095715,"top":[{"id":"MACRON","name":"Emmanuel Macron","shortName":"Macron","votes":15810,"share":39.57248698438126},{"id":"MELENCHON","name":"Jean-Luc Mélenchon","shortName":"Mélenchon","votes":8898,"share":22.271726071285542},{"id":"PECRESSE","name":"Valérie Pécresse","shortName":"Pécresse","votes":3635,"share":9.098418101722066}]},"2":{"code":"92026","name":"Courbevoie","departmentCode":"92","registered":52516,"voters":38712,"expressed":35910,"blank":2802,"invalid":0,"turnout":73.71467743163988,"abstention":26.28532256836012,"winnerId":"MACRON","runnerUpId":"LE_PEN","margin":59.682539682539684,"top":[{"id":"MACRON","name":"Emmanuel Macron","shortName":"Macron","votes":28671,"share":79.84126984126985},{"id":"LE_PEN","name":"Marine Le Pen","shortName":"Le Pen","votes":7239,"share":20.158730158730158}]}}},"geometry":{"type":"Polygon","coordinates":[[[476.21,413.19],[477.02,413.41],[477.27,413.41],[477.82,413.22],[477.42,413.03],[476.89,412.52],[476.27,412.95],[476.21,413.19]]]}},{"type":"Feature","id":"92032","properties":{"code":"92032","name":"Fontenay-aux-Roses","departmentCode":"92","rounds":{"1":{"code":"92032","name":"Fontenay-aux-Roses","departmentCode":"92","registered":14764,"voters":11497,"expressed":11302,"blank":134,"invalid":61,"turnout":77.87185044703332,"abstention":22.128149552966676,"winnerId":"MACRON","runnerUpId":"MELENCHON","margin":3.397628738276411,"top":[{"id":"MACRON","name":"Emmanuel Macron","shortName":"Macron","votes":3721,"share":32.92337639355866},{"id":"MELENCHON","name":"Jean-Luc Mélenchon","shortName":"Mélenchon","votes":3337,"share":29.525747655282252},{"id":"LE_PEN","name":"Marine Le Pen","shortName":"Le Pen","votes":1049,"share":9.281543089718634}]},"2":{"code":"92032","name":"Fontenay-aux-Roses","departmentCode":"92","registered":14770,"voters":10730,"expressed":9882,"blank":661,"invalid":187,"turnout":72.64725795531483,"abstention":27.352742044685176,"winnerId":"MACRON","runnerUpId":"LE_PEN","margin":57.88301963165351,"top":[{"id":"MACRON","name":"Emmanuel Macron","shortName":"Macron","votes":7801,"share":78.94150981582676},{"id":"LE_PEN","name":"Marine Le Pen","shortName":"Le Pen","votes":2081,"share":21.058490184173245}]}}},"geometry":{"type":"Polygon","coordinates":[[[477.4,407.99],[477.4,408.13],[478.03,408.22],[478.36,407.7],[477.71,407.61],[477.4,407.99]]]}},{"type":"Feature","id":"92033","properties":{"code":"92033","name":"Garches","departmentCode":"92","rounds":{"1":{"code":"92033","name":"Garches","departmentCode":"92","registered":12948,"voters":10342,"expressed":10144,"blank":198,"invalid":0,"turnout":79.87333951189373,"abstention":20.12666048810627,"winnerId":"MACRON","runnerUpId":"MELENCHON","margin":32.88643533123029,"top":[{"id":"MACRON","name":"Emmanuel Macron","shortName":"Macron","votes":4650,"share":45.83990536277602},{"id":"MELENCHON","name":"Jean-Luc Mélenchon","shortName":"Mélenchon","votes":1314,"share":12.953470031545741},{"id":"PECRESSE","name":"Valérie Pécresse","shortName":"Pécresse","votes":1140,"share":11.238170347003154}]},"2":{"code":"92033","name":"Garches","departmentCode":"92","registered":12963,"voters":9965,"expressed":9311,"blank":654,"invalid":0,"turnout":76.87263750674998,"abstention":23.12736249325002,"winnerId":"MACRON","runnerUpId":"LE_PEN","margin":59.10213725700784,"top":[{"id":"MACRON","name":"Emmanuel Macron","shortName":"Macron","votes":7407,"share":79.55106862850391},{"id":"LE_PEN","name":"Marine Le Pen","shortName":"Le Pen","votes":1904,"share":20.44893137149608}]}}},"geometry":{"type":"Polygon","coordinates":[[[474.79,410.23],[474.17,410.24],[474.67,410.89],[475.14,411.03],[474.79,410.23]]]}},{"type":"Feature","id":"92035","properties":{"code":"92035","name":"La Garenne-Colombes","departmentCode":"92","rounds":{"1":{"code":"92035","name":"La Garenne-Colombes","departmentCode":"92","registered":19685,"voters":15707,"expressed":15416,"blank":232,"invalid":59,"turnout":79.79171958343917,"abstention":20.208280416560832,"winnerId":"MACRON","runnerUpId":"MELENCHON","margin":21.996626881162427,"top":[{"id":"MACRON","name":"Emmanuel Macron","shortName":"Macron","votes":6305,"share":40.899065905552675},{"id":"MELENCHON","name":"Jean-Luc Mélenchon","shortName":"Mélenchon","votes":2914,"share":18.902439024390244},{"id":"PECRESSE","name":"Valérie Pécresse","shortName":"Pécresse","votes":1561,"share":10.125843279709393}]},"2":{"code":"92035","name":"La Garenne-Colombes","departmentCode":"92","registered":19700,"voters":14901,"expressed":13927,"blank":780,"invalid":194,"turnout":75.63959390862945,"abstention":24.36040609137056,"winnerId":"MACRON","runnerUpId":"LE_PEN","margin":60.13498958856896,"top":[{"id":"MACRON","name":"Emmanuel Macron","shortName":"Macron","votes":11151,"share":80.06749479428449},{"id":"LE_PEN","name":"Marine Le Pen","shortName":"Le Pen","votes":2776,"share":19.93250520571552}]}}},"geometry":{"type":"Polygon","coordinates":[[[476.21,413.19],[476.12,413.42],[476.99,413.79],[477.02,413.41],[476.21,413.19]]]}},{"type":"Feature","id":"92036","properties":{"code":"92036","name":"Gennevilliers","departmentCode":"92","rounds":{"1":{"code":"92036","name":"Gennevilliers","departmentCode":"92","registered":23623,"voters":17094,"expressed":16732,"blank":211,"invalid":151,"turnout":72.36168141218305,"abstention":27.638318587816958,"winnerId":"MELENCHON","runnerUpId":"MACRON","margin":45.64905570164953,"top":[{"id":"MELENCHON","name":"Jean-Luc Mélenchon","shortName":"Mélenchon","votes":10219,"share":61.074587616543155},{"id":"MACRON","name":"Emmanuel Macron","shortName":"Macron","votes":2581,"share":15.425531914893616},{"id":"LE_PEN","name":"Marine Le Pen","shortName":"Le Pen","votes":1448,"share":8.654076021993784}]},"2":{"code":"92036","name":"Gennevilliers","departmentCode":"92","registered":23646,"voters":14489,"expressed":12948,"blank":1184,"invalid":357,"turnout":61.27463418760044,"abstention":38.72536581239956,"winnerId":"MACRON","runnerUpId":"LE_PEN","margin":57.769539697250536,"top":[{"id":"MACRON","name":"Emmanuel Macron","shortName":"Macron","votes":10214,"share":78.88476984862527},{"id":"LE_PEN","name":"Marine Le Pen","shortName":"Le Pen","votes":2734,"share":21.115230151374732}]}}},"geometry":{"type":"Polygon","coordinates":[[[478.06,415.52],[478.71,415.38],[478.61,415],[479.19,414.19],[479.01,414.01],[478.2,413.73],[477.5,414.73],[476.72,414.88],[478.06,415.52]]]}},{"type":"Feature","id":"92040","properties":{"code":"92040","name":"Issy-les-Moulineaux","departmentCode":"92","rounds":{"1":{"code":"92040","name":"Issy-les-Moulineaux","departmentCode":"92","registered":45197,"voters":35898,"expressed":35060,"blank":838,"invalid":0,"turnout":79.4256255946191,"abstention":20.574374405380887,"winnerId":"MACRON","runnerUpId":"MELENCHON","margin":18.014831717056477,"top":[{"id":"MACRON","name":"Emmanuel Macron","shortName":"Macron","votes":14027,"share":40.008556759840275},{"id":"MELENCHON","name":"Jean-Luc Mélenchon","shortName":"Mélenchon","votes":7711,"share":21.993725042783797},{"id":"PECRESSE","name":"Valérie Pécresse","shortName":"Pécresse","votes":2834,"share":8.083285795778664}]},"2":{"code":"92040","name":"Issy-les-Moulineaux","departmentCode":"92","registered":45208,"voters":34324,"expressed":31668,"blank":2656,"invalid":0,"turnout":75.92461511236948,"abstention":24.07538488763051,"winnerId":"MACRON","runnerUpId":"LE_PEN","margin":62.95313881520778,"top":[{"id":"MACRON","name":"Emmanuel Macron","shortName":"Macron","votes":25802,"share":81.47656940760389},{"id":"LE_PEN","name":"Marine Le Pen","shortName":"Le Pen","votes":5866,"share":18.52343059239611}]}}},"geometry":{"type":"Polygon","coordinates":[[[477.44,409.07],[476.79,409.17],[476.3,409.46],[477.14,410.02],[477.95,409.73],[477.44,409.07]]]}},{"type":"Feature","id":"92044","properties":{"code":"92044","name":"Levallois-Perret","departmentCode":"92","rounds":{"1":{"code":"92044","name":"Levallois-Perret","departmentCode":"92","registered":43331,"voters":34847,"expressed":34369,"blank":374,"invalid":104,"turnout":80.42048417991738,"abstention":19.57951582008262,"winnerId":"MACRON","runnerUpId":"MELENCHON","margin":25.627745933835723,"top":[{"id":"MACRON","name":"Emmanuel Macron","shortName":"Macron","votes":14421,"share":41.959323809246705},{"id":"MELENCHON","name":"Jean-Luc Mélenchon","shortName":"Mélenchon","votes":5613,"share":16.33157787541098},{"id":"ZEMMOUR","name":"Éric Zemmour","shortName":"Zemmour","votes":4575,"share":13.311414355960313}]},"2":{"code":"92044","name":"Levallois-Perret","departmentCode":"92","registered":43351,"voters":32812,"expressed":30759,"blank":1619,"invalid":434,"turnout":75.68914211898226,"abstention":24.31085788101774,"winnerId":"MACRON","runnerUpId":"LE_PEN","margin":61.676257355570726,"top":[{"id":"MACRON","name":"Emmanuel Macron","shortName":"Macron","votes":24865,"share":80.83812867778536},{"id":"LE_PEN","name":"Marine Le Pen","shortName":"Le Pen","votes":5894,"share":19.161871322214637}]}}},"geometry":{"type":"Polygon","coordinates":[[[477.92,413.31],[478.44,412.83],[477.82,412.46],[477.42,413.03],[477.82,413.22],[477.92,413.31]]]}},{"type":"Feature","id":"92046","properties":{"code":"92046","name":"Malakoff","departmentCode":"92","rounds":{"1":{"code":"92046","name":"Malakoff","departmentCode":"92","registered":18340,"voters":14664,"expressed":14391,"blank":187,"invalid":86,"turnout":79.95637949836423,"abstention":20.04362050163577,"winnerId":"MELENCHON","runnerUpId":"MACRON","margin":12.88305190744215,"top":[{"id":"MELENCHON","name":"Jean-Luc Mélenchon","shortName":"Mélenchon","votes":5488,"share":38.13494545201862},{"id":"MACRON","name":"Emmanuel Macron","shortName":"Macron","votes":3634,"share":25.251893544576472},{"id":"LE_PEN","name":"Marine Le Pen","shortName":"Le Pen","votes":1297,"share":9.012577305260232}]},"2":{"code":"92046","name":"Malakoff","departmentCode":"92","registered":18352,"voters":13531,"expressed":12286,"blank":963,"invalid":282,"turnout":73.73038360941587,"abstention":26.269616390584133,"winnerId":"MACRON","runnerUpId":"LE_PEN","margin":59.74279667914699,"top":[{"id":"MACRON","name":"Emmanuel Macron","shortName":"Macron","votes":9813,"share":79.8713983395735},{"id":"LE_PEN","name":"Marine Le Pen","shortName":"Le Pen","votes":2473,"share":20.1286016604265}]}}},"geometry":{"type":"Polygon","coordinates":[[[477.6,409.07],[478.32,409.58],[478.72,409.44],[478.28,408.93],[477.66,408.93],[477.6,409.07]]]}},{"type":"Feature","id":"92047","properties":{"code":"92047","name":"Marnes-la-Coquette","departmentCode":"92","rounds":{"1":{"code":"92047","name":"Marnes-la-Coquette","departmentCode":"92","registered":1253,"voters":1073,"expressed":1070,"blank":3,"invalid":0,"turnout":85.63447725458899,"abstention":14.365522745411013,"winnerId":"MACRON","runnerUpId":"ZEMMOUR","margin":30.74766355140187,"top":[{"id":"MACRON","name":"Emmanuel Macron","shortName":"Macron","votes":492,"share":45.981308411214954},{"id":"ZEMMOUR","name":"Éric Zemmour","shortName":"Zemmour","votes":163,"share":15.233644859813083},{"id":"PECRESSE","name":"Valérie Pécresse","shortName":"Pécresse","votes":140,"share":13.084112149532709}]},"2":{"code":"92047","name":"Marnes-la-Coquette","departmentCode":"92","registered":1254,"voters":1020,"expressed":969,"blank":44,"invalid":7,"turnout":81.3397129186603,"abstention":18.660287081339714,"winnerId":"MACRON","runnerUpId":"LE_PEN","margin":58.92672858617131,"top":[{"id":"MACRON","name":"Emmanuel Macron","shortName":"Macron","votes":770,"share":79.46336429308566},{"id":"LE_PEN","name":"Marine Le Pen","shortName":"Le Pen","votes":199,"share":20.536635706914343}]}}},"geometry":{"type":"Polygon","coordinates":[[[473.66,409.35],[473.66,409.44],[474.17,410.24],[474.79,410.23],[474.6,409.9],[473.66,409.35]]]}},{"type":"Feature","id":"92048","properties":{"code":"92048","name":"Meudon","departmentCode":"92","rounds":{"1":{"code":"92048","name":"Meudon","departmentCode":"92","registered":30127,"voters":24265,"expressed":23923,"blank":255,"invalid":87,"turnout":80.54237063099545,"abstention":19.457629369004547,"winnerId":"MACRON","runnerUpId":"MELENCHON","margin":14.78075492204155,"top":[{"id":"MACRON","name":"Emmanuel Macron","shortName":"Macron","votes":9069,"share":37.90912510972704},{"id":"MELENCHON","name":"Jean-Luc Mélenchon","shortName":"Mélenchon","votes":5533,"share":23.12837018768549},{"id":"LE_PEN","name":"Marine Le Pen","shortName":"Le Pen","votes":2082,"share":8.702921874346863}]},"2":{"code":"92048","name":"Meudon","departmentCode":"92","registered":30143,"voters":23118,"expressed":21494,"blank":1274,"invalid":350,"turnout":76.69442324917891,"abstention":23.305576750821086,"winnerId":"MACRON","runnerUpId":"LE_PEN","margin":58.30464315622964,"top":[{"id":"MACRON","name":"Emmanuel Macron","shortName":"Macron","votes":17013,"share":79.15232157811482},{"id":"LE_PEN","name":"Marine Le Pen","shortName":"Le Pen","votes":4481,"share":20.847678421885178}]}}},"geometry":{"type":"Polygon","coordinates":[[[476.21,409.51],[476.3,409.46],[476.79,409.17],[476,407.58],[475.26,408.34],[475.36,408.86],[476.21,409.51]]]}},{"type":"Feature","id":"92049","properties":{"code":"92049","name":"Montrouge","departmentCode":"92","rounds":{"1":{"code":"92049","name":"Montrouge","departmentCode":"92","registered":29101,"voters":23939,"expressed":23539,"blank":283,"invalid":117,"turnout":82.26177794577507,"abstention":17.73822205422494,"winnerId":"MACRON","runnerUpId":"MELENCHON","margin":6.831216279366157,"top":[{"id":"MACRON","name":"Emmanuel Macron","shortName":"Macron","votes":8291,"share":35.22239687327414},{"id":"MELENCHON","name":"Jean-Luc Mélenchon","shortName":"Mélenchon","votes":6683,"share":28.391180593907983},{"id":"JADOT","name":"Yannick Jadot","shortName":"Jadot","votes":1952,"share":8.292620757041504}]},"2":{"code":"92049","name":"Montrouge","departmentCode":"92","registered":29132,"voters":22506,"expressed":20876,"blank":1256,"invalid":374,"turnout":77.25525195661127,"abstention":22.744748043388714,"winnerId":"MACRON","runnerUpId":"LE_PEN","margin":65.46273232420003,"top":[{"id":"MACRON","name":"Emmanuel Macron","shortName":"Macron","votes":17271,"share":82.73136616210002},{"id":"LE_PEN","name":"Marine Le Pen","shortName":"Le Pen","votes":3605,"share":17.26863383789998}]}}},"geometry":{"type":"Polygon","coordinates":[[[478.37,408.92],[478.28,408.93],[478.72,409.44],[479.28,409.2],[479.18,409.06],[478.87,408.87],[478.37,408.92]]]}},{"type":"Feature","id":"92050","properties":{"code":"92050","name":"Nanterre","departmentCode":"92","rounds":{"1":{"code":"92050","name":"Nanterre","departmentCode":"92","registered":50539,"voters":37079,"expressed":36442,"blank":470,"invalid":167,"turnout":73.36710263360968,"abstention":26.632897366390313,"winnerId":"MELENCHON","runnerUpId":"MACRON","margin":22.67987486965589,"top":[{"id":"MELENCHON","name":"Jean-Luc Mélenchon","shortName":"Mélenchon","votes":17144,"share":47.04461884638604},{"id":"MACRON","name":"Emmanuel Macron","shortName":"Macron","votes":8879,"share":24.364743976730146},{"id":"LE_PEN","name":"Marine Le Pen","shortName":"Le Pen","votes":3420,"share":9.384775808133472}]},"2":{"code":"92050","name":"Nanterre","departmentCode":"92","registered":50561,"voters":32302,"expressed":29451,"blank":2276,"invalid":575,"turnout":63.887185775597786,"abstention":36.11281422440221,"winnerId":"MACRON","runnerUpId":"LE_PEN","margin":56.63305150928662,"top":[{"id":"MACRON","name":"Emmanuel Macron","shortName":"Macron","votes":23065,"share":78.31652575464331},{"id":"LE_PEN","name":"Marine Le Pen","shortName":"Le Pen","votes":6386,"share":21.68347424535669}]}}},"geometry":{"type":"Polygon","coordinates":[[[476.12,413.42],[476.21,413.19],[476.27,412.95],[475.96,412.34],[475.46,411.92],[474.26,412.97],[474.41,413.11],[475.26,413.57],[475.85,414.13],[476.12,413.42]]]}},{"type":"Feature","id":"92051","properties":{"code":"92051","name":"Neuilly-sur-Seine","departmentCode":"92","rounds":{"1":{"code":"92051","name":"Neuilly-sur-Seine","departmentCode":"92","registered":37469,"voters":31358,"expressed":31081,"blank":217,"invalid":60,"turnout":83.69051749446209,"abstention":16.30948250553791,"winnerId":"MACRON","runnerUpId":"ZEMMOUR","margin":30.227470158617802,"top":[{"id":"MACRON","name":"Emmanuel Macron","shortName":"Macron","votes":15224,"share":48.98169299572086},{"id":"ZEMMOUR","name":"Éric Zemmour","shortName":"Zemmour","votes":5829,"share":18.754222837103054},{"id":"PECRESSE","name":"Valérie Pécresse","shortName":"Pécresse","votes":4705,"share":15.137865577040635}]},"2":{"code":"92051","name":"Neuilly-sur-Seine","departmentCode":"92","registered":37467,"voters":30230,"expressed":28820,"blank":1116,"invalid":294,"turnout":80.68433554861612,"abstention":19.315664451383885,"winnerId":"MACRON","runnerUpId":"LE_PEN","margin":65.15614156835531,"top":[{"id":"MACRON","name":"Emmanuel Macron","shortName":"Macron","votes":23799,"share":82.57807078417765},{"id":"LE_PEN","name":"Marine Le Pen","shortName":"Le Pen","votes":5021,"share":17.421929215822345}]}}},"geometry":{"type":"Polygon","coordinates":[[[476.63,412],[476.89,412.52],[477.42,413.03],[477.82,412.46],[477.69,412.13],[476.63,412]]]}},{"type":"Feature","id":"92060","properties":{"code":"92060","name":"Le Plessis-Robinson","departmentCode":"92","rounds":{"1":{"code":"92060","name":"Le Plessis-Robinson","departmentCode":"92","registered":19433,"voters":15628,"expressed":15292,"blank":245,"invalid":91,"turnout":80.41990428652292,"abstention":19.580095713477075,"winnerId":"MACRON","runnerUpId":"MELENCHON","margin":13.373005493068272,"top":[{"id":"MACRON","name":"Emmanuel Macron","shortName":"Macron","votes":5308,"share":34.710959979074026},{"id":"MELENCHON","name":"Jean-Luc Mélenchon","shortName":"Mélenchon","votes":3263,"share":21.337954486005756},{"id":"LE_PEN","name":"Marine Le Pen","shortName":"Le Pen","votes":2168,"share":14.177347632749148}]},"2":{"code":"92060","name":"Le Plessis-Robinson","departmentCode":"92","registered":19439,"voters":14751,"expressed":13546,"blank":882,"invalid":323,"turnout":75.88353310355471,"abstention":24.116466896445292,"winnerId":"MACRON","runnerUpId":"LE_PEN","margin":41.68020079728333,"top":[{"id":"MACRON","name":"Emmanuel Macron","shortName":"Macron","votes":9596,"share":70.84010039864167},{"id":"LE_PEN","name":"Marine Le Pen","shortName":"Le Pen","votes":3950,"share":29.159899601358337}]}}},"geometry":{"type":"Polygon","coordinates":[[[477.71,407.61],[477.62,407.61],[476.31,407.29],[477.4,407.99],[477.71,407.61]]]}},{"type":"Feature","id":"92062","properties":{"code":"92062","name":"Puteaux","departmentCode":"92","rounds":{"1":{"code":"92062","name":"Puteaux","departmentCode":"92","registered":30003,"voters":24313,"expressed":23804,"blank":364,"invalid":145,"turnout":81.03522981035229,"abstention":18.9647701896477,"winnerId":"MACRON","runnerUpId":"MELENCHON","margin":14.963871618215427,"top":[{"id":"MACRON","name":"Emmanuel Macron","shortName":"Macron","votes":8951,"share":37.60292387833977},{"id":"MELENCHON","name":"Jean-Luc Mélenchon","shortName":"Mélenchon","votes":5389,"share":22.63905226012435},{"id":"LE_PEN","name":"Marine Le Pen","shortName":"Le Pen","votes":2585,"share":10.859519408502774}]},"2":{"code":"92062","name":"Puteaux","departmentCode":"92","registered":30015,"voters":23319,"expressed":21496,"blank":1366,"invalid":457,"turnout":77.69115442278861,"abstention":22.308845577211393,"winnerId":"MACRON","runnerUpId":"LE_PEN","margin":53.275027912169705,"top":[{"id":"MACRON","name":"Emmanuel Macron","shortName":"Macron","votes":16474,"share":76.63751395608486},{"id":"LE_PEN","name":"Marine Le Pen","shortName":"Le Pen","votes":5022,"share":23.362486043915148}]}}},"geometry":{"type":"Polygon","coordinates":[[[476.89,412.52],[476.63,412],[476.2,411.68],[475.96,412.34],[476.27,412.95],[476.89,412.52]]]}},{"type":"Feature","id":"92063","properties":{"code":"92063","name":"Rueil-Malmaison","departmentCode":"92","rounds":{"1":{"code":"92063","name":"Rueil-Malmaison","departmentCode":"92","registered":55143,"voters":43568,"expressed":42874,"blank":523,"invalid":171,"turnout":79.0091217380266,"abstention":20.990878261973414,"winnerId":"MACRON","runnerUpId":"MELENCHON","margin":21.88039371180669,"top":[{"id":"MACRON","name":"Emmanuel Macron","shortName":"Macron","votes":17796,"share":41.50767364836498},{"id":"MELENCHON","name":"Jean-Luc Mélenchon","shortName":"Mélenchon","votes":8415,"share":19.62727993655829},{"id":"PECRESSE","name":"Valérie Pécresse","shortName":"Pécresse","votes":4027,"share":9.392638895367822}]},"2":{"code":"92063","name":"Rueil-Malmaison","departmentCode":"92","registered":55168,"voters":41546,"expressed":38854,"blank":2137,"invalid":555,"turnout":75.30814965197216,"abstention":24.69185034802784,"winnerId":"MACRON","runnerUpId":"LE_PEN","margin":60.14824728470685,"top":[{"id":"MACRON","name":"Emmanuel Macron","shortName":"Macron","votes":31112,"share":80.07412364235343},{"id":"LE_PEN","name":"Marine Le Pen","shortName":"Le Pen","votes":7742,"share":19.925876357646573}]}}},"geometry":{"type":"Polygon","coordinates":[[[473.66,411.8],[473.91,412.27],[474.26,412.97],[475.46,411.92],[475.33,411.31],[475.14,411.03],[474.67,410.89],[473.95,410.71],[473.78,411.47],[473.66,411.8]]]}},{"type":"Feature","id":"92064","properties":{"code":"92064","name":"Saint-Cloud","departmentCode":"92","rounds":{"1":{"code":"92064","name":"Saint-Cloud","departmentCode":"92","registered":19486,"voters":16210,"expressed":16013,"blank":137,"invalid":60,"turnout":83.18792979575079,"abstention":16.812070204249206,"winnerId":"MACRON","runnerUpId":"ZEMMOUR","margin":31.711734215949537,"top":[{"id":"MACRON","name":"Emmanuel Macron","shortName":"Macron","votes":7150,"share":44.651220883032536},{"id":"ZEMMOUR","name":"Éric Zemmour","shortName":"Zemmour","votes":2072,"share":12.939486667082994},{"id":"PECRESSE","name":"Valérie Pécresse","shortName":"Pécresse","votes":2003,"share":12.508586773246739}]},"2":{"code":"92064","name":"Saint-Cloud","departmentCode":"92","registered":19495,"voters":15484,"expressed":14668,"blank":625,"invalid":191,"turnout":79.42549371633753,"abstention":20.574506283662476,"winnerId":"MACRON","runnerUpId":"LE_PEN","margin":59.067357512953365,"top":[{"id":"MACRON","name":"Emmanuel Macron","shortName":"Macron","votes":11666,"share":79.53367875647669},{"id":"LE_PEN","name":"Marine Le Pen","shortName":"Le Pen","votes":3002,"share":20.466321243523318}]}}},"geometry":{"type":"Polygon","coordinates":[[[475.93,410.08],[475.16,409.85],[474.6,409.9],[474.79,410.23],[475.14,411.03],[475.33,411.31],[476.01,411.21],[475.94,410.97],[475.93,410.08]]]}},{"type":"Feature","id":"92071","properties":{"code":"92071","name":"Sceaux","departmentCode":"92","rounds":{"1":{"code":"92071","name":"Sceaux","departmentCode":"92","registered":14266,"voters":11325,"expressed":11160,"blank":130,"invalid":35,"turnout":79.38455067993831,"abstention":20.615449320061686,"winnerId":"MACRON","runnerUpId":"MELENCHON","margin":20.07168458781362,"top":[{"id":"MACRON","name":"Emmanuel Macron","shortName":"Macron","votes":4552,"share":40.78853046594982},{"id":"MELENCHON","name":"Jean-Luc Mélenchon","shortName":"Mélenchon","votes":2312,"share":20.7168458781362},{"id":"PECRESSE","name":"Valérie Pécresse","shortName":"Pécresse","votes":1096,"share":9.82078853046595}]},"2":{"code":"92071","name":"Sceaux","departmentCode":"92","registered":14274,"voters":10877,"expressed":10215,"blank":519,"invalid":143,"turnout":76.20148521787866,"abstention":23.798514782121337,"winnerId":"MACRON","runnerUpId":"LE_PEN","margin":66.40234948604993,"top":[{"id":"MACRON","name":"Emmanuel Macron","shortName":"Macron","votes":8499,"share":83.20117474302496},{"id":"LE_PEN","name":"Marine Le Pen","shortName":"Le Pen","votes":1716,"share":16.798825256975036}]}}},"geometry":{"type":"Polygon","coordinates":[[[477.62,407.61],[477.71,407.61],[478.36,407.7],[478.58,407.7],[478.64,407.08],[477.95,406.85],[477.62,407.61]]]}},{"type":"Feature","id":"92072","properties":{"code":"92072","name":"Sèvres","departmentCode":"92","rounds":{"1":{"code":"92072","name":"Sèvres","departmentCode":"92","registered":15108,"voters":12174,"expressed":11943,"blank":231,"invalid":0,"turnout":80.57982525814138,"abstention":19.420174741858617,"winnerId":"MACRON","runnerUpId":"MELENCHON","margin":21.937536632336936,"top":[{"id":"MACRON","name":"Emmanuel Macron","shortName":"Macron","votes":5079,"share":42.527003265511176},{"id":"MELENCHON","name":"Jean-Luc Mélenchon","shortName":"Mélenchon","votes":2459,"share":20.589466633174244},{"id":"PECRESSE","name":"Valérie Pécresse","shortName":"Pécresse","votes":1015,"share":8.498702168634347}]},"2":{"code":"92072","name":"Sèvres","departmentCode":"92","registered":15120,"voters":11792,"expressed":10994,"blank":798,"invalid":0,"turnout":77.98941798941799,"abstention":22.01058201058201,"winnerId":"MACRON","runnerUpId":"LE_PEN","margin":65.61760960523922,"top":[{"id":"MACRON","name":"Emmanuel Macron","shortName":"Macron","votes":9104,"share":82.8088048026196},{"id":"LE_PEN","name":"Marine Le Pen","shortName":"Le Pen","votes":1890,"share":17.19119519738039}]}}},"geometry":{"type":"Polygon","coordinates":[[[475.16,409.85],[475.93,410.08],[476.21,409.51],[475.36,408.86],[474.53,409.15],[475.16,409.85]]]}},{"type":"Feature","id":"92073","properties":{"code":"92073","name":"Suresnes","departmentCode":"92","rounds":{"1":{"code":"92073","name":"Suresnes","departmentCode":"92","registered":29461,"voters":23597,"expressed":23108,"blank":489,"invalid":0,"turnout":80.0957197651132,"abstention":19.9042802348868,"winnerId":"MACRON","runnerUpId":"MELENCHON","margin":18.192833650683745,"top":[{"id":"MACRON","name":"Emmanuel Macron","shortName":"Macron","votes":9308,"share":40.280422364549075},{"id":"MELENCHON","name":"Jean-Luc Mélenchon","shortName":"Mélenchon","votes":5104,"share":22.087588713865326},{"id":"LE_PEN","name":"Marine Le Pen","shortName":"Le Pen","votes":2122,"share":9.18296693785702}]},"2":{"code":"92073","name":"Suresnes","departmentCode":"92","registered":29465,"voters":22413,"expressed":20802,"blank":1611,"invalid":0,"turnout":76.06651959952487,"abstention":23.93348040047514,"winnerId":"MACRON","runnerUpId":"LE_PEN","margin":60.128833765984034,"top":[{"id":"MACRON","name":"Emmanuel Macron","shortName":"Macron","votes":16655,"share":80.06441688299202},{"id":"LE_PEN","name":"Marine Le Pen","shortName":"Le Pen","votes":4147,"share":19.93558311700798}]}}},"geometry":{"type":"Polygon","coordinates":[[[475.46,411.92],[475.96,412.34],[476.2,411.68],[476.01,411.21],[475.33,411.31],[475.46,411.92]]]}},{"type":"Feature","id":"92075","properties":{"code":"92075","name":"Vanves","departmentCode":"92","rounds":{"1":{"code":"92075","name":"Vanves","departmentCode":"92","registered":18237,"voters":14896,"expressed":14640,"blank":182,"invalid":74,"turnout":81.68010089378735,"abstention":18.319899106212645,"winnerId":"MACRON","runnerUpId":"MELENCHON","margin":8.5724043715847,"top":[{"id":"MACRON","name":"Emmanuel Macron","shortName":"Macron","votes":5215,"share":35.62158469945355},{"id":"MELENCHON","name":"Jean-Luc Mélenchon","shortName":"Mélenchon","votes":3960,"share":27.049180327868854},{"id":"JADOT","name":"Yannick Jadot","shortName":"Jadot","votes":1139,"share":7.780054644808743}]},"2":{"code":"92075","name":"Vanves","departmentCode":"92","registered":18248,"voters":14094,"expressed":13047,"blank":812,"invalid":235,"turnout":77.23586146427006,"abstention":22.764138535729945,"winnerId":"MACRON","runnerUpId":"LE_PEN","margin":64.69686517973481,"top":[{"id":"MACRON","name":"Emmanuel Macron","shortName":"Macron","votes":10744,"share":82.3484325898674},{"id":"LE_PEN","name":"Marine Le Pen","shortName":"Le Pen","votes":2303,"share":17.6515674101326}]}}},"geometry":{"type":"Polygon","coordinates":[[[478.32,409.58],[477.6,409.07],[477.44,409.07],[477.95,409.73],[478.32,409.58]]]}},{"type":"Feature","id":"92076","properties":{"code":"92076","name":"Vaucresson","departmentCode":"92","rounds":{"1":{"code":"92076","name":"Vaucresson","departmentCode":"92","registered":6075,"voters":5014,"expressed":4944,"blank":70,"invalid":0,"turnout":82.53497942386832,"abstention":17.46502057613169,"winnerId":"MACRON","runnerUpId":"PECRESSE","margin":34.890776699029125,"top":[{"id":"MACRON","name":"Emmanuel Macron","shortName":"Macron","votes":2363,"share":47.7953074433657},{"id":"PECRESSE","name":"Valérie Pécresse","shortName":"Pécresse","votes":638,"share":12.90453074433657},{"id":"ZEMMOUR","name":"Éric Zemmour","shortName":"Zemmour","votes":562,"share":11.367313915857604}]},"2":{"code":"92076","name":"Vaucresson","departmentCode":"92","registered":6081,"voters":4858,"expressed":4596,"blank":262,"invalid":0,"turnout":79.88817628679493,"abstention":20.111823713205066,"winnerId":"MACRON","runnerUpId":"LE_PEN","margin":64.3603133159269,"top":[{"id":"MACRON","name":"Emmanuel Macron","shortName":"Macron","votes":3777,"share":82.18015665796344},{"id":"LE_PEN","name":"Marine Le Pen","shortName":"Le Pen","votes":819,"share":17.819843342036553}]}}},"geometry":{"type":"Polygon","coordinates":[[[473.66,409.44],[473.57,409.77],[473.52,410.2],[473.95,410.71],[474.67,410.89],[474.17,410.24],[473.66,409.44]]]}},{"type":"Feature","id":"92077","properties":{"code":"92077","name":"Ville-d'Avray","departmentCode":"92","rounds":{"1":{"code":"92077","name":"Ville-d'Avray","departmentCode":"92","registered":7570,"voters":6210,"expressed":6104,"blank":106,"invalid":0,"turnout":82.03434610303832,"abstention":17.96565389696169,"winnerId":"MACRON","runnerUpId":"MELENCHON","margin":30.176933158584536,"top":[{"id":"MACRON","name":"Emmanuel Macron","shortName":"Macron","votes":2754,"share":45.11795543905636},{"id":"MELENCHON","name":"Jean-Luc Mélenchon","shortName":"Mélenchon","votes":912,"share":14.941022280471822},{"id":"PECRESSE","name":"Valérie Pécresse","shortName":"Pécresse","votes":682,"share":11.17300131061599}]},"2":{"code":"92077","name":"Ville-d'Avray","departmentCode":"92","registered":7568,"voters":6002,"expressed":5652,"blank":350,"invalid":0,"turnout":79.3076109936575,"abstention":20.692389006342495,"winnerId":"MACRON","runnerUpId":"LE_PEN","margin":66.38358103326256,"top":[{"id":"MACRON","name":"Emmanuel Macron","shortName":"Macron","votes":4702,"share":83.19179051663129},{"id":"LE_PEN","name":"Marine Le Pen","shortName":"Le Pen","votes":950,"share":16.80820948336872}]}}},"geometry":{"type":"Polygon","coordinates":[[[474.47,409.1],[473.97,409.06],[473.66,409.35],[474.6,409.9],[475.16,409.85],[474.53,409.15],[474.47,409.1]]]}},{"type":"Feature","id":"92078","properties":{"code":"92078","name":"Villeneuve-la-Garenne","departmentCode":"92","rounds":{"1":{"code":"92078","name":"Villeneuve-la-Garenne","departmentCode":"92","registered":12798,"voters":8496,"expressed":8303,"blank":138,"invalid":55,"turnout":66.38537271448664,"abstention":33.61462728551336,"winnerId":"MELENCHON","runnerUpId":"MACRON","margin":35.86655425749729,"top":[{"id":"MELENCHON","name":"Jean-Luc Mélenchon","shortName":"Mélenchon","votes":4624,"share":55.690714199686866},{"id":"MACRON","name":"Emmanuel Macron","shortName":"Macron","votes":1646,"share":19.82415994218957},{"id":"LE_PEN","name":"Marine Le Pen","shortName":"Le Pen","votes":893,"share":10.755148741418765}]},"2":{"code":"92078","name":"Villeneuve-la-Garenne","departmentCode":"92","registered":12804,"voters":7180,"expressed":6485,"blank":549,"invalid":146,"turnout":56.076226179318965,"abstention":43.92377382068104,"winnerId":"MACRON","runnerUpId":"LE_PEN","margin":49.575944487278335,"top":[{"id":"MACRON","name":"Emmanuel Macron","shortName":"Macron","votes":4850,"share":74.78797224363916},{"id":"LE_PEN","name":"Marine Le Pen","shortName":"Le Pen","votes":1635,"share":25.212027756360833}]}}},"geometry":{"type":"Polygon","coordinates":[[[478.71,415.38],[479.23,415.23],[479.48,414.76],[479.19,414.19],[478.61,415],[478.71,415.38]]]}}]}