{"type":"FeatureCollection","features":[{"type":"Feature","id":"93001","properties":{"code":"93001","name":"Aubervilliers","departmentCode":"93","rounds":{"1":{"code":"93001","name":"Aubervilliers","departmentCode":"93","registered":30461,"voters":19331,"expressed":18992,"blank":221,"invalid":118,"turnout":63.46147532910935,"abstention":36.53852467089065,"winnerId":"MELENCHON","runnerUpId":"MACRON","margin":43.61836562763269,"top":[{"id":"MELENCHON","name":"Jean-Luc Mélenchon","shortName":"Mélenchon","votes":11392,"share":59.98315080033698},{"id":"MACRON","name":"Emmanuel Macron","shortName":"Macron","votes":3108,"share":16.364785172704295},{"id":"LE_PEN","name":"Marine Le Pen","shortName":"Le Pen","votes":1728,"share":9.098567818028643}]},"2":{"code":"93001","name":"Aubervilliers","departmentCode":"93","registered":30461,"voters":16477,"expressed":15006,"blank":1114,"invalid":357,"turnout":54.09211778996094,"abstention":45.90788221003906,"winnerId":"MACRON","runnerUpId":"LE_PEN","margin":55.711048913767826,"top":[{"id":"MACRON","name":"Emmanuel Macron","shortName":"Macron","votes":11683,"share":77.85552445688391},{"id":"LE_PEN","name":"Marine Le Pen","shortName":"Le Pen","votes":3323,"share":22.144475543116087}]}}},"geometry":{"type":"Polygon","coordinates":[[[480.65,414.23],[481.67,413.94],[481.07,413.14],[480.49,413.19],[480.36,413.2],[480.65,414.23]]]}},{"type":"Feature","id":"93005","properties":{"code":"93005","name":"Aulnay-sous-Bois","departmentCode":"93","rounds":{"1":{"code":"93005","name":"Aulnay-sous-Bois","departmentCode":"93","registered":44373,"voters":30424,"expressed":29879,"blank":395,"invalid":150,"turnout":68.56421697879341,"abstention":31.435783021206586,"winnerId":"MELENCHON","runnerUpId":"MACRON","margin":31.463569731249375,"top":[{"id":"MELENCHON","name":"Jean-Luc Mélenchon","shortName":"Mélenchon","votes":15141,"share":50.67438669299508},{"id":"MACRON","name":"Emmanuel Macron","shortName":"Macron","votes":5740,"share":19.210816961745707},{"id":"LE_PEN","name":"Marine Le Pen","shortName":"Le Pen","votes":3822,"share":12.791592757455069}]},"2":{"code":"93005","name":"Aulnay-sous-Bois","departmentCode":"93","registered":44396,"voters":25961,"expressed":23559,"blank":1900,"invalid":502,"turnout":58.47598882782232,"abstention":41.52401117217767,"winnerId":"MACRON","runnerUpId":"LE_PEN","margin":42.73101574769727,"top":[{"id":"MACRON","name":"Emmanuel Macron","shortName":"Macron","votes":16813,"share":71.36550787384863},{"id":"LE_PEN","name":"Marine Le Pen","shortName":"Le Pen","votes":6746,"share":28.63449212615137}]}}},"geometry":{"type":"Polygon","coordinates":[[[483.26,415.67],[484.41,416.51],[485.27,415.47],[485.08,414.25],[484.73,413.97],[484.27,413.87],[483.87,414.02],[484,414.82],[483.26,415.67]]]}},{"type":"Feature","id":"93006","properties":{"code":"93006","name":"Bagnolet","departmentCode":"93","rounds":{"1":{"code":"93006","name":"Bagnolet","departmentCode":"93","registered":19022,"voters":13322,"expressed":13072,"blank":250,"invalid":0,"turnout":70.03469666701714,"abstention":29.965303332982863,"winnerId":"MELENCHON","runnerUpId":"MACRON","margin":36.84210526315789,"top":[{"id":"MELENCHON","name":"Jean-Luc Mélenchon","shortName":"Mélenchon","votes":7106,"share":54.360465116279066},{"id":"MACRON","name":"Emmanuel Macron","shortName":"Macron","votes":2290,"share":17.518359853121172},{"id":"LE_PEN","name":"Marine Le Pen","shortName":"Le Pen","votes":1186,"share":9.07282741738066}]},"2":{"code":"93006","name":"Bagnolet","departmentCode":"93","registered":19041,"voters":11816,"expressed":10637,"blank":1179,"invalid":0,"turnout":62.05556430859723,"abstention":37.94443569140276,"winnerId":"MACRON","runnerUpId":"LE_PEN","margin":59.87590486039297,"top":[{"id":"MACRON","name":"Emmanuel Macron","shortName":"Macron","votes":8503,"share":79.93795243019648},{"id":"LE_PEN","name":"Marine Le Pen","shortName":"Le Pen","votes":2134,"share":20.062047569803514}]}}},"geometry":{"type":"Polygon","coordinates":[[[482.34,412.05],[482.49,411.91],[481.86,410.97],[481.81,411.82],[482.34,412.05]]]}},{"type":"Feature","id":"93007","properties":{"code":"93007","name":"Le Blanc-Mesnil","departmentCode":"93","rounds":{"1":{"code":"93007","name":"Le Blanc-Mesnil","departmentCode":"93","registered":25982,"voters":17579,"expressed":17238,"blank":246,"invalid":95,"turnout":67.65837887768456,"abstention":32.34162112231545,"winnerId":"MELENCHON","runnerUpId":"MACRON","margin":36.21069729667015,"top":[{"id":"MELENCHON","name":"Jean-Luc Mélenchon","shortName":"Mélenchon","votes":9115,"share":52.87736396333681},{"id":"MACRON","name":"Emmanuel Macron","shortName":"Macron","votes":2873,"share":16.666666666666664},{"id":"LE_PEN","name":"Marine Le Pen","shortName":"Le Pen","votes":2504,"share":14.526047105232626}]},"2":{"code":"93007","name":"Le Blanc-Mesnil","departmentCode":"93","registered":26004,"voters":14982,"expressed":13603,"blank":1102,"invalid":277,"turnout":57.61421319796954,"abstention":42.38578680203046,"winnerId":"MACRON","runnerUpId":"LE_PEN","margin":34.573255899433946,"top":[{"id":"MACRON","name":"Emmanuel Macron","shortName":"Macron","votes":9153,"share":67.28662794971697},{"id":"LE_PEN","name":"Marine Le Pen","shortName":"Le Pen","votes":4450,"share":32.71337205028303}]}}},"geometry":{"type":"Polygon","coordinates":[[[483.17,415.72],[483.26,415.67],[484,414.82],[483.87,414.02],[483.71,413.92],[482.76,414.83],[482.51,415.21],[482.92,415.72],[483.17,415.72]]]}},{"type":"Feature","id":"93008","properties":{"code":"93008","name":"Bobigny","departmentCode":"93","rounds":{"1":{"code":"93008","name":"Bobigny","departmentCode":"93","registered":23366,"voters":14424,"expressed":14121,"blank":179,"invalid":124,"turnout":61.73071984935377,"abstention":38.26928015064624,"winnerId":"MELENCHON","runnerUpId":"MACRON","margin":42.836909567311096,"top":[{"id":"MELENCHON","name":"Jean-Luc Mélenchon","shortName":"Mélenchon","votes":8492,"share":60.13738403795765},{"id":"MACRON","name":"Emmanuel Macron","shortName":"Macron","votes":2443,"share":17.300474470646556},{"id":"LE_PEN","name":"Marine Le Pen","shortName":"Le Pen","votes":1450,"share":10.268394589618298}]},"2":{"code":"93008","name":"Bobigny","departmentCode":"93","registered":23382,"voters":12261,"expressed":11165,"blank":835,"invalid":261,"turnout":52.43777264562483,"abstention":47.56222735437516,"winnerId":"MACRON","runnerUpId":"LE_PEN","margin":50.864308105687414,"top":[{"id":"MACRON","name":"Emmanuel Macron","shortName":"Macron","votes":8422,"share":75.4321540528437},{"id":"LE_PEN","name":"Marine Le Pen","shortName":"Le Pen","votes":2743,"share":24.567845947156293}]}}},"geometry":{"type":"Polygon","coordinates":[[[481.73,413.89],[481.86,413.98],[483.15,413.55],[483.74,413.83],[483.58,413.31],[482.72,412.99],[482.28,412.9],[481.73,413.89]]]}},{"type":"Feature","id":"93010","properties":{"code":"93010","name":"Bondy","departmentCode":"93","rounds":{"1":{"code":"93010","name":"Bondy","departmentCode":"93","registered":25281,"voters":17732,"expressed":17347,"blank":260,"invalid":125,"turnout":70.13963055258891,"abstention":29.8603694474111,"winnerId":"MELENCHON","runnerUpId":"MACRON","margin":34.588113218423935,"top":[{"id":"MELENCHON","name":"Jean-Luc Mélenchon","shortName":"Mélenchon","votes":9290,"share":53.55392863319306},{"id":"MACRON","name":"Emmanuel Macron","shortName":"Macron","votes":3290,"share":18.965815414769125},{"id":"LE_PEN","name":"Marine Le Pen","shortName":"Le Pen","votes":2026,"share":11.679252896754482}]},"2":{"code":"93010","name":"Bondy","departmentCode":"93","registered":25293,"voters":15232,"expressed":13822,"blank":1119,"invalid":291,"turnout":60.22219586446843,"abstention":39.77780413553157,"winnerId":"MACRON","runnerUpId":"LE_PEN","margin":46.78049486326147,"top":[{"id":"MACRON","name":"Emmanuel Macron","shortName":"Macron","votes":10144,"share":73.39024743163073},{"id":"LE_PEN","name":"Marine Le Pen","shortName":"Le Pen","votes":3678,"share":26.609752568369267}]}}},"geometry":{"type":"Polygon","coordinates":[[[483.71,413.92],[483.87,414.02],[484.27,413.87],[484.51,412.88],[484.11,412.46],[483.8,412.56],[483.58,413.31],[483.74,413.83],[483.71,413.92]]]}},{"type":"Feature","id":"93013","properties":{"code":"93013","name":"Le Bourget","departmentCode":"93","rounds":{"1":{"code":"93013","name":"Le Bourget","departmentCode":"93","registered":6257,"voters":4424,"expressed":4333,"blank":62,"invalid":29,"turnout":70.70481061211443,"abstention":29.295189387885568,"winnerId":"MELENCHON","runnerUpId":"MACRON","margin":20.563120240018463,"top":[{"id":"MELENCHON","name":"Jean-Luc Mélenchon","shortName":"Mélenchon","votes":1915,"share":44.19570736210478},{"id":"MACRON","name":"Emmanuel Macron","shortName":"Macron","votes":1024,"share":23.632587122086317},{"id":"LE_PEN","name":"Marine Le Pen","shortName":"Le Pen","votes":611,"share":14.101084698822985}]},"2":{"code":"93013","name":"Le Bourget","departmentCode":"93","registered":6259,"voters":3963,"expressed":3639,"blank":259,"invalid":65,"turnout":63.316823773765776,"abstention":36.683176226234224,"winnerId":"MACRON","runnerUpId":"LE_PEN","margin":42.181918109370706,"top":[{"id":"MACRON","name":"Emmanuel Macron","shortName":"Macron","votes":2587,"share":71.09095905468536},{"id":"LE_PEN","name":"Marine Le Pen","shortName":"Le Pen","votes":1052,"share":28.909040945314647}]}}},"geometry":{"type":"Polygon","coordinates":[[[482.51,415.21],[482.76,414.83],[482.14,414.5],[481.99,414.97],[482.51,415.21]]]}},{"type":"Feature","id":"93014","properties":{"code":"93014","name":"Clichy-sous-Bois","departmentCode":"93","rounds":{"1":{"code":"93014","name":"Clichy-sous-Bois","departmentCode":"93","registered":11832,"voters":6891,"expressed":6730,"blank":109,"invalid":52,"turnout":58.240365111561864,"abstention":41.759634888438136,"winnerId":"MELENCHON","runnerUpId":"MACRON","margin":43.98216939078752,"top":[{"id":"MELENCHON","name":"Jean-Luc Mélenchon","shortName":"Mélenchon","votes":4070,"share":60.475482912332836},{"id":"MACRON","name":"Emmanuel Macron","shortName":"Macron","votes":1110,"share":16.493313521545318},{"id":"LE_PEN","name":"Marine Le Pen","shortName":"Le Pen","votes":794,"share":11.797919762258543}]},"2":{"code":"93014","name":"Clichy-sous-Bois","departmentCode":"93","registered":11843,"voters":5725,"expressed":5292,"blank":354,"invalid":79,"turnout":48.34079202904669,"abstention":51.659207970953304,"winnerId":"MACRON","runnerUpId":"LE_PEN","margin":48.1859410430839,"top":[{"id":"MACRON","name":"Emmanuel Macron","shortName":"Macron","votes":3921,"share":74.09297052154194},{"id":"LE_PEN","name":"Marine Le Pen","shortName":"Le Pen","votes":1371,"share":25.90702947845805}]}}},"geometry":{"type":"Polygon","coordinates":[[[486.35,414.05],[486.53,413.44],[485.94,413.02],[485.5,412.83],[485.16,413.21],[486.35,414.05]]]}},{"type":"Feature","id":"93015","properties":{"code":"93015","name":"Coubron","departmentCode":"93","rounds":{"1":{"code":"93015","name":"Coubron","departmentCode":"93","registered":3314,"voters":2482,"expressed":2433,"blank":36,"invalid":13,"turnout":74.89438744719372,"abstention":25.105612552806278,"winnerId":"MACRON","runnerUpId":"LE_PEN","margin":0.2055076037813399,"top":[{"id":"MACRON","name":"Emmanuel Macron","shortName":"Macron","votes":607,"share":24.948623099054664},{"id":"LE_PEN","name":"Marine Le Pen","shortName":"Le Pen","votes":602,"share":24.743115495273322},{"id":"MELENCHON","name":"Jean-Luc Mélenchon","shortName":"Mélenchon","votes":546,"share":22.44143033292232}]},"2":{"code":"93015","name":"Coubron","departmentCode":"93","registered":3314,"voters":2347,"expressed":2136,"blank":168,"invalid":43,"turnout":70.8207604103802,"abstention":29.179239589619794,"winnerId":"MACRON","runnerUpId":"LE_PEN","margin":13.108614232209737,"top":[{"id":"MACRON","name":"Emmanuel Macron","shortName":"Macron","votes":1208,"share":56.55430711610487},{"id":"LE_PEN","name":"Marine Le Pen","shortName":"Le Pen","votes":928,"share":43.445692883895134}]}}},"geometry":{"type":"Polygon","coordinates":[[[486.35,414.05],[486.5,414.38],[487.4,414.23],[487.36,413.43],[487.33,413.38],[486.53,413.44],[486.35,414.05]]]}},{"type":"Feature","id":"93027","properties":{"code":"93027","name":"La Courneuve","departmentCode":"93","rounds":{"1":{"code":"93027","name":"La Courneuve","departmentCode":"93","registered":16090,"voters":10548,"expressed":10330,"blank":141,"invalid":77,"turnout":65.55624611559975,"abstention":34.443753884400245,"winnerId":"MELENCHON","runnerUpId":"MACRON","margin":49.293320425943854,"top":[{"id":"MELENCHON","name":"Jean-Luc Mélenchon","shortName":"Mélenchon","votes":6606,"share":63.949661181026144},{"id":"MACRON","name":"Emmanuel Macron","shortName":"Macron","votes":1514,"share":14.656340755082283},{"id":"LE_PEN","name":"Marine Le Pen","shortName":"Le Pen","votes":970,"share":9.390125847047434}]},"2":{"code":"93027","name":"La Courneuve","departmentCode":"93","registered":16109,"voters":8855,"expressed":8124,"blank":565,"invalid":166,"turnout":54.969271835619836,"abstention":45.030728164380164,"winnerId":"MACRON","runnerUpId":"LE_PEN","margin":53.86509108813392,"top":[{"id":"MACRON","name":"Emmanuel Macron","shortName":"Macron","votes":6250,"share":76.93254554406697},{"id":"LE_PEN","name":"Marine Le Pen","shortName":"Le Pen","votes":1874,"share":23.06745445593304}]}}},"geometry":{"type":"Polygon","coordinates":[[[481.86,413.98],[481.73,413.89],[481.67,413.94],[480.65,414.23],[481.37,415.36],[481.56,415.54],[481.99,414.97],[482.14,414.5],[481.86,413.98]]]}},{"type":"Feature","id":"93029","properties":{"code":"93029","name":"Drancy","departmentCode":"93","rounds":{"1":{"code":"93029","name":"Drancy","departmentCode":"93","registered":34925,"voters":23435,"expressed":22901,"blank":363,"invalid":171,"turnout":67.10093056549749,"abstention":32.8990694345025,"winnerId":"MELENCHON","runnerUpId":"MACRON","margin":26.91585520282957,"top":[{"id":"MELENCHON","name":"Jean-Luc Mélenchon","shortName":"Mélenchon","votes":10486,"share":45.78839351993363},{"id":"MACRON","name":"Emmanuel Macron","shortName":"Macron","votes":4322,"share":18.872538317104055},{"id":"LE_PEN","name":"Marine Le Pen","shortName":"Le Pen","votes":4027,"share":17.584384961355397}]},"2":{"code":"93029","name":"Drancy","departmentCode":"93","registered":34949,"voters":21006,"expressed":19059,"blank":1515,"invalid":432,"turnout":60.104724026438525,"abstention":39.895275973561475,"winnerId":"MACRON","runnerUpId":"LE_PEN","margin":28.726585864945697,"top":[{"id":"MACRON","name":"Emmanuel Macron","shortName":"Macron","votes":12267,"share":64.36329293247285},{"id":"LE_PEN","name":"Marine Le Pen","shortName":"Le Pen","votes":6792,"share":35.636707067527155}]}}},"geometry":{"type":"Polygon","coordinates":[[[483.71,413.92],[483.74,413.83],[483.15,413.55],[481.86,413.98],[482.14,414.5],[482.76,414.83],[483.71,413.92]]]}},{"type":"Feature","id":"93030","properties":{"code":"93030","name":"Dugny","departmentCode":"93","rounds":{"1":{"code":"93030","name":"Dugny","departmentCode":"93","registered":5483,"voters":3841,"expressed":3759,"blank":53,"invalid":29,"turnout":70.05289075323728,"abstention":29.94710924676272,"winnerId":"MELENCHON","runnerUpId":"LE_PEN","margin":43.947858472998135,"top":[{"id":"MELENCHON","name":"Jean-Luc Mélenchon","shortName":"Mélenchon","votes":2200,"share":58.52620377760043},{"id":"LE_PEN","name":"Marine Le Pen","shortName":"Le Pen","votes":548,"share":14.578345304602289},{"id":"MACRON","name":"Emmanuel Macron","shortName":"Macron","votes":490,"share":13.03538175046555}]},"2":{"code":"93030","name":"Dugny","departmentCode":"93","registered":5482,"voters":3223,"expressed":2878,"blank":263,"invalid":82,"turnout":58.792411528639185,"abstention":41.207588471360815,"winnerId":"MACRON","runnerUpId":"LE_PEN","margin":31.341209173036834,"top":[{"id":"MACRON","name":"Emmanuel Macron","shortName":"Macron","votes":1890,"share":65.67060458651841},{"id":"LE_PEN","name":"Marine Le Pen","shortName":"Le Pen","votes":988,"share":34.329395413481585}]}}},"geometry":{"type":"Polygon","coordinates":[[[481.65,415.73],[482.02,415.82],[482.92,415.72],[482.51,415.21],[481.99,414.97],[481.56,415.54],[481.65,415.73]]]}},{"type":"Feature","id":"93031","properties":{"code":"93031","name":"Épinay-sur-Seine","departmentCode":"93","rounds":{"1":{"code":"93031","name":"Epinay-sur-Seine","departmentCode":"93","registered":26080,"voters":16833,"expressed":16460,"blank":189,"invalid":184,"turnout":64.54371165644172,"abstention":35.456288343558285,"winnerId":"MELENCHON","runnerUpId":"MACRON","margin":37.4179829890644,"top":[{"id":"MELENCHON","name":"Jean-Luc Mélenchon","shortName":"Mélenchon","votes":9283,"share":56.39732685297692},{"id":"MACRON","name":"Emmanuel Macron","shortName":"Macron","votes":3124,"share":18.979343863912515},{"id":"LE_PEN","name":"Marine Le Pen","shortName":"Le Pen","votes":1584,"share":9.623329283110571}]},"2":{"code":"93031","name":"Epinay-sur-Seine","departmentCode":"93","registered":26099,"voters":14237,"expressed":13048,"blank":887,"invalid":302,"turnout":54.54998275796008,"abstention":45.45001724203993,"winnerId":"MACRON","runnerUpId":"LE_PEN","margin":51.21091354996934,"top":[{"id":"MACRON","name":"Emmanuel Macron","shortName":"Macron","votes":9865,"share":75.60545677498467},{"id":"LE_PEN","name":"Marine Le Pen","shortName":"Le Pen","votes":3183,"share":24.394543225015326}]}}},"geometry":{"type":"Polygon","coordinates":[[[478.09,415.52],[477.97,415.85],[478.31,416.23],[478.75,416.04],[479.21,415.94],[479.36,415.7],[479.76,415.27],[479.51,415.13],[479.05,415.37],[478.09,415.52]]]}},{"type":"Feature","id":"93032","properties":{"code":"93032","name":"Gagny","departmentCode":"93","rounds":{"1":{"code":"93032","name":"Gagny","departmentCode":"93","registered":21870,"voters":16054,"expressed":15684,"blank":267,"invalid":103,"turnout":73.40649291266575,"abstention":26.59350708733425,"winnerId":"MELENCHON","runnerUpId":"MACRON","margin":7.593726090283091,"top":[{"id":"MELENCHON","name":"Jean-Luc Mélenchon","shortName":"Mélenchon","votes":5241,"share":33.41622035195103},{"id":"MACRON","name":"Emmanuel Macron","shortName":"Macron","votes":4050,"share":25.822494261667945},{"id":"LE_PEN","name":"Marine Le Pen","shortName":"Le Pen","votes":2599,"share":16.571027799030862}]},"2":{"code":"93032","name":"Gagny","departmentCode":"93","registered":21887,"voters":14621,"expressed":13305,"blank":1013,"invalid":303,"turnout":66.80221135834057,"abstention":33.19778864165943,"winnerId":"MACRON","runnerUpId":"LE_PEN","margin":35.5881247651259,"top":[{"id":"MACRON","name":"Emmanuel Macron","shortName":"Macron","votes":9020,"share":67.79406238256294},{"id":"LE_PEN","name":"Marine Le Pen","shortName":"Le Pen","votes":4285,"share":32.20593761743705}]}}},"geometry":{"type":"Polygon","coordinates":[[[486.34,412.35],[486.61,411.46],[485.43,411.84],[485.07,412.64],[485.5,412.83],[485.94,413.02],[486.34,412.35]]]}},{"type":"Feature","id":"93033","properties":{"code":"93033","name":"Gournay-sur-Marne","departmentCode":"93","rounds":{"1":{"code":"93033","name":"Gournay-sur-Marne","departmentCode":"93","registered":4742,"voters":3716,"expressed":3649,"blank":47,"invalid":20,"turnout":78.36355967946015,"abstention":21.636440320539858,"winnerId":"MACRON","runnerUpId":"MELENCHON","margin":12.606193477665114,"top":[{"id":"MACRON","name":"Emmanuel Macron","shortName":"Macron","votes":1198,"share":32.830912578788706},{"id":"MELENCHON","name":"Jean-Luc Mélenchon","shortName":"Mélenchon","votes":738,"share":20.224719101123593},{"id":"LE_PEN","name":"Marine Le Pen","shortName":"Le Pen","votes":580,"share":15.894765689229926}]},"2":{"code":"93033","name":"Gournay-sur-Marne","departmentCode":"93","registered":4728,"voters":3509,"expressed":3247,"blank":207,"invalid":55,"turnout":74.21742808798646,"abstention":25.782571912013534,"winnerId":"MACRON","runnerUpId":"LE_PEN","margin":37.480751462888826,"top":[{"id":"MACRON","name":"Emmanuel Macron","shortName":"Macron","votes":2232,"share":68.74037573144442},{"id":"LE_PEN","name":"Marine Le Pen","shortName":"Le Pen","votes":1015,"share":31.25962426855559}]}}},"geometry":{"type":"Polygon","coordinates":[[[486.79,410.84],[486.58,411.08],[486.61,411.46],[487.2,411.41],[486.79,410.84]]]}},{"type":"Feature","id":"93039","properties":{"code":"93039","name":"L'Île-Saint-Denis","departmentCode":"93","rounds":{"1":{"code":"93039","name":"L'Ile-Saint-Denis","departmentCode":"93","registered":3974,"voters":2918,"expressed":2866,"blank":27,"invalid":25,"turnout":73.42727730246604,"abstention":26.57272269753397,"winnerId":"MELENCHON","runnerUpId":"MACRON","margin":47.83670621074669,"top":[{"id":"MELENCHON","name":"Jean-Luc Mélenchon","shortName":"Mélenchon","votes":1779,"share":62.07257501744592},{"id":"MACRON","name":"Emmanuel Macron","shortName":"Macron","votes":408,"share":14.235868806699232},{"id":"LE_PEN","name":"Marine Le Pen","shortName":"Le Pen","votes":245,"share":8.548499651081647}]},"2":{"code":"93039","name":"L'Ile-Saint-Denis","departmentCode":"93","registered":3977,"voters":2443,"expressed":2193,"blank":203,"invalid":47,"turnout":61.42821222026653,"abstention":38.57178777973347,"winnerId":"MACRON","runnerUpId":"LE_PEN","margin":53.57957136342909,"top":[{"id":"MACRON","name":"Emmanuel Macron","shortName":"Macron","votes":1684,"share":76.78978568171455},{"id":"LE_PEN","name":"Marine Le Pen","shortName":"Le Pen","votes":509,"share":23.210214318285455}]}}},"geometry":{"type":"Polygon","coordinates":[[[478.71,415.38],[478.06,415.52],[478.09,415.52],[479.05,415.37],[479.51,415.13],[479.63,414.85],[479.35,414.19],[478.94,413.87],[479.01,414.01],[479.19,414.19],[479.48,414.76],[479.23,415.23],[478.71,415.38]]]}},{"type":"Feature","id":"93045","properties":{"code":"93045","name":"Les Lilas","departmentCode":"93","rounds":{"1":{"code":"93045","name":"Les Lilas","departmentCode":"93","registered":14583,"voters":11243,"expressed":11035,"blank":152,"invalid":56,"turnout":77.09661935129945,"abstention":22.90338064870054,"winnerId":"MELENCHON","runnerUpId":"MACRON","margin":17.661984594472134,"top":[{"id":"MELENCHON","name":"Jean-Luc Mélenchon","shortName":"Mélenchon","votes":4632,"share":41.975532396918894},{"id":"MACRON","name":"Emmanuel Macron","shortName":"Macron","votes":2683,"share":24.31354780244676},{"id":"ZEMMOUR","name":"Éric Zemmour","shortName":"Zemmour","votes":926,"share":8.39148164929769}]},"2":{"code":"93045","name":"Les Lilas","departmentCode":"93","registered":14593,"voters":10284,"expressed":9375,"blank":735,"invalid":174,"turnout":70.47214417871582,"abstention":29.527855821284177,"winnerId":"MACRON","runnerUpId":"LE_PEN","margin":66.86933333333333,"top":[{"id":"MACRON","name":"Emmanuel Macron","shortName":"Macron","votes":7822,"share":83.43466666666667},{"id":"LE_PEN","name":"Marine Le Pen","shortName":"Le Pen","votes":1553,"share":16.565333333333335}]}}},"geometry":{"type":"Polygon","coordinates":[[[481.75,412.05],[481.78,412.29],[482.16,412.66],[482.34,412.05],[481.81,411.82],[481.75,412.05]]]}},{"type":"Feature","id":"93046","properties":{"code":"93046","name":"Livry-Gargan","departmentCode":"93","rounds":{"1":{"code":"93046","name":"Livry-Gargan","departmentCode":"93","registered":22252,"voters":16206,"expressed":15880,"blank":254,"invalid":72,"turnout":72.82940859248606,"abstention":27.170591407513932,"winnerId":"MELENCHON","runnerUpId":"MACRON","margin":12.632241813602016,"top":[{"id":"MELENCHON","name":"Jean-Luc Mélenchon","shortName":"Mélenchon","votes":5609,"share":35.321158690176325},{"id":"MACRON","name":"Emmanuel Macron","shortName":"Macron","votes":3603,"share":22.688916876574307},{"id":"LE_PEN","name":"Marine Le Pen","shortName":"Le Pen","votes":3089,"share":19.452141057934508}]},"2":{"code":"93046","name":"Livry-Gargan","departmentCode":"93","registered":22267,"voters":14646,"expressed":13297,"blank":1053,"invalid":296,"turnout":65.77446445412494,"abstention":34.22553554587506,"winnerId":"MACRON","runnerUpId":"LE_PEN","margin":26.118673384974056,"top":[{"id":"MACRON","name":"Emmanuel Macron","shortName":"Macron","votes":8385,"share":63.05933669248702},{"id":"LE_PEN","name":"Marine Le Pen","shortName":"Le Pen","votes":4912,"share":36.94066330751297}]}}},"geometry":{"type":"Polygon","coordinates":[[[486.5,414.38],[486.35,414.05],[485.16,413.21],[484.85,413.16],[484.73,413.97],[485.08,414.25],[486.29,414.66],[486.5,414.38]]]}},{"type":"Feature","id":"93047","properties":{"code":"93047","name":"Montfermeil","departmentCode":"93","rounds":{"1":{"code":"93047","name":"Montfermeil","departmentCode":"93","registered":13482,"voters":9343,"expressed":9182,"blank":97,"invalid":64,"turnout":69.29980715027443,"abstention":30.70019284972556,"winnerId":"MELENCHON","runnerUpId":"LE_PEN","margin":21.030276628185582,"top":[{"id":"MELENCHON","name":"Jean-Luc Mélenchon","shortName":"Mélenchon","votes":3776,"share":41.12393813983882},{"id":"LE_PEN","name":"Marine Le Pen","shortName":"Le Pen","votes":1845,"share":20.093661511653234},{"id":"MACRON","name":"Emmanuel Macron","shortName":"Macron","votes":1793,"share":19.52733609235461}]},"2":{"code":"93047","name":"Montfermeil","departmentCode":"93","registered":13495,"voters":8162,"expressed":7519,"blank":515,"invalid":128,"turnout":60.481659874027415,"abstention":39.518340125972585,"winnerId":"MACRON","runnerUpId":"LE_PEN","margin":21.69171432371326,"top":[{"id":"MACRON","name":"Emmanuel Macron","shortName":"Macron","votes":4575,"share":60.84585716185663},{"id":"LE_PEN","name":"Marine Le Pen","shortName":"Le Pen","votes":2944,"share":39.15414283814337}]}}},"geometry":{"type":"Polygon","coordinates":[[[487.33,413.38],[486.34,412.35],[485.94,413.02],[486.53,413.44],[487.33,413.38]]]}},{"type":"Feature","id":"93048","properties":{"code":"93048","name":"Montreuil","departmentCode":"93","rounds":{"1":{"code":"93048","name":"Montreuil","departmentCode":"93","registered":60784,"voters":45098,"expressed":44379,"blank":488,"invalid":231,"turnout":74.19386680705449,"abstention":25.806133192945513,"winnerId":"MELENCHON","runnerUpId":"MACRON","margin":37.00624169088984,"top":[{"id":"MELENCHON","name":"Jean-Luc Mélenchon","shortName":"Mélenchon","votes":24505,"share":55.21755785393992},{"id":"MACRON","name":"Emmanuel Macron","shortName":"Macron","votes":8082,"share":18.211316163050093},{"id":"LE_PEN","name":"Marine Le Pen","shortName":"Le Pen","votes":2986,"share":6.728407580161788}]},"2":{"code":"93048","name":"Montreuil","departmentCode":"93","registered":60825,"voters":40113,"expressed":36467,"blank":2894,"invalid":752,"turnout":65.9482120838471,"abstention":34.0517879161529,"winnerId":"MACRON","runnerUpId":"LE_PEN","margin":66.90158225244743,"top":[{"id":"MACRON","name":"Emmanuel Macron","shortName":"Macron","votes":30432,"share":83.4507911262237},{"id":"LE_PEN","name":"Marine Le Pen","shortName":"Le Pen","votes":6035,"share":16.54920887377629}]}}},"geometry":{"type":"Polygon","coordinates":[[[481.99,410.69],[481.89,410.69],[481.86,410.97],[482.49,411.91],[483.02,412.09],[483.42,412.04],[483.94,411.24],[482.85,410.77],[481.99,410.69]]]}},{"type":"Feature","id":"93049","properties":{"code":"93049","name":"Neuilly-Plaisance","departmentCode":"93","rounds":{"1":{"code":"93049","name":"Neuilly-Plaisance","departmentCode":"93","registered":12648,"voters":9578,"expressed":9413,"blank":128,"invalid":37,"turnout":75.72738772928527,"abstention":24.27261227071474,"winnerId":"MACRON","runnerUpId":"MELENCHON","margin":2.8365027090194412,"top":[{"id":"MACRON","name":"Emmanuel Macron","shortName":"Macron","votes":2910,"share":30.91469244661638},{"id":"MELENCHON","name":"Jean-Luc Mélenchon","shortName":"Mélenchon","votes":2643,"share":28.078189737596944},{"id":"LE_PEN","name":"Marine Le Pen","shortName":"Le Pen","votes":1306,"share":13.874428981196218}]},"2":{"code":"93049","name":"Neuilly-Plaisance","departmentCode":"93","registered":12649,"voters":8954,"expressed":8230,"blank":580,"invalid":144,"turnout":70.78820460115423,"abstention":29.21179539884576,"winnerId":"MACRON","runnerUpId":"LE_PEN","margin":44.131227217496956,"top":[{"id":"MACRON","name":"Emmanuel Macron","shortName":"Macron","votes":5931,"share":72.06561360874848},{"id":"LE_PEN","name":"Marine Le Pen","shortName":"Le Pen","votes":2299,"share":27.934386391251522}]}}},"geometry":{"type":"Polygon","coordinates":[[[485.15,410.81],[484.99,410.76],[484.93,410.71],[484.5,411],[484.38,411.23],[484.78,412.03],[485.12,411.89],[485.15,410.81]]]}},{"type":"Feature","id":"93050","properties":{"code":"93050","name":"Neuilly-sur-Marne","departmentCode":"93","rounds":{"1":{"code":"93050","name":"Neuilly-sur-Marne","departmentCode":"93","registered":19355,"voters":13928,"expressed":13617,"blank":213,"invalid":98,"turnout":71.96073366055283,"abstention":28.03926633944717,"winnerId":"MELENCHON","runnerUpId":"MACRON","margin":17.279870749798047,"top":[{"id":"MELENCHON","name":"Jean-Luc Mélenchon","shortName":"Mélenchon","votes":5623,"share":41.29397077182933},{"id":"MACRON","name":"Emmanuel Macron","shortName":"Macron","votes":3270,"share":24.014100022031286},{"id":"LE_PEN","name":"Marine Le Pen","shortName":"Le Pen","votes":2083,"share":15.297055151648674}]},"2":{"code":"93050","name":"Neuilly-sur-Marne","departmentCode":"93","registered":19369,"voters":12470,"expressed":11280,"blank":939,"invalid":251,"turnout":64.38122773504053,"abstention":35.61877226495947,"winnerId":"MACRON","runnerUpId":"LE_PEN","margin":35.62056737588652,"top":[{"id":"MACRON","name":"Emmanuel Macron","shortName":"Macron","votes":7649,"share":67.81028368794327},{"id":"LE_PEN","name":"Marine Le Pen","shortName":"Le Pen","votes":3631,"share":32.18971631205674}]}}},"geometry":{"type":"Polygon","coordinates":[[[485.15,410.81],[485.12,411.89],[485.43,411.84],[486.61,411.46],[486.58,411.08],[485.15,410.81]]]}},{"type":"Feature","id":"93051","properties":{"code":"93051","name":"Noisy-le-Grand","departmentCode":"93","rounds":{"1":{"code":"93051","name":"Noisy-le-Grand","departmentCode":"93","registered":38303,"voters":28933,"expressed":28330,"blank":422,"invalid":181,"turnout":75.53716419079446,"abstention":24.462835809205547,"winnerId":"MELENCHON","runnerUpId":"MACRON","margin":7.1902576773738085,"top":[{"id":"MELENCHON","name":"Jean-Luc Mélenchon","shortName":"Mélenchon","votes":10200,"share":36.004235792446174},{"id":"MACRON","name":"Emmanuel Macron","shortName":"Macron","votes":8163,"share":28.813978115072363},{"id":"LE_PEN","name":"Marine Le Pen","shortName":"Le Pen","votes":3575,"share":12.619131662548536}]},"2":{"code":"93051","name":"Noisy-le-Grand","departmentCode":"93","registered":38329,"voters":26466,"expressed":24192,"blank":1805,"invalid":469,"turnout":69.04954473114351,"abstention":30.95045526885648,"winnerId":"MACRON","runnerUpId":"LE_PEN","margin":45.56878306878307,"top":[{"id":"MACRON","name":"Emmanuel Macron","shortName":"Macron","votes":17608,"share":72.78439153439153},{"id":"LE_PEN","name":"Marine Le Pen","shortName":"Le Pen","votes":6584,"share":27.215608465608465}]}}},"geometry":{"type":"Polygon","coordinates":[[[484.99,410.76],[485.15,410.81],[486.58,411.08],[486.79,410.84],[487.19,409.95],[487.47,409],[487.34,408.67],[486.63,409.2],[485.64,410.19],[484.99,410.76]]]}},{"type":"Feature","id":"93053","properties":{"code":"93053","name":"Noisy-le-Sec","departmentCode":"93","rounds":{"1":{"code":"93053","name":"Noisy-le-Sec","departmentCode":"93","registered":20319,"voters":14167,"expressed":13917,"blank":158,"invalid":92,"turnout":69.72291943501156,"abstention":30.277080564988434,"winnerId":"MELENCHON","runnerUpId":"MACRON","margin":34.145289933175256,"top":[{"id":"MELENCHON","name":"Jean-Luc Mélenchon","shortName":"Mélenchon","votes":7309,"share":52.51850255083711},{"id":"MACRON","name":"Emmanuel Macron","shortName":"Macron","votes":2557,"share":18.373212617661853},{"id":"LE_PEN","name":"Marine Le Pen","shortName":"Le Pen","votes":1512,"share":10.864410433283036}]},"2":{"code":"93053","name":"Noisy-le-Sec","departmentCode":"93","registered":20326,"voters":12560,"expressed":11385,"blank":900,"invalid":275,"turnout":61.792777723113254,"abstention":38.207222276886746,"winnerId":"MACRON","runnerUpId":"LE_PEN","margin":50.18006148440931,"top":[{"id":"MACRON","name":"Emmanuel Macron","shortName":"Macron","votes":8549,"share":75.09003074220465},{"id":"LE_PEN","name":"Marine Le Pen","shortName":"Le Pen","votes":2836,"share":24.909969257795346}]}}},"geometry":{"type":"Polygon","coordinates":[[[483.58,413.31],[483.8,412.56],[483.42,412.04],[483.02,412.09],[482.72,412.99],[483.58,413.31]]]}},{"type":"Feature","id":"93055","properties":{"code":"93055","name":"Pantin","departmentCode":"93","rounds":{"1":{"code":"93055","name":"Pantin","departmentCode":"93","registered":26962,"voters":20114,"expressed":19785,"blank":211,"invalid":118,"turnout":74.60129070543728,"abstention":25.398709294562714,"winnerId":"MELENCHON","runnerUpId":"MACRON","margin":35.17311094263331,"top":[{"id":"MELENCHON","name":"Jean-Luc Mélenchon","shortName":"Mélenchon","votes":10650,"share":53.82865807429871},{"id":"MACRON","name":"Emmanuel Macron","shortName":"Macron","votes":3691,"share":18.655547131665404},{"id":"LE_PEN","name":"Marine Le Pen","shortName":"Le Pen","votes":1333,"share":6.737427343947434}]},"2":{"code":"93055","name":"Pantin","departmentCode":"93","registered":26976,"voters":17841,"expressed":16295,"blank":1185,"invalid":361,"turnout":66.13656583629893,"abstention":33.863434163701065,"winnerId":"MACRON","runnerUpId":"LE_PEN","margin":66.45596808837067,"top":[{"id":"MACRON","name":"Emmanuel Macron","shortName":"Macron","votes":13562,"share":83.22798404418533},{"id":"LE_PEN","name":"Marine Le Pen","shortName":"Le Pen","votes":2733,"share":16.772015955814666}]}}},"geometry":{"type":"Polygon","coordinates":[[[481.67,413.94],[481.73,413.89],[482.28,412.9],[482.16,412.66],[481.78,412.29],[481.38,412.62],[481.07,413.14],[481.67,413.94]]]}},{"type":"Feature","id":"93057","properties":{"code":"93057","name":"Les Pavillons-sous-Bois","departmentCode":"93","rounds":{"1":{"code":"93057","name":"Les Pavillons-sous-Bois","departmentCode":"93","registered":11695,"voters":8080,"expressed":7914,"blank":115,"invalid":51,"turnout":69.08935442496794,"abstention":30.910645575032063,"winnerId":"MELENCHON","runnerUpId":"MACRON","margin":12.863280262825372,"top":[{"id":"MELENCHON","name":"Jean-Luc Mélenchon","shortName":"Mélenchon","votes":2808,"share":35.4814253222138},{"id":"MACRON","name":"Emmanuel Macron","shortName":"Macron","votes":1790,"share":22.618145059388425},{"id":"LE_PEN","name":"Marine Le Pen","shortName":"Le Pen","votes":1244,"share":15.718979024513521}]},"2":{"code":"93057","name":"Les Pavillons-sous-Bois","departmentCode":"93","registered":11702,"voters":7253,"expressed":6610,"blank":498,"invalid":145,"turnout":61.98085797299607,"abstention":38.01914202700393,"winnerId":"MACRON","runnerUpId":"LE_PEN","margin":34.22087745839637,"top":[{"id":"MACRON","name":"Emmanuel Macron","shortName":"Macron","votes":4436,"share":67.11043872919818},{"id":"LE_PEN","name":"Marine Le Pen","shortName":"Le Pen","votes":2174,"share":32.88956127080181}]}}},"geometry":{"type":"Polygon","coordinates":[[[484.76,413.02],[484.51,412.88],[484.27,413.87],[484.73,413.97],[484.85,413.16],[484.76,413.02]]]}},{"type":"Feature","id":"93059","properties":{"code":"93059","name":"Pierrefitte-sur-Seine","departmentCode":"93","rounds":{"1":{"code":"93059","name":"Pierrefitte-sur-Seine","departmentCode":"93","registered":10985,"voters":7625,"expressed":7445,"blank":117,"invalid":63,"turnout":69.41283568502503,"abstention":30.58716431497497,"winnerId":"MELENCHON","runnerUpId":"MACRON","margin":40.6178643384822,"top":[{"id":"MELENCHON","name":"Jean-Luc Mélenchon","shortName":"Mélenchon","votes":4322,"share":58.05238415043653},{"id":"MACRON","name":"Emmanuel Macron","shortName":"Macron","votes":1298,"share":17.43451981195433},{"id":"LE_PEN","name":"Marine Le Pen","shortName":"Le Pen","votes":837,"share":11.242444593687038}]},"2":{"code":"93059","name":"Pierrefitte-sur-Seine","departmentCode":"93","registered":10997,"voters":6339,"expressed":5808,"blank":415,"invalid":116,"turnout":57.642993543693734,"abstention":42.357006456306266,"winnerId":"MACRON","runnerUpId":"LE_PEN","margin":47.83057851239669,"top":[{"id":"MACRON","name":"Emmanuel Macron","shortName":"Macron","votes":4293,"share":73.91528925619835},{"id":"LE_PEN","name":"Marine Le Pen","shortName":"Le Pen","votes":1515,"share":26.084710743801654}]}}},"geometry":{"type":"Polygon","coordinates":[[[480.39,416.59],[480.7,416.49],[480.53,415.31],[479.95,415.46],[479.98,416.21],[480.39,416.59]]]}},{"type":"Feature","id":"93061","properties":{"code":"93061","name":"Le Pré-Saint-Gervais","departmentCode":"93","rounds":{"1":{"code":"93061","name":"Le Pré-Saint-Gervais","departmentCode":"93","registered":9422,"voters":7217,"expressed":7104,"blank":78,"invalid":35,"turnout":76.59732540861813,"abstention":23.40267459138187,"winnerId":"MELENCHON","runnerUpId":"MACRON","margin":27.407094594594593,"top":[{"id":"MELENCHON","name":"Jean-Luc Mélenchon","shortName":"Mélenchon","votes":3415,"share":48.07150900900901},{"id":"MACRON","name":"Emmanuel Macron","shortName":"Macron","votes":1468,"share":20.664414414414413},{"id":"LE_PEN","name":"Marine Le Pen","shortName":"Le Pen","votes":553,"share":7.784346846846847}]},"2":{"code":"93061","name":"Le Pré-Saint-Gervais","departmentCode":"93","registered":9429,"voters":6428,"expressed":5876,"blank":406,"invalid":146,"turnout":68.17265881853855,"abstention":31.82734118146145,"winnerId":"MACRON","runnerUpId":"LE_PEN","margin":64.6358066712049,"top":[{"id":"MACRON","name":"Emmanuel Macron","shortName":"Macron","votes":4837,"share":82.31790333560245},{"id":"LE_PEN","name":"Marine Le Pen","shortName":"Le Pen","votes":1039,"share":17.682096664397548}]}}},"geometry":{"type":"Polygon","coordinates":[[[481.78,412.29],[481.75,412.05],[481.38,412.62],[481.78,412.29]]]}},{"type":"Feature","id":"93062","properties":{"code":"93062","name":"Le Raincy","departmentCode":"93","rounds":{"1":{"code":"93062","name":"Le Raincy","departmentCode":"93","registered":10094,"voters":7476,"expressed":7356,"blank":82,"invalid":38,"turnout":74.06380027739252,"abstention":25.93619972260749,"winnerId":"MACRON","runnerUpId":"MELENCHON","margin":11.718325176726482,"top":[{"id":"MACRON","name":"Emmanuel Macron","shortName":"Macron","votes":2433,"share":33.07504078303426},{"id":"MELENCHON","name":"Jean-Luc Mélenchon","shortName":"Mélenchon","votes":1571,"share":21.356715606307777},{"id":"LE_PEN","name":"Marine Le Pen","shortName":"Le Pen","votes":1005,"share":13.66231647634584}]},"2":{"code":"93062","name":"Le Raincy","departmentCode":"93","registered":10095,"voters":7002,"expressed":6500,"blank":389,"invalid":113,"turnout":69.36106983655274,"abstention":30.638930163447252,"winnerId":"MACRON","runnerUpId":"LE_PEN","margin":41.261538461538464,"top":[{"id":"MACRON","name":"Emmanuel Macron","shortName":"Macron","votes":4591,"share":70.63076923076923},{"id":"LE_PEN","name":"Marine Le Pen","shortName":"Le Pen","votes":1909,"share":29.369230769230768}]}}},"geometry":{"type":"Polygon","coordinates":[[[484.85,413.16],[485.16,413.21],[485.5,412.83],[485.07,412.64],[484.76,413.02],[484.85,413.16]]]}},{"type":"Feature","id":"93063","properties":{"code":"93063","name":"Romainville","departmentCode":"93","rounds":{"1":{"code":"93063","name":"Romainville","departmentCode":"93","registered":16451,"voters":11512,"expressed":11347,"blank":112,"invalid":53,"turnout":69.97750896602031,"abstention":30.022491033979698,"winnerId":"MELENCHON","runnerUpId":"MACRON","margin":28.923944654974882,"top":[{"id":"MELENCHON","name":"Jean-Luc Mélenchon","shortName":"Mélenchon","votes":5489,"share":48.37401956464264},{"id":"MACRON","name":"Emmanuel Macron","shortName":"Macron","votes":2207,"share":19.45007490966775},{"id":"LE_PEN","name":"Marine Le Pen","shortName":"Le Pen","votes":1189,"share":10.478540583414118}]},"2":{"code":"93063","name":"Romainville","departmentCode":"93","registered":16462,"voters":10285,"expressed":9403,"blank":673,"invalid":209,"turnout":62.477220264852384,"abstention":37.52277973514761,"winnerId":"MACRON","runnerUpId":"LE_PEN","margin":53.46166117196639,"top":[{"id":"MACRON","name":"Emmanuel Macron","shortName":"Macron","votes":7215,"share":76.7308305859832},{"id":"LE_PEN","name":"Marine Le Pen","shortName":"Le Pen","votes":2188,"share":23.2691694140168}]}}},"geometry":{"type":"Polygon","coordinates":[[[482.16,412.66],[482.28,412.9],[482.72,412.99],[483.02,412.09],[482.49,411.91],[482.34,412.05],[482.16,412.66]]]}},{"type":"Feature","id":"93064","properties":{"code":"93064","name":"Rosny-sous-Bois","departmentCode":"93","rounds":{"1":{"code":"93064","name":"Rosny-sous-Bois","departmentCode":"93","registered":23709,"voters":16340,"expressed":15953,"blank":387,"invalid":0,"turnout":68.91897591631869,"abstention":31.081024083681303,"winnerId":"MELENCHON","runnerUpId":"MACRON","margin":15.45163919012098,"top":[{"id":"MELENCHON","name":"Jean-Luc Mélenchon","shortName":"Mélenchon","votes":6299,"share":39.48473641321382},{"id":"MACRON","name":"Emmanuel Macron","shortName":"Macron","votes":3834,"share":24.033097223092838},{"id":"LE_PEN","name":"Marine Le Pen","shortName":"Le Pen","votes":2231,"share":13.984830439415784}]},"2":{"code":"93064","name":"Rosny-sous-Bois","departmentCode":"93","registered":23723,"voters":14693,"expressed":13188,"blank":1505,"invalid":0,"turnout":61.935674240188845,"abstention":38.064325759811155,"winnerId":"MACRON","runnerUpId":"LE_PEN","margin":41.31028207461328,"top":[{"id":"MACRON","name":"Emmanuel Macron","shortName":"Macron","votes":9318,"share":70.65514103730665},{"id":"LE_PEN","name":"Marine Le Pen","shortName":"Le Pen","votes":3870,"share":29.34485896269336}]}}},"geometry":{"type":"Polygon","coordinates":[[[484.78,412.03],[484.38,411.23],[483.94,411.24],[483.42,412.04],[483.8,412.56],[484.11,412.46],[484.78,412.03]]]}},{"type":"Feature","id":"93066","properties":{"code":"93066","name":"Saint-Denis","departmentCode":"93","rounds":{"1":{"code":"93066","name":"Saint-Denis","departmentCode":"93","registered":47382,"voters":31325,"expressed":30726,"blank":400,"invalid":199,"turnout":66.1116035625343,"abstention":33.88839643746571,"winnerId":"MELENCHON","runnerUpId":"MACRON","margin":44.91635748226258,"top":[{"id":"MELENCHON","name":"Jean-Luc Mélenchon","shortName":"Mélenchon","votes":18784,"share":61.133893119833374},{"id":"MACRON","name":"Emmanuel Macron","shortName":"Macron","votes":4983,"share":16.217535637570787},{"id":"LE_PEN","name":"Marine Le Pen","shortName":"Le Pen","votes":2546,"share":8.28614202955152}]},"2":{"code":"93066","name":"Saint-Denis","departmentCode":"93","registered":47386,"voters":26547,"expressed":24037,"blank":2006,"invalid":504,"turnout":56.02287595492339,"abstention":43.97712404507661,"winnerId":"MACRON","runnerUpId":"LE_PEN","margin":58.18945791904147,"top":[{"id":"MACRON","name":"Emmanuel Macron","shortName":"Macron","votes":19012,"share":79.09472895952075},{"id":"LE_PEN","name":"Marine Le Pen","shortName":"Le Pen","votes":5025,"share":20.905271040479263}]}}},"geometry":{"type":"Polygon","coordinates":[[[479.76,415.27],[479.95,415.46],[480.53,415.31],[481.37,415.36],[480.65,414.23],[480.36,413.2],[479.93,413.15],[479.35,414.19],[479.63,414.85],[479.51,415.13],[479.76,415.27]]]}},{"type":"Feature","id":"93070","properties":{"code":"93070","name":"Saint-Ouen-sur-Seine","departmentCode":"93","rounds":{"1":{"code":"93070","name":"Saint-Ouen-sur-Seine","departmentCode":"93","registered":26748,"voters":19697,"expressed":19375,"blank":218,"invalid":104,"turnout":73.63915059069836,"abstention":26.36084940930163,"winnerId":"MELENCHON","runnerUpId":"MACRON","margin":30.49806451612903,"top":[{"id":"MELENCHON","name":"Jean-Luc Mélenchon","shortName":"Mélenchon","votes":10040,"share":51.81935483870967},{"id":"MACRON","name":"Emmanuel Macron","shortName":"Macron","votes":4131,"share":21.321290322580644},{"id":"LE_PEN","name":"Marine Le Pen","shortName":"Le Pen","votes":1389,"share":7.169032258064516}]},"2":{"code":"93070","name":"Saint-Ouen-sur-Seine","departmentCode":"93","registered":26748,"voters":17676,"expressed":16207,"blank":1137,"invalid":332,"turnout":66.08344549125168,"abstention":33.91655450874832,"winnerId":"MACRON","runnerUpId":"LE_PEN","margin":64.6819275621645,"top":[{"id":"MACRON","name":"Emmanuel Macron","shortName":"Macron","votes":13345,"share":82.34096378108224},{"id":"LE_PEN","name":"Marine Le Pen","shortName":"Le Pen","votes":2862,"share":17.659036218917752}]}}},"geometry":{"type":"Polygon","coordinates":[[[478.76,413.77],[478.94,413.87],[479.35,414.19],[479.93,413.15],[479.25,413.16],[478.94,413.11],[478.76,413.77]]]}},{"type":"Feature","id":"93071","properties":{"code":"93071","name":"Sevran","departmentCode":"93","rounds":{"1":{"code":"93071","name":"Sevran","departmentCode":"93","registered":22838,"voters":15473,"expressed":15161,"blank":201,"invalid":111,"turnout":67.7511165601191,"abstention":32.2488834398809,"winnerId":"MELENCHON","runnerUpId":"MACRON","margin":36.09920189961085,"top":[{"id":"MELENCHON","name":"Jean-Luc Mélenchon","shortName":"Mélenchon","votes":8319,"share":54.87105072224787},{"id":"MACRON","name":"Emmanuel Macron","shortName":"Macron","votes":2846,"share":18.77184882263703},{"id":"LE_PEN","name":"Marine Le Pen","shortName":"Le Pen","votes":1823,"share":12.02427280522393}]},"2":{"code":"93071","name":"Sevran","departmentCode":"93","registered":22855,"voters":12919,"expressed":11768,"blank":895,"invalid":256,"turnout":56.52592430540363,"abstention":43.47407569459637,"winnerId":"MACRON","runnerUpId":"LE_PEN","margin":44.08565601631543,"top":[{"id":"MACRON","name":"Emmanuel Macron","shortName":"Macron","votes":8478,"share":72.04282800815771},{"id":"LE_PEN","name":"Marine Le Pen","shortName":"Le Pen","votes":3290,"share":27.957171991842284}]}}},"geometry":{"type":"Polygon","coordinates":[[[486.29,414.71],[486.29,414.66],[485.08,414.25],[485.27,415.47],[486.29,414.71]]]}},{"type":"Feature","id":"93072","properties":{"code":"93072","name":"Stains","departmentCode":"93","rounds":{"1":{"code":"93072","name":"Stains","departmentCode":"93","registered":17196,"voters":10480,"expressed":10222,"blank":258,"invalid":0,"turnout":60.944405675738544,"abstention":39.055594324261456,"winnerId":"MELENCHON","runnerUpId":"MACRON","margin":44.27704950107611,"top":[{"id":"MELENCHON","name":"Jean-Luc Mélenchon","shortName":"Mélenchon","votes":6154,"share":60.20348268440618},{"id":"MACRON","name":"Emmanuel Macron","shortName":"Macron","votes":1628,"share":15.926433183330072},{"id":"LE_PEN","name":"Marine Le Pen","shortName":"Le Pen","votes":1240,"share":12.13069849344551}]},"2":{"code":"93072","name":"Stains","departmentCode":"93","registered":17208,"voters":8752,"expressed":7765,"blank":987,"invalid":0,"turnout":50.860065086006514,"abstention":49.13993491399349,"winnerId":"MACRON","runnerUpId":"LE_PEN","margin":43.026400515132,"top":[{"id":"MACRON","name":"Emmanuel Macron","shortName":"Macron","votes":5553,"share":71.513200257566},{"id":"LE_PEN","name":"Marine Le Pen","shortName":"Le Pen","votes":2212,"share":28.486799742434}]}}},"geometry":{"type":"Polygon","coordinates":[[[480.7,416.49],[480.88,416.44],[481.65,415.73],[481.56,415.54],[481.37,415.36],[480.53,415.31],[480.7,416.49]]]}},{"type":"Feature","id":"93073","properties":{"code":"93073","name":"Tremblay-en-France","departmentCode":"93","rounds":{"1":{"code":"93073","name":"Tremblay-en-France","departmentCode":"93","registered":20746,"voters":14325,"expressed":14026,"blank":213,"invalid":86,"turnout":69.04945531668756,"abstention":30.950544683312447,"winnerId":"MELENCHON","runnerUpId":"MACRON","margin":32.38271780978184,"top":[{"id":"MELENCHON","name":"Jean-Luc Mélenchon","shortName":"Mélenchon","votes":6940,"share":49.479538000855555},{"id":"MACRON","name":"Emmanuel Macron","shortName":"Macron","votes":2398,"share":17.096820191073718},{"id":"LE_PEN","name":"Marine Le Pen","shortName":"Le Pen","votes":2270,"share":16.18422928846428}]},"2":{"code":"93073","name":"Tremblay-en-France","departmentCode":"93","registered":20758,"voters":12204,"expressed":10962,"blank":945,"invalid":297,"turnout":58.791791116677906,"abstention":41.208208883322094,"winnerId":"MACRON","runnerUpId":"LE_PEN","margin":31.70954205436964,"top":[{"id":"MACRON","name":"Emmanuel Macron","shortName":"Macron","votes":7219,"share":65.85477102718482},{"id":"LE_PEN","name":"Marine Le Pen","shortName":"Le Pen","votes":3743,"share":34.145228972815175}]}}},"geometry":{"type":"Polygon","coordinates":[[[484.53,416.61],[484.6,416.79],[485.53,418.01],[486.18,418.24],[486.59,418.34],[486.89,417.77],[487.34,415.41],[487.5,414.89],[486.66,415.08],[486.08,416.41],[484.53,416.61]]]}},{"type":"Feature","id":"93074","properties":{"code":"93074","name":"Vaujours","departmentCode":"93","rounds":{"1":{"code":"93074","name":"Vaujours","departmentCode":"93","registered":3953,"voters":2770,"expressed":2722,"blank":28,"invalid":20,"turnout":70.07336200354162,"abstention":29.92663799645839,"winnerId":"MELENCHON","runnerUpId":"LE_PEN","margin":12.086700955180014,"top":[{"id":"MELENCHON","name":"Jean-Luc Mélenchon","shortName":"Mélenchon","votes":957,"share":35.157972079353414},{"id":"LE_PEN","name":"Marine Le Pen","shortName":"Le Pen","votes":628,"share":23.0712711241734},{"id":"MACRON","name":"Emmanuel Macron","shortName":"Macron","votes":511,"share":18.772961058045553}]},"2":{"code":"93074","name":"Vaujours","departmentCode":"93","registered":3953,"voters":2506,"expressed":2290,"blank":169,"invalid":47,"turnout":63.39488995699468,"abstention":36.60511004300531,"winnerId":"MACRON","runnerUpId":"LE_PEN","margin":14.148471615720522,"top":[{"id":"MACRON","name":"Emmanuel Macron","shortName":"Macron","votes":1307,"share":57.07423580786026},{"id":"LE_PEN","name":"Marine Le Pen","shortName":"Le Pen","votes":983,"share":42.92576419213974}]}}},"geometry":{"type":"Polygon","coordinates":[[[486.29,414.66],[486.29,414.71],[486.66,415.08],[487.5,414.89],[487.71,414.42],[487.4,414.23],[486.5,414.38],[486.29,414.66]]]}},{"type":"Feature","id":"93077","properties":{"code":"93077","name":"Villemomble","departmentCode":"93","rounds":{"1":{"code":"93077","name":"Villemomble","departmentCode":"93","registered":15573,"voters":12024,"expressed":11779,"blank":180,"invalid":65,"turnout":77.21055673280678,"abstention":22.789443267193217,"winnerId":"MELENCHON","runnerUpId":"MACRON","margin":4.43161558706172,"top":[{"id":"MELENCHON","name":"Jean-Luc Mélenchon","shortName":"Mélenchon","votes":3704,"share":31.445793361066304},{"id":"MACRON","name":"Emmanuel Macron","shortName":"Macron","votes":3182,"share":27.014177774004583},{"id":"LE_PEN","name":"Marine Le Pen","shortName":"Le Pen","votes":1769,"share":15.018252822820275}]},"2":{"code":"93077","name":"Villemomble","departmentCode":"93","registered":15583,"voters":11109,"expressed":10099,"blank":766,"invalid":244,"turnout":71.2892254379773,"abstention":28.710774562022717,"winnerId":"MACRON","runnerUpId":"LE_PEN","margin":37.162095256956135,"top":[{"id":"MACRON","name":"Emmanuel Macron","shortName":"Macron","votes":6926,"share":68.58104762847806},{"id":"LE_PEN","name":"Marine Le Pen","shortName":"Le Pen","votes":3173,"share":31.418952371521936}]}}},"geometry":{"type":"Polygon","coordinates":[[[484.51,412.88],[484.76,413.02],[485.07,412.64],[485.43,411.84],[485.12,411.89],[484.78,412.03],[484.11,412.46],[484.51,412.88]]]}},{"type":"Feature","id":"93078","properties":{"code":"93078","name":"Villepinte","departmentCode":"93","rounds":{"1":{"code":"93078","name":"Villepinte","departmentCode":"93","registered":19394,"voters":13086,"expressed":12783,"blank":191,"invalid":112,"turnout":67.4744766422605,"abstention":32.5255233577395,"winnerId":"MELENCHON","runnerUpId":"MACRON","margin":35.1013064225925,"top":[{"id":"MELENCHON","name":"Jean-Luc Mélenchon","shortName":"Mélenchon","votes":6929,"share":54.204803254322144},{"id":"MACRON","name":"Emmanuel Macron","shortName":"Macron","votes":2442,"share":19.10349683172964},{"id":"LE_PEN","name":"Marine Le Pen","shortName":"Le Pen","votes":1677,"share":13.118986153485098}]},"2":{"code":"93078","name":"Villepinte","departmentCode":"93","registered":19404,"voters":11025,"expressed":10051,"blank":725,"invalid":249,"turnout":56.81818181818182,"abstention":43.18181818181818,"winnerId":"MACRON","runnerUpId":"LE_PEN","margin":40.78201174012536,"top":[{"id":"MACRON","name":"Emmanuel Macron","shortName":"Macron","votes":7075,"share":70.39100587006268},{"id":"LE_PEN","name":"Marine Le Pen","shortName":"Le Pen","votes":2976,"share":29.608994129937322}]}}},"geometry":{"type":"Polygon","coordinates":[[[484.41,416.51],[484.53,416.61],[486.08,416.41],[486.66,415.08],[486.29,414.71],[485.27,415.47],[484.41,416.51]]]}},{"type":"Feature","id":"93079","properties":{"code":"93079","name":"Villetaneuse","departmentCode":"93","rounds":{"1":{"code":"93079","name":"Villetaneuse","departmentCode":"93","registered":6003,"voters":4008,"expressed":3906,"blank":59,"invalid":43,"turnout":66.76661669165416,"abstention":33.23338330834583,"winnerId":"MELENCHON","runnerUpId":"MACRON","margin":49.41116231438812,"top":[{"id":"MELENCHON","name":"Jean-Luc Mélenchon","shortName":"Mélenchon","votes":2554,"share":65.38658474142345},{"id":"MACRON","name":"Emmanuel Macron","shortName":"Macron","votes":624,"share":15.97542242703533},{"id":"LE_PEN","name":"Marine Le Pen","shortName":"Le Pen","votes":339,"share":8.678955453149001}]},"2":{"code":"93079","name":"Villetaneuse","departmentCode":"93","registered":6008,"voters":3301,"expressed":2965,"blank":255,"invalid":81,"turnout":54.94340878828229,"abstention":45.05659121171771,"winnerId":"MACRON","runnerUpId":"LE_PEN","margin":54.940978077571664,"top":[{"id":"MACRON","name":"Emmanuel Macron","shortName":"Macron","votes":2297,"share":77.47048903878584},{"id":"LE_PEN","name":"Marine Le Pen","shortName":"Le Pen","votes":668,"share":22.529510961214168}]}}},"geometry":{"type":"Polygon","coordinates":[[[479.95,415.46],[479.76,415.27],[479.36,415.7],[479.98,416.21],[479.95,415.46]]]}}]}