{"type":"FeatureCollection","features":[{"type":"Feature","id":"94001","properties":{"code":"94001","name":"Ablon-sur-Seine","departmentCode":"94","rounds":{"1":{"code":"94001","name":"Ablon-sur-Seine","departmentCode":"94","registered":3121,"voters":2413,"expressed":2362,"blank":26,"invalid":25,"turnout":77.31496315283563,"abstention":22.68503684716437,"winnerId":"MELENCHON","runnerUpId":"MACRON","margin":3.0059271803556307,"top":[{"id":"MELENCHON","name":"Jean-Luc Mélenchon","shortName":"Mélenchon","votes":655,"share":27.7307366638442},{"id":"MACRON","name":"Emmanuel Macron","shortName":"Macron","votes":584,"share":24.72480948348857},{"id":"LE_PEN","name":"Marine Le Pen","shortName":"Le Pen","votes":518,"share":21.93056731583404}]},"2":{"code":"94001","name":"Ablon-sur-Seine","departmentCode":"94","registered":3123,"voters":2224,"expressed":2019,"blank":178,"invalid":27,"turnout":71.21357668908101,"abstention":28.78642331091899,"winnerId":"MACRON","runnerUpId":"LE_PEN","margin":18.17731550272412,"top":[{"id":"MACRON","name":"Emmanuel Macron","shortName":"Macron","votes":1193,"share":59.088657751362064},{"id":"LE_PEN","name":"Marine Le Pen","shortName":"Le Pen","votes":826,"share":40.911342248637936}]}}},"geometry":{"type":"Polygon","coordinates":[[[482.44,404.79],[481.78,404.51],[481.69,404.89],[482.44,404.79]]]}},{"type":"Feature","id":"94002","properties":{"code":"94002","name":"Alfortville","departmentCode":"94","rounds":{"1":{"code":"94002","name":"Alfortville","departmentCode":"94","registered":23940,"voters":18552,"expressed":18145,"blank":294,"invalid":113,"turnout":77.4937343358396,"abstention":22.506265664160402,"winnerId":"MELENCHON","runnerUpId":"MACRON","margin":12.68117938826123,"top":[{"id":"MELENCHON","name":"Jean-Luc Mélenchon","shortName":"Mélenchon","votes":6786,"share":37.39873243317719},{"id":"MACRON","name":"Emmanuel Macron","shortName":"Macron","votes":4485,"share":24.717553044915956},{"id":"LE_PEN","name":"Marine Le Pen","shortName":"Le Pen","votes":2330,"share":12.841003031138055}]},"2":{"code":"94002","name":"Alfortville","departmentCode":"94","registered":23984,"voters":17083,"expressed":15420,"blank":1294,"invalid":369,"turnout":71.22665110073382,"abstention":28.77334889926618,"winnerId":"MACRON","runnerUpId":"LE_PEN","margin":44.78599221789884,"top":[{"id":"MACRON","name":"Emmanuel Macron","shortName":"Macron","votes":11163,"share":72.39299610894942},{"id":"LE_PEN","name":"Marine Le Pen","shortName":"Le Pen","votes":4257,"share":27.607003891050585}]}}},"geometry":{"type":"Polygon","coordinates":[[[481.66,409.18],[481.88,409.13],[482.4,407.76],[482.24,407.24],[481.84,407.29],[481.66,408.8],[481.66,409.18]]]}},{"type":"Feature","id":"94003","properties":{"code":"94003","name":"Arcueil","departmentCode":"94","rounds":{"1":{"code":"94003","name":"Arcueil","departmentCode":"94","registered":12682,"voters":9241,"expressed":9034,"blank":207,"invalid":0,"turnout":72.86705566945277,"abstention":27.132944330547232,"winnerId":"MELENCHON","runnerUpId":"MACRON","margin":17.58910781492141,"top":[{"id":"MELENCHON","name":"Jean-Luc Mélenchon","shortName":"Mélenchon","votes":3760,"share":41.620544609253926},{"id":"MACRON","name":"Emmanuel Macron","shortName":"Macron","votes":2171,"share":24.03143679433252},{"id":"LE_PEN","name":"Marine Le Pen","shortName":"Le Pen","votes":926,"share":10.250166039406686}]},"2":{"code":"94003","name":"Arcueil","departmentCode":"94","registered":12690,"voters":8268,"expressed":7432,"blank":836,"invalid":0,"turnout":65.15366430260048,"abstention":34.846335697399525,"winnerId":"MACRON","runnerUpId":"LE_PEN","margin":53.22927879440258,"top":[{"id":"MACRON","name":"Emmanuel Macron","shortName":"Macron","votes":5694,"share":76.61463939720129},{"id":"LE_PEN","name":"Marine Le Pen","shortName":"Le Pen","votes":1738,"share":23.38536060279871}]}}},"geometry":{"type":"Polygon","coordinates":[[[479.77,408.49],[479.64,408.3],[479.02,408.49],[478.87,408.87],[479.18,409.06],[479.67,408.63],[479.77,408.49]]]}},{"type":"Feature","id":"94004","properties":{"code":"94004","name":"Boissy-Saint-Léger","departmentCode":"94","rounds":{"1":{"code":"94004","name":"Boissy-Saint-Léger","departmentCode":"94","registered":8869,"voters":6349,"expressed":6199,"blank":98,"invalid":52,"turnout":71.58642462509866,"abstention":28.413575374901338,"winnerId":"MELENCHON","runnerUpId":"MACRON","margin":13.37312469753186,"top":[{"id":"MELENCHON","name":"Jean-Luc Mélenchon","shortName":"Mélenchon","votes":2348,"share":37.87707694789482},{"id":"MACRON","name":"Emmanuel Macron","shortName":"Macron","votes":1519,"share":24.50395225036296},{"id":"LE_PEN","name":"Marine Le Pen","shortName":"Le Pen","votes":970,"share":15.647685110501694}]},"2":{"code":"94004","name":"Boissy-Saint-Léger","departmentCode":"94","registered":8875,"voters":5757,"expressed":5216,"blank":395,"invalid":146,"turnout":64.86760563380281,"abstention":35.13239436619718,"winnerId":"MACRON","runnerUpId":"LE_PEN","margin":36.6180981595092,"top":[{"id":"MACRON","name":"Emmanuel Macron","shortName":"Macron","votes":3563,"share":68.3090490797546},{"id":"LE_PEN","name":"Marine Le Pen","shortName":"Le Pen","votes":1653,"share":31.6909509202454}]}}},"geometry":{"type":"Polygon","coordinates":[[[484.25,406.43],[484.47,406.62],[486.24,406.23],[485.61,404.96],[484.99,405.48],[484.25,406.43]]]}},{"type":"Feature","id":"94011","properties":{"code":"94011","name":"Bonneuil-sur-Marne","departmentCode":"94","rounds":{"1":{"code":"94011","name":"Bonneuil-sur-Marne","departmentCode":"94","registered":9414,"voters":6527,"expressed":6362,"blank":94,"invalid":71,"turnout":69.33290843424686,"abstention":30.667091565753136,"winnerId":"MELENCHON","runnerUpId":"MACRON","margin":22.91732159698208,"top":[{"id":"MELENCHON","name":"Jean-Luc Mélenchon","shortName":"Mélenchon","votes":2763,"share":43.42973907576234},{"id":"MACRON","name":"Emmanuel Macron","shortName":"Macron","votes":1305,"share":20.512417478780257},{"id":"LE_PEN","name":"Marine Le Pen","shortName":"Le Pen","votes":836,"share":13.140521848475323}]},"2":{"code":"94011","name":"Bonneuil-sur-Marne","departmentCode":"94","registered":9425,"voters":5649,"expressed":5083,"blank":406,"invalid":160,"turnout":59.93633952254642,"abstention":40.06366047745358,"winnerId":"MACRON","runnerUpId":"LE_PEN","margin":40.31084005508558,"top":[{"id":"MACRON","name":"Emmanuel Macron","shortName":"Macron","votes":3566,"share":70.15542002754279},{"id":"LE_PEN","name":"Marine Le Pen","shortName":"Le Pen","votes":1517,"share":29.844579972457208}]}}},"geometry":{"type":"Polygon","coordinates":[[[484.85,407.65],[484.47,406.62],[484.25,406.43],[483.66,406.57],[483.7,407.8],[484.85,407.65]]]}},{"type":"Feature","id":"94015","properties":{"code":"94015","name":"Bry-sur-Marne","departmentCode":"94","rounds":{"1":{"code":"94015","name":"Bry-sur-Marne","departmentCode":"94","registered":11224,"voters":8971,"expressed":8756,"blank":215,"invalid":0,"turnout":79.92694226657163,"abstention":20.073057733428367,"winnerId":"MACRON","runnerUpId":"MELENCHON","margin":18.079031521242577,"top":[{"id":"MACRON","name":"Emmanuel Macron","shortName":"Macron","votes":3348,"share":38.236637734125175},{"id":"MELENCHON","name":"Jean-Luc Mélenchon","shortName":"Mélenchon","votes":1765,"share":20.157606212882595},{"id":"LE_PEN","name":"Marine Le Pen","shortName":"Le Pen","votes":1063,"share":12.140246687985382}]},"2":{"code":"94015","name":"Bry-sur-Marne","departmentCode":"94","registered":11229,"voters":8436,"expressed":7820,"blank":616,"invalid":0,"turnout":75.1269035532995,"abstention":24.873096446700508,"winnerId":"MACRON","runnerUpId":"LE_PEN","margin":50.53708439897699,"top":[{"id":"MACRON","name":"Emmanuel Macron","shortName":"Macron","votes":5886,"share":75.26854219948848},{"id":"LE_PEN","name":"Marine Le Pen","shortName":"Le Pen","votes":1934,"share":24.731457800511507}]}}},"geometry":{"type":"Polygon","coordinates":[[[484.99,410.76],[485.64,410.19],[485.27,409.63],[484.65,409.77],[484.93,410.71],[484.99,410.76]]]}},{"type":"Feature","id":"94016","properties":{"code":"94016","name":"Cachan","departmentCode":"94","rounds":{"1":{"code":"94016","name":"Cachan","departmentCode":"94","registered":17026,"voters":13102,"expressed":12862,"blank":180,"invalid":60,"turnout":76.95289557147892,"abstention":23.047104428521084,"winnerId":"MELENCHON","runnerUpId":"MACRON","margin":10.690405846680143,"top":[{"id":"MELENCHON","name":"Jean-Luc Mélenchon","shortName":"Mélenchon","votes":4988,"share":38.78090499144767},{"id":"MACRON","name":"Emmanuel Macron","shortName":"Macron","votes":3613,"share":28.090499144767534},{"id":"LE_PEN","name":"Marine Le Pen","shortName":"Le Pen","votes":1083,"share":8.420152386876069}]},"2":{"code":"94016","name":"Cachan","departmentCode":"94","registered":17034,"voters":12003,"expressed":11003,"blank":770,"invalid":230,"turnout":70.46495244804508,"abstention":29.535047551954914,"winnerId":"MACRON","runnerUpId":"LE_PEN","margin":62.06489139325638,"top":[{"id":"MACRON","name":"Emmanuel Macron","shortName":"Macron","votes":8916,"share":81.0324456966282},{"id":"LE_PEN","name":"Marine Le Pen","shortName":"Le Pen","votes":2087,"share":18.96755430337181}]}}},"geometry":{"type":"Polygon","coordinates":[[[479.08,407.55],[478.86,407.84],[479.02,408.49],[479.64,408.3],[479.64,407.97],[479.08,407.55]]]}},{"type":"Feature","id":"94017","properties":{"code":"94017","name":"Champigny-sur-Marne","departmentCode":"94","rounds":{"1":{"code":"94017","name":"Champigny-sur-Marne","departmentCode":"94","registered":42977,"voters":30159,"expressed":29569,"blank":403,"invalid":187,"turnout":70.17474463084906,"abstention":29.825255369150945,"winnerId":"MELENCHON","runnerUpId":"MACRON","margin":16.324529067604583,"top":[{"id":"MELENCHON","name":"Jean-Luc Mélenchon","shortName":"Mélenchon","votes":11844,"share":40.05546349217086},{"id":"MACRON","name":"Emmanuel Macron","shortName":"Macron","votes":7017,"share":23.730934424566268},{"id":"LE_PEN","name":"Marine Le Pen","shortName":"Le Pen","votes":3803,"share":12.861442727180494}]},"2":{"code":"94017","name":"Champigny-sur-Marne","departmentCode":"94","registered":42993,"voters":26950,"expressed":24547,"blank":1841,"invalid":562,"turnout":62.68462307817552,"abstention":37.31537692182448,"winnerId":"MACRON","runnerUpId":"LE_PEN","margin":43.56133132358333,"top":[{"id":"MACRON","name":"Emmanuel Macron","shortName":"Macron","votes":17620,"share":71.78066566179166},{"id":"LE_PEN","name":"Marine Le Pen","shortName":"Le Pen","votes":6927,"share":28.219334338208334}]}}},"geometry":{"type":"Polygon","coordinates":[[[484.43,409.82],[484.65,409.77],[485.27,409.63],[486.26,409.24],[486.28,408.73],[485.17,408.54],[483.87,408.98],[483.75,409.83],[484.43,409.82]]]}},{"type":"Feature","id":"94018","properties":{"code":"94018","name":"Charenton-le-Pont","departmentCode":"94","rounds":{"1":{"code":"94018","name":"Charenton-le-Pont","departmentCode":"94","registered":19864,"voters":15821,"expressed":15555,"blank":208,"invalid":58,"turnout":79.64659685863874,"abstention":20.353403141361255,"winnerId":"MACRON","runnerUpId":"MELENCHON","margin":11.295403407264546,"top":[{"id":"MACRON","name":"Emmanuel Macron","shortName":"Macron","votes":5400,"share":34.71552555448409},{"id":"MELENCHON","name":"Jean-Luc Mélenchon","shortName":"Mélenchon","votes":3643,"share":23.420122147219544},{"id":"ZEMMOUR","name":"Éric Zemmour","shortName":"Zemmour","votes":1926,"share":12.381870781099325}]},"2":{"code":"94018","name":"Charenton-le-Pont","departmentCode":"94","registered":19874,"voters":14834,"expressed":13708,"blank":887,"invalid":239,"turnout":74.64023347086646,"abstention":25.359766529133545,"winnerId":"MACRON","runnerUpId":"LE_PEN","margin":58.75401225561716,"top":[{"id":"MACRON","name":"Emmanuel Macron","shortName":"Macron","votes":10881,"share":79.37700612780858},{"id":"LE_PEN","name":"Marine Le Pen","shortName":"Le Pen","votes":2827,"share":20.622993872191422}]}}},"geometry":{"type":"Polygon","coordinates":[[[481.88,409.13],[481.66,409.18],[481.08,409.61],[482.01,409.51],[482.01,409.18],[481.88,409.13]]]}},{"type":"Feature","id":"94019","properties":{"code":"94019","name":"Chennevières-sur-Marne","departmentCode":"94","rounds":{"1":{"code":"94019","name":"Chennevières-sur-Marne","departmentCode":"94","registered":10715,"voters":7968,"expressed":7810,"blank":109,"invalid":49,"turnout":74.36304246383575,"abstention":25.636957536164257,"winnerId":"MACRON","runnerUpId":"MELENCHON","margin":0.3713188220230474,"top":[{"id":"MACRON","name":"Emmanuel Macron","shortName":"Macron","votes":2261,"share":28.950064020486554},{"id":"MELENCHON","name":"Jean-Luc Mélenchon","shortName":"Mélenchon","votes":2232,"share":28.57874519846351},{"id":"LE_PEN","name":"Marine Le Pen","shortName":"Le Pen","votes":1356,"share":17.36235595390525}]},"2":{"code":"94019","name":"Chennevières-sur-Marne","departmentCode":"94","registered":10717,"voters":7293,"expressed":6686,"blank":474,"invalid":133,"turnout":68.05076047401325,"abstention":31.94923952598675,"winnerId":"MACRON","runnerUpId":"LE_PEN","margin":32.0071791803769,"top":[{"id":"MACRON","name":"Emmanuel Macron","shortName":"Macron","votes":4413,"share":66.00358959018845},{"id":"LE_PEN","name":"Marine Le Pen","shortName":"Le Pen","votes":2273,"share":33.996410409811546}]}}},"geometry":{"type":"Polygon","coordinates":[[[486.72,408.3],[486.19,407.97],[485.04,407.65],[485.01,407.7],[485.17,408.54],[486.28,408.73],[486.72,408.3]]]}},{"type":"Feature","id":"94021","properties":{"code":"94021","name":"Chevilly-Larue","departmentCode":"94","rounds":{"1":{"code":"94021","name":"Chevilly-Larue","departmentCode":"94","registered":10876,"voters":7735,"expressed":7571,"blank":118,"invalid":46,"turnout":71.11989702096359,"abstention":28.88010297903641,"winnerId":"MELENCHON","runnerUpId":"MACRON","margin":11.861048738607845,"top":[{"id":"MELENCHON","name":"Jean-Luc Mélenchon","shortName":"Mélenchon","votes":2820,"share":37.24739136177519},{"id":"MACRON","name":"Emmanuel Macron","shortName":"Macron","votes":1922,"share":25.38634262316735},{"id":"LE_PEN","name":"Marine Le Pen","shortName":"Le Pen","votes":1069,"share":14.11966715097081}]},"2":{"code":"94021","name":"Chevilly-Larue","departmentCode":"94","registered":10881,"voters":6967,"expressed":6338,"blank":468,"invalid":161,"turnout":64.02904144839628,"abstention":35.970958551603715,"winnerId":"MACRON","runnerUpId":"LE_PEN","margin":42.253076680340804,"top":[{"id":"MACRON","name":"Emmanuel Macron","shortName":"Macron","votes":4508,"share":71.1265383401704},{"id":"LE_PEN","name":"Marine Le Pen","shortName":"Le Pen","votes":1830,"share":28.873461659829598}]}}},"geometry":{"type":"Polygon","coordinates":[[[480.35,407.4],[480.38,407.07],[480.4,406.36],[479.62,406.32],[479.29,406.75],[480.35,407.4]]]}},{"type":"Feature","id":"94022","properties":{"code":"94022","name":"Choisy-le-Roi","departmentCode":"94","rounds":{"1":{"code":"94022","name":"Choisy-le-Roi","departmentCode":"94","registered":20592,"voters":15713,"expressed":15405,"blank":219,"invalid":89,"turnout":76.30633255633256,"abstention":23.693667443667444,"winnerId":"MELENCHON","runnerUpId":"MACRON","margin":21.038623823433948,"top":[{"id":"MELENCHON","name":"Jean-Luc Mélenchon","shortName":"Mélenchon","votes":6660,"share":43.23271665043817},{"id":"MACRON","name":"Emmanuel Macron","shortName":"Macron","votes":3419,"share":22.19409282700422},{"id":"LE_PEN","name":"Marine Le Pen","shortName":"Le Pen","votes":1813,"share":11.768906199285945}]},"2":{"code":"94022","name":"Choisy-le-Roi","departmentCode":"94","registered":20596,"voters":13949,"expressed":12528,"blank":1110,"invalid":311,"turnout":67.72674305690425,"abstention":32.273256943095745,"winnerId":"MACRON","runnerUpId":"LE_PEN","margin":46.42401021711366,"top":[{"id":"MACRON","name":"Emmanuel Macron","shortName":"Macron","votes":9172,"share":73.21200510855684},{"id":"LE_PEN","name":"Marine Le Pen","shortName":"Le Pen","votes":3356,"share":26.78799489144317}]}}},"geometry":{"type":"Polygon","coordinates":[[[482.67,406.58],[482.2,406.07],[481.55,406.07],[481.34,407.2],[481.84,407.29],[482.24,407.24],[482.45,406.82],[482.67,406.58]]]}},{"type":"Feature","id":"94028","properties":{"code":"94028","name":"Créteil","departmentCode":"94","rounds":{"1":{"code":"94028","name":"Créteil","departmentCode":"94","registered":46556,"voters":34128,"expressed":33403,"blank":485,"invalid":240,"turnout":73.30526677549618,"abstention":26.694733224503825,"winnerId":"MELENCHON","runnerUpId":"MACRON","margin":14.405891686375474,"top":[{"id":"MELENCHON","name":"Jean-Luc Mélenchon","shortName":"Mélenchon","votes":13513,"share":40.454450199083915},{"id":"MACRON","name":"Emmanuel Macron","shortName":"Macron","votes":8701,"share":26.048558512708443},{"id":"LE_PEN","name":"Marine Le Pen","shortName":"Le Pen","votes":3603,"share":10.786456306319792}]},"2":{"code":"94028","name":"Créteil","departmentCode":"94","registered":46598,"voters":30617,"expressed":27813,"blank":2150,"invalid":654,"turnout":65.7045366753938,"abstention":34.29546332460621,"winnerId":"MACRON","runnerUpId":"LE_PEN","margin":51.073239132779634,"top":[{"id":"MACRON","name":"Emmanuel Macron","shortName":"Macron","votes":21009,"share":75.53661956638982},{"id":"LE_PEN","name":"Marine Le Pen","shortName":"Le Pen","votes":6804,"share":24.463380433610183}]}}},"geometry":{"type":"Polygon","coordinates":[[[483.66,406.57],[483.48,406.58],[482.45,406.82],[482.24,407.24],[482.4,407.76],[483.37,408.7],[483.7,407.8],[483.66,406.57]]]}},{"type":"Feature","id":"94033","properties":{"code":"94033","name":"Fontenay-sous-Bois","departmentCode":"94","rounds":{"1":{"code":"94033","name":"Fontenay-sous-Bois","departmentCode":"94","registered":33361,"voters":25100,"expressed":24659,"blank":307,"invalid":134,"turnout":75.23755283115014,"abstention":24.762447168849853,"winnerId":"MELENCHON","runnerUpId":"MACRON","margin":8.199845898049393,"top":[{"id":"MELENCHON","name":"Jean-Luc Mélenchon","shortName":"Mélenchon","votes":8941,"share":36.258566851859364},{"id":"MACRON","name":"Emmanuel Macron","shortName":"Macron","votes":6919,"share":28.058720953809967},{"id":"LE_PEN","name":"Marine Le Pen","shortName":"Le Pen","votes":2215,"share":8.982521594549658}]},"2":{"code":"94033","name":"Fontenay-sous-Bois","departmentCode":"94","registered":33371,"voters":22899,"expressed":21021,"blank":1427,"invalid":451,"turnout":68.61946001018848,"abstention":31.380539989811513,"winnerId":"MACRON","runnerUpId":"LE_PEN","margin":59.40250225964512,"top":[{"id":"MACRON","name":"Emmanuel Macron","shortName":"Macron","votes":16754,"share":79.70125112982257},{"id":"LE_PEN","name":"Marine Le Pen","shortName":"Le Pen","votes":4267,"share":20.29874887017744}]}}},"geometry":{"type":"Polygon","coordinates":[[[484.38,411.23],[484.5,411],[484.25,410.62],[483.47,410.2],[482.88,410.49],[482.85,410.77],[483.94,411.24],[484.38,411.23]]]}},{"type":"Feature","id":"94034","properties":{"code":"94034","name":"Fresnes","departmentCode":"94","rounds":{"1":{"code":"94034","name":"Fresnes","departmentCode":"94","registered":14916,"voters":10554,"expressed":10364,"blank":150,"invalid":40,"turnout":70.75623491552695,"abstention":29.24376508447305,"winnerId":"MELENCHON","runnerUpId":"MACRON","margin":8.818988807410266,"top":[{"id":"MELENCHON","name":"Jean-Luc Mélenchon","shortName":"Mélenchon","votes":3824,"share":36.896950984175994},{"id":"MACRON","name":"Emmanuel Macron","shortName":"Macron","votes":2910,"share":28.077962176765723},{"id":"LE_PEN","name":"Marine Le Pen","shortName":"Le Pen","votes":1169,"share":11.279428791972212}]},"2":{"code":"94034","name":"Fresnes","departmentCode":"94","registered":14926,"voters":9717,"expressed":8835,"blank":717,"invalid":165,"turnout":65.10116575103847,"abstention":34.89883424896154,"winnerId":"MACRON","runnerUpId":"LE_PEN","margin":50.08488964346349,"top":[{"id":"MACRON","name":"Emmanuel Macron","shortName":"Macron","votes":6630,"share":75.04244482173175},{"id":"LE_PEN","name":"Marine Le Pen","shortName":"Le Pen","votes":2205,"share":24.95755517826825}]}}},"geometry":{"type":"Polygon","coordinates":[[[479.22,405.95],[478.91,406],[478.76,406.85],[479.29,406.75],[479.62,406.32],[479.22,405.95]]]}},{"type":"Feature","id":"94037","properties":{"code":"94037","name":"Gentilly","departmentCode":"94","rounds":{"1":{"code":"94037","name":"Gentilly","departmentCode":"94","registered":9968,"voters":7589,"expressed":7433,"blank":98,"invalid":58,"turnout":76.13362760834671,"abstention":23.86637239165329,"winnerId":"MELENCHON","runnerUpId":"MACRON","margin":22.440468182429704,"top":[{"id":"MELENCHON","name":"Jean-Luc Mélenchon","shortName":"Mélenchon","votes":3296,"share":44.34279564106014},{"id":"MACRON","name":"Emmanuel Macron","shortName":"Macron","votes":1628,"share":21.90232745863043},{"id":"LE_PEN","name":"Marine Le Pen","shortName":"Le Pen","votes":700,"share":9.417462666487285}]},"2":{"code":"94037","name":"Gentilly","departmentCode":"94","registered":9977,"voters":6787,"expressed":6145,"blank":466,"invalid":176,"turnout":68.02646085997795,"abstention":31.97353914002205,"winnerId":"MACRON","runnerUpId":"LE_PEN","margin":55.54109031733117,"top":[{"id":"MACRON","name":"Emmanuel Macron","shortName":"Macron","votes":4779,"share":77.77054515866558},{"id":"LE_PEN","name":"Marine Le Pen","shortName":"Le Pen","votes":1366,"share":22.229454841334416}]}}},"geometry":{"type":"Polygon","coordinates":[[[479.18,409.06],[479.28,409.2],[479.65,409.15],[480.02,409.15],[479.67,408.63],[479.18,409.06]]]}},{"type":"Feature","id":"94038","properties":{"code":"94038","name":"L'Haÿ-les-Roses","departmentCode":"94","rounds":{"1":{"code":"94038","name":"L'Hay-les-Roses","departmentCode":"94","registered":18648,"voters":13914,"expressed":13636,"blank":206,"invalid":72,"turnout":74.61389961389962,"abstention":25.386100386100384,"winnerId":"MELENCHON","runnerUpId":"MACRON","margin":2.2587268993839835,"top":[{"id":"MELENCHON","name":"Jean-Luc Mélenchon","shortName":"Mélenchon","votes":4426,"share":32.45819888530361},{"id":"MACRON","name":"Emmanuel Macron","shortName":"Macron","votes":4118,"share":30.199471985919622},{"id":"LE_PEN","name":"Marine Le Pen","shortName":"Le Pen","votes":1479,"share":10.846289234379583}]},"2":{"code":"94038","name":"L'Hay-les-Roses","departmentCode":"94","registered":18657,"voters":12816,"expressed":11739,"blank":855,"invalid":222,"turnout":68.69271587071877,"abstention":31.30728412928124,"winnerId":"MACRON","runnerUpId":"LE_PEN","margin":53.11355311355312,"top":[{"id":"MACRON","name":"Emmanuel Macron","shortName":"Macron","votes":8987,"share":76.55677655677655},{"id":"LE_PEN","name":"Marine Le Pen","shortName":"Le Pen","votes":2752,"share":23.44322344322344}]}}},"geometry":{"type":"Polygon","coordinates":[[[478.76,406.85],[478.88,407.03],[479.08,407.55],[479.64,407.97],[480.35,407.4],[479.29,406.75],[478.76,406.85]]]}},{"type":"Feature","id":"94041","properties":{"code":"94041","name":"Ivry-sur-Seine","departmentCode":"94","rounds":{"1":{"code":"94041","name":"Ivry-sur-Seine","departmentCode":"94","registered":29966,"voters":22955,"expressed":22536,"blank":281,"invalid":138,"turnout":76.60348394847493,"abstention":23.39651605152506,"winnerId":"MELENCHON","runnerUpId":"MACRON","margin":27.782215122470717,"top":[{"id":"MELENCHON","name":"Jean-Luc Mélenchon","shortName":"Mélenchon","votes":10962,"share":48.64217252396166},{"id":"MACRON","name":"Emmanuel Macron","shortName":"Macron","votes":4701,"share":20.85995740149095},{"id":"LE_PEN","name":"Marine Le Pen","shortName":"Le Pen","votes":1951,"share":8.657259495917643}]},"2":{"code":"94041","name":"Ivry-sur-Seine","departmentCode":"94","registered":29984,"voters":20290,"expressed":18335,"blank":1471,"invalid":484,"turnout":67.66942369263607,"abstention":32.33057630736393,"winnerId":"MACRON","runnerUpId":"LE_PEN","margin":58.29833651486228,"top":[{"id":"MACRON","name":"Emmanuel Macron","shortName":"Macron","votes":14512,"share":79.14916825743114},{"id":"LE_PEN","name":"Marine Le Pen","shortName":"Le Pen","votes":3823,"share":20.850831742568857}]}}},"geometry":{"type":"Polygon","coordinates":[[[481.08,409.61],[481.66,409.18],[481.66,408.8],[480.48,408.58],[480.36,408.77],[480.27,409.14],[481.08,409.61]]]}},{"type":"Feature","id":"94042","properties":{"code":"94042","name":"Joinville-le-Pont","departmentCode":"94","rounds":{"1":{"code":"94042","name":"Joinville-le-Pont","departmentCode":"94","registered":12967,"voters":10283,"expressed":10109,"blank":123,"invalid":51,"turnout":79.30130330839825,"abstention":20.69869669160176,"winnerId":"MACRON","runnerUpId":"MELENCHON","margin":7.349886239984173,"top":[{"id":"MACRON","name":"Emmanuel Macron","shortName":"Macron","votes":3384,"share":33.475121179147294},{"id":"MELENCHON","name":"Jean-Luc Mélenchon","shortName":"Mélenchon","votes":2641,"share":26.12523493916312},{"id":"LE_PEN","name":"Marine Le Pen","shortName":"Le Pen","votes":1008,"share":9.971312691660897}]},"2":{"code":"94042","name":"Joinville-le-Pont","departmentCode":"94","registered":12978,"voters":9520,"expressed":8781,"blank":557,"invalid":182,"turnout":73.35490830636462,"abstention":26.64509169363538,"winnerId":"MACRON","runnerUpId":"LE_PEN","margin":54.83430133242228,"top":[{"id":"MACRON","name":"Emmanuel Macron","shortName":"Macron","votes":6798,"share":77.41715066621114},{"id":"LE_PEN","name":"Marine Le Pen","shortName":"Le Pen","votes":1983,"share":22.58284933378886}]}}},"geometry":{"type":"Polygon","coordinates":[[[483.27,408.79],[483.09,408.98],[483.28,409.22],[483.44,409.59],[483.75,409.83],[483.87,408.98],[483.27,408.79]]]}},{"type":"Feature","id":"94043","properties":{"code":"94043","name":"Le Kremlin-Bicêtre","departmentCode":"94","rounds":{"1":{"code":"94043","name":"Le Kremlin-Bicêtre","departmentCode":"94","registered":14414,"voters":10336,"expressed":10147,"blank":133,"invalid":56,"turnout":71.7080616067712,"abstention":28.291938393228804,"winnerId":"MELENCHON","runnerUpId":"MACRON","margin":13.10732236128905,"top":[{"id":"MELENCHON","name":"Jean-Luc Mélenchon","shortName":"Mélenchon","votes":4059,"share":40.00197102591899},{"id":"MACRON","name":"Emmanuel Macron","shortName":"Macron","votes":2729,"share":26.89464866462994},{"id":"LE_PEN","name":"Marine Le Pen","shortName":"Le Pen","votes":983,"share":9.687592391839953}]},"2":{"code":"94043","name":"Le Kremlin-Bicêtre","departmentCode":"94","registered":14418,"voters":9463,"expressed":8644,"blank":638,"invalid":181,"turnout":65.63323623248716,"abstention":34.36676376751283,"winnerId":"MACRON","runnerUpId":"LE_PEN","margin":55.11337343822304,"top":[{"id":"MACRON","name":"Emmanuel Macron","shortName":"Macron","votes":6704,"share":77.55668671911153},{"id":"LE_PEN","name":"Marine Le Pen","shortName":"Le Pen","votes":1940,"share":22.44331328088848}]}}},"geometry":{"type":"Polygon","coordinates":[[[479.77,408.49],[479.67,408.63],[480.02,409.15],[480.27,409.14],[480.36,408.77],[479.77,408.49]]]}},{"type":"Feature","id":"94044","properties":{"code":"94044","name":"Limeil-Brévannes","departmentCode":"94","rounds":{"1":{"code":"94044","name":"Limeil-Brévannes","departmentCode":"94","registered":12944,"voters":9722,"expressed":9507,"blank":158,"invalid":57,"turnout":75.10815822002472,"abstention":24.89184177997528,"winnerId":"MELENCHON","runnerUpId":"MACRON","margin":14.81013989691806,"top":[{"id":"MELENCHON","name":"Jean-Luc Mélenchon","shortName":"Mélenchon","votes":3643,"share":38.31913327022195},{"id":"MACRON","name":"Emmanuel Macron","shortName":"Macron","votes":2235,"share":23.508993373303884},{"id":"LE_PEN","name":"Marine Le Pen","shortName":"Le Pen","votes":1506,"share":15.840959293152416}]},"2":{"code":"94044","name":"Limeil-Brévannes","departmentCode":"94","registered":12961,"voters":8795,"expressed":7976,"blank":618,"invalid":201,"turnout":67.85741840907338,"abstention":32.142581590926625,"winnerId":"MACRON","runnerUpId":"LE_PEN","margin":33.24974924774323,"top":[{"id":"MACRON","name":"Emmanuel Macron","shortName":"Macron","votes":5314,"share":66.6248746238716},{"id":"LE_PEN","name":"Marine Le Pen","shortName":"Le Pen","votes":2662,"share":33.37512537612838}]}}},"geometry":{"type":"Polygon","coordinates":[[[484.25,406.43],[484.99,405.48],[484.77,405.3],[484,405.02],[483.48,406.58],[483.66,406.57],[484.25,406.43]]]}},{"type":"Feature","id":"94046","properties":{"code":"94046","name":"Maisons-Alfort","departmentCode":"94","rounds":{"1":{"code":"94046","name":"Maisons-Alfort","departmentCode":"94","registered":36908,"voters":28752,"expressed":28185,"blank":429,"invalid":138,"turnout":77.90180990571149,"abstention":22.0981900942885,"winnerId":"MACRON","runnerUpId":"MELENCHON","margin":5.091360652829519,"top":[{"id":"MACRON","name":"Emmanuel Macron","shortName":"Macron","votes":8696,"share":30.853290757495124},{"id":"MELENCHON","name":"Jean-Luc Mélenchon","shortName":"Mélenchon","votes":7261,"share":25.761930104665602},{"id":"LE_PEN","name":"Marine Le Pen","shortName":"Le Pen","votes":3679,"share":13.053042398438885}]},"2":{"code":"94046","name":"Maisons-Alfort","departmentCode":"94","registered":36941,"voters":26976,"expressed":24609,"blank":1851,"invalid":516,"turnout":73.02455266506051,"abstention":26.9754473349395,"winnerId":"MACRON","runnerUpId":"LE_PEN","margin":46.22292657157951,"top":[{"id":"MACRON","name":"Emmanuel Macron","shortName":"Macron","votes":17992,"share":73.11146328578974},{"id":"LE_PEN","name":"Marine Le Pen","shortName":"Le Pen","votes":6617,"share":26.888536714210247}]}}},"geometry":{"type":"Polygon","coordinates":[[[481.88,409.13],[482.01,409.18],[483.09,408.98],[483.27,408.79],[483.37,408.7],[482.4,407.76],[481.88,409.13]]]}},{"type":"Feature","id":"94047","properties":{"code":"94047","name":"Mandres-les-Roses","departmentCode":"94","rounds":{"1":{"code":"94047","name":"Mandres-les-Roses","departmentCode":"94","registered":3167,"voters":2493,"expressed":2419,"blank":61,"invalid":13,"turnout":78.7180296810862,"abstention":21.2819703189138,"winnerId":"MACRON","runnerUpId":"MELENCHON","margin":6.490285241835469,"top":[{"id":"MACRON","name":"Emmanuel Macron","shortName":"Macron","votes":665,"share":27.490698635799916},{"id":"MELENCHON","name":"Jean-Luc Mélenchon","shortName":"Mélenchon","votes":508,"share":21.000413393964447},{"id":"LE_PEN","name":"Marine Le Pen","shortName":"Le Pen","votes":496,"share":20.504340636626704}]},"2":{"code":"94047","name":"Mandres-les-Roses","departmentCode":"94","registered":3184,"voters":2394,"expressed":2202,"blank":153,"invalid":39,"turnout":75.18844221105527,"abstention":24.811557788944725,"winnerId":"MACRON","runnerUpId":"LE_PEN","margin":20.52679382379655,"top":[{"id":"MACRON","name":"Emmanuel Macron","shortName":"Macron","votes":1327,"share":60.26339691189827},{"id":"LE_PEN","name":"Marine Le Pen","shortName":"Le Pen","votes":875,"share":39.736603088101724}]}}},"geometry":{"type":"Polygon","coordinates":[[[485.29,403.88],[485.39,403.93],[486.14,404.34],[486.57,404.06],[486.6,403.97],[485.82,403.59],[485.42,403.64],[485.29,403.88]]]}},{"type":"Feature","id":"94048","properties":{"code":"94048","name":"Marolles-en-Brie","departmentCode":"94","rounds":{"1":{"code":"94048","name":"Marolles-en-Brie","departmentCode":"94","registered":3654,"voters":2957,"expressed":2889,"blank":49,"invalid":19,"turnout":80.92501368363438,"abstention":19.074986316365628,"winnerId":"MACRON","runnerUpId":"LE_PEN","margin":18.656974731741087,"top":[{"id":"MACRON","name":"Emmanuel Macron","shortName":"Macron","votes":1062,"share":36.7601246105919},{"id":"LE_PEN","name":"Marine Le Pen","shortName":"Le Pen","votes":523,"share":18.103149878850815},{"id":"MELENCHON","name":"Jean-Luc Mélenchon","shortName":"Mélenchon","votes":441,"share":15.264797507788161}]},"2":{"code":"94048","name":"Marolles-en-Brie","departmentCode":"94","registered":3655,"voters":2838,"expressed":2633,"blank":151,"invalid":54,"turnout":77.64705882352942,"abstention":22.35294117647059,"winnerId":"MACRON","runnerUpId":"LE_PEN","margin":32.77630079756931,"top":[{"id":"MACRON","name":"Emmanuel Macron","shortName":"Macron","votes":1748,"share":66.38815039878465},{"id":"LE_PEN","name":"Marine Le Pen","shortName":"Le Pen","votes":885,"share":33.61184960121534}]}}},"geometry":{"type":"Polygon","coordinates":[[[486.64,406.04],[486.11,404.67],[485.61,404.96],[486.24,406.23],[486.64,406.04]]]}},{"type":"Feature","id":"94052","properties":{"code":"94052","name":"Nogent-sur-Marne","departmentCode":"94","rounds":{"1":{"code":"94052","name":"Nogent-sur-Marne","departmentCode":"94","registered":22307,"voters":17472,"expressed":17187,"blank":225,"invalid":60,"turnout":78.32518940242973,"abstention":21.674810597570268,"winnerId":"MACRON","runnerUpId":"MELENCHON","margin":19.0376447314831,"top":[{"id":"MACRON","name":"Emmanuel Macron","shortName":"Macron","votes":6688,"share":38.91313201838599},{"id":"MELENCHON","name":"Jean-Luc Mélenchon","shortName":"Mélenchon","votes":3416,"share":19.87548728690289},{"id":"ZEMMOUR","name":"Éric Zemmour","shortName":"Zemmour","votes":1776,"share":10.333391516844125}]},"2":{"code":"94052","name":"Nogent-sur-Marne","departmentCode":"94","registered":22417,"voters":16570,"expressed":15489,"blank":870,"invalid":211,"turnout":73.91711647410447,"abstention":26.08288352589553,"winnerId":"MACRON","runnerUpId":"LE_PEN","margin":58.48666795790562,"top":[{"id":"MACRON","name":"Emmanuel Macron","shortName":"Macron","votes":12274,"share":79.2433339789528},{"id":"LE_PEN","name":"Marine Le Pen","shortName":"Le Pen","votes":3215,"share":20.756666021047195}]}}},"geometry":{"type":"Polygon","coordinates":[[[484.43,409.82],[483.75,409.83],[483.44,409.59],[483.47,410.2],[484.25,410.62],[484.43,409.82]]]}},{"type":"Feature","id":"94053","properties":{"code":"94053","name":"Noiseau","departmentCode":"94","rounds":{"1":{"code":"94053","name":"Noiseau","departmentCode":"94","registered":3366,"voters":2635,"expressed":2583,"blank":39,"invalid":13,"turnout":78.28282828282829,"abstention":21.71717171717172,"winnerId":"MACRON","runnerUpId":"LE_PEN","margin":9.833526906697639,"top":[{"id":"MACRON","name":"Emmanuel Macron","shortName":"Macron","votes":786,"share":30.42973286875726},{"id":"LE_PEN","name":"Marine Le Pen","shortName":"Le Pen","votes":532,"share":20.59620596205962},{"id":"MELENCHON","name":"Jean-Luc Mélenchon","shortName":"Mélenchon","votes":514,"share":19.899341850561363}]},"2":{"code":"94053","name":"Noiseau","departmentCode":"94","registered":3369,"voters":2503,"expressed":2307,"blank":150,"invalid":46,"turnout":74.29504303947759,"abstention":25.704956960522413,"winnerId":"MACRON","runnerUpId":"LE_PEN","margin":23.363675769397485,"top":[{"id":"MACRON","name":"Emmanuel Macron","shortName":"Macron","votes":1423,"share":61.681837884698744},{"id":"LE_PEN","name":"Marine Le Pen","shortName":"Le Pen","votes":884,"share":38.318162115301256}]}}},"geometry":{"type":"Polygon","coordinates":[[[486.4,407.78],[486.71,406.79],[485.56,407.27],[486.4,407.78]]]}},{"type":"Feature","id":"94054","properties":{"code":"94054","name":"Orly","departmentCode":"94","rounds":{"1":{"code":"94054","name":"Orly","departmentCode":"94","registered":11793,"voters":8324,"expressed":8175,"blank":92,"invalid":57,"turnout":70.58424489103705,"abstention":29.415755108962944,"winnerId":"MELENCHON","runnerUpId":"MACRON","margin":27.11926605504587,"top":[{"id":"MELENCHON","name":"Jean-Luc Mélenchon","shortName":"Mélenchon","votes":3882,"share":47.48623853211009},{"id":"MACRON","name":"Emmanuel Macron","shortName":"Macron","votes":1665,"share":20.36697247706422},{"id":"LE_PEN","name":"Marine Le Pen","shortName":"Le Pen","votes":1224,"share":14.972477064220183}]},"2":{"code":"94054","name":"Orly","departmentCode":"94","registered":11798,"voters":7333,"expressed":6666,"blank":503,"invalid":164,"turnout":62.154602474995755,"abstention":37.84539752500424,"winnerId":"MACRON","runnerUpId":"LE_PEN","margin":36.303630363036305,"top":[{"id":"MACRON","name":"Emmanuel Macron","shortName":"Macron","votes":4543,"share":68.15181518151815},{"id":"LE_PEN","name":"Marine Le Pen","shortName":"Le Pen","votes":2123,"share":31.84818481848185}]}}},"geometry":{"type":"Polygon","coordinates":[[[480.42,405],[480.4,405.84],[481.55,406.07],[482.2,406.07],[482.51,405.78],[480.42,405]]]}},{"type":"Feature","id":"94055","properties":{"code":"94055","name":"Ormesson-sur-Marne","departmentCode":"94","rounds":{"1":{"code":"94055","name":"Ormesson-sur-Marne","departmentCode":"94","registered":6806,"voters":5309,"expressed":5197,"blank":85,"invalid":27,"turnout":78.00470173376432,"abstention":21.995298266235675,"winnerId":"MACRON","runnerUpId":"LE_PEN","margin":15.085626322878584,"top":[{"id":"MACRON","name":"Emmanuel Macron","shortName":"Macron","votes":1819,"share":35.00096209351549},{"id":"LE_PEN","name":"Marine Le Pen","shortName":"Le Pen","votes":1035,"share":19.915335770636904},{"id":"MELENCHON","name":"Jean-Luc Mélenchon","shortName":"Mélenchon","votes":896,"share":17.240715797575522}]},"2":{"code":"94055","name":"Ormesson-sur-Marne","departmentCode":"94","registered":6807,"voters":4966,"expressed":4627,"blank":269,"invalid":70,"turnout":72.95431173791685,"abstention":27.04568826208315,"winnerId":"MACRON","runnerUpId":"LE_PEN","margin":30.84071752755565,"top":[{"id":"MACRON","name":"Emmanuel Macron","shortName":"Macron","votes":3027,"share":65.42035876377783},{"id":"LE_PEN","name":"Marine Le Pen","shortName":"Le Pen","votes":1600,"share":34.57964123622217}]}}},"geometry":{"type":"Polygon","coordinates":[[[486.4,407.78],[485.56,407.27],[485.04,407.65],[486.19,407.97],[486.4,407.78]]]}},{"type":"Feature","id":"94056","properties":{"code":"94056","name":"Périgny","departmentCode":"94","rounds":{"1":{"code":"94056","name":"Périgny-sur-Yerres","departmentCode":"94","registered":1782,"voters":1406,"expressed":1369,"blank":27,"invalid":10,"turnout":78.90011223344557,"abstention":21.099887766554435,"winnerId":"MACRON","runnerUpId":"LE_PEN","margin":10.51862673484295,"top":[{"id":"MACRON","name":"Emmanuel Macron","shortName":"Macron","votes":424,"share":30.971512052593138},{"id":"LE_PEN","name":"Marine Le Pen","shortName":"Le Pen","votes":280,"share":20.452885317750184},{"id":"MELENCHON","name":"Jean-Luc Mélenchon","shortName":"Mélenchon","votes":234,"share":17.092768444119795}]},"2":{"code":"94056","name":"Périgny-sur-Yerres","departmentCode":"94","registered":1783,"voters":1350,"expressed":1211,"blank":108,"invalid":31,"turnout":75.71508693213684,"abstention":24.28491306786315,"winnerId":"MACRON","runnerUpId":"LE_PEN","margin":19.9009083402147,"top":[{"id":"MACRON","name":"Emmanuel Macron","shortName":"Macron","votes":726,"share":59.95045417010735},{"id":"LE_PEN","name":"Marine Le Pen","shortName":"Le Pen","votes":485,"share":40.04954582989265}]}}},"geometry":{"type":"Polygon","coordinates":[[[486.6,403.97],[486.75,403.68],[486.69,403.26],[485.97,403.12],[485.82,403.59],[486.6,403.97]]]}},{"type":"Feature","id":"94058","properties":{"code":"94058","name":"Le Perreux-sur-Marne","departmentCode":"94","rounds":{"1":{"code":"94058","name":"Le Perreux-sur-Marne","departmentCode":"94","registered":23853,"voters":18405,"expressed":18093,"blank":260,"invalid":52,"turnout":77.16010564708841,"abstention":22.839894352911582,"winnerId":"MACRON","runnerUpId":"MELENCHON","margin":15.204775327474715,"top":[{"id":"MACRON","name":"Emmanuel Macron","shortName":"Macron","votes":6544,"share":36.16868402144476},{"id":"MELENCHON","name":"Jean-Luc Mélenchon","shortName":"Mélenchon","votes":3793,"share":20.963908693970044},{"id":"LE_PEN","name":"Marine Le Pen","shortName":"Le Pen","votes":2008,"share":11.098214779196375}]},"2":{"code":"94058","name":"Le Perreux-sur-Marne","departmentCode":"94","registered":23860,"voters":17307,"expressed":16032,"blank":979,"invalid":296,"turnout":72.53562447611066,"abstention":27.464375523889355,"winnerId":"MACRON","runnerUpId":"LE_PEN","margin":52.65718562874252,"top":[{"id":"MACRON","name":"Emmanuel Macron","shortName":"Macron","votes":12237,"share":76.32859281437125},{"id":"LE_PEN","name":"Marine Le Pen","shortName":"Le Pen","votes":3795,"share":23.67140718562874}]}}},"geometry":{"type":"Polygon","coordinates":[[[484.65,409.77],[484.43,409.82],[484.25,410.62],[484.5,411],[484.93,410.71],[484.65,409.77]]]}},{"type":"Feature","id":"94059","properties":{"code":"94059","name":"Le Plessis-Trévise","departmentCode":"94","rounds":{"1":{"code":"94059","name":"Le Plessis-Trévise","departmentCode":"94","registered":11530,"voters":8853,"expressed":8667,"blank":138,"invalid":48,"turnout":76.78230702515178,"abstention":23.217692974848223,"winnerId":"MACRON","runnerUpId":"MELENCHON","margin":8.53813314872505,"top":[{"id":"MACRON","name":"Emmanuel Macron","shortName":"Macron","votes":2775,"share":32.01799930771894},{"id":"MELENCHON","name":"Jean-Luc Mélenchon","shortName":"Mélenchon","votes":2035,"share":23.479866158993882},{"id":"LE_PEN","name":"Marine Le Pen","shortName":"Le Pen","votes":1512,"share":17.445482866043612}]},"2":{"code":"94059","name":"Le Plessis-Trévise","departmentCode":"94","registered":11532,"voters":8264,"expressed":7574,"blank":535,"invalid":155,"turnout":71.66146375303504,"abstention":28.338536246964967,"winnerId":"MACRON","runnerUpId":"LE_PEN","margin":33.113282281489305,"top":[{"id":"MACRON","name":"Emmanuel Macron","shortName":"Macron","votes":5041,"share":66.55664114074466},{"id":"LE_PEN","name":"Marine Le Pen","shortName":"Le Pen","votes":2533,"share":33.44335885925535}]}}},"geometry":{"type":"Polygon","coordinates":[[[487.31,408.2],[486.72,408.3],[486.28,408.73],[486.26,409.24],[486.63,409.2],[487.34,408.67],[487.31,408.2]]]}},{"type":"Feature","id":"94060","properties":{"code":"94060","name":"La Queue-en-Brie","departmentCode":"94","rounds":{"1":{"code":"94060","name":"La Queue-en-Brie","departmentCode":"94","registered":7044,"voters":5289,"expressed":5179,"blank":77,"invalid":33,"turnout":75.08517887563883,"abstention":24.914821124361158,"winnerId":"MELENCHON","runnerUpId":"MACRON","margin":0.7916586213554739,"top":[{"id":"MELENCHON","name":"Jean-Luc Mélenchon","shortName":"Mélenchon","votes":1450,"share":27.997682950376518},{"id":"MACRON","name":"Emmanuel Macron","shortName":"Macron","votes":1409,"share":27.206024329021044},{"id":"LE_PEN","name":"Marine Le Pen","shortName":"Le Pen","votes":1028,"share":19.849391774473837}]},"2":{"code":"94060","name":"La Queue-en-Brie","departmentCode":"94","registered":7044,"voters":4973,"expressed":4552,"blank":334,"invalid":87,"turnout":70.59909142532652,"abstention":29.40090857467348,"winnerId":"MACRON","runnerUpId":"LE_PEN","margin":23.81370826010545,"top":[{"id":"MACRON","name":"Emmanuel Macron","shortName":"Macron","votes":2818,"share":61.90685413005272},{"id":"LE_PEN","name":"Marine Le Pen","shortName":"Le Pen","votes":1734,"share":38.09314586994728}]}}},"geometry":{"type":"Polygon","coordinates":[[[486.72,408.3],[487.31,408.2],[487.33,406.98],[488.04,406.5],[487.48,406.5],[486.86,406.23],[486.71,406.79],[486.4,407.78],[486.19,407.97],[486.72,408.3]]]}},{"type":"Feature","id":"94065","properties":{"code":"94065","name":"Rungis","departmentCode":"94","rounds":{"1":{"code":"94065","name":"Rungis","departmentCode":"94","registered":4133,"voters":3289,"expressed":3218,"blank":44,"invalid":27,"turnout":79.57899830631503,"abstention":20.421001693684975,"winnerId":"MACRON","runnerUpId":"MELENCHON","margin":13.79738968303294,"top":[{"id":"MACRON","name":"Emmanuel Macron","shortName":"Macron","votes":1122,"share":34.866376631448105},{"id":"MELENCHON","name":"Jean-Luc Mélenchon","shortName":"Mélenchon","votes":678,"share":21.068986948415162},{"id":"LE_PEN","name":"Marine Le Pen","shortName":"Le Pen","votes":461,"share":14.32566811684276}]},"2":{"code":"94065","name":"Rungis","departmentCode":"94","registered":4136,"voters":3090,"expressed":2819,"blank":222,"invalid":49,"turnout":74.70986460348162,"abstention":25.290135396518377,"winnerId":"MACRON","runnerUpId":"LE_PEN","margin":41.965235899255056,"top":[{"id":"MACRON","name":"Emmanuel Macron","shortName":"Macron","votes":2001,"share":70.98261794962752},{"id":"LE_PEN","name":"Marine Le Pen","shortName":"Le Pen","votes":818,"share":29.01738205037247}]}}},"geometry":{"type":"Polygon","coordinates":[[[479.22,405.95],[479.62,406.32],[480.4,406.36],[480.4,405.84],[479.93,405.52],[479.22,405.95]]]}},{"type":"Feature","id":"94067","properties":{"code":"94067","name":"Saint-Mandé","departmentCode":"94","rounds":{"1":{"code":"94067","name":"Saint-Mandé","departmentCode":"94","registered":15617,"voters":12158,"expressed":11994,"blank":122,"invalid":42,"turnout":77.8510597425882,"abstention":22.148940257411795,"winnerId":"MACRON","runnerUpId":"MELENCHON","margin":23.80356845089211,"top":[{"id":"MACRON","name":"Emmanuel Macron","shortName":"Macron","votes":4894,"share":40.8037352009338},{"id":"MELENCHON","name":"Jean-Luc Mélenchon","shortName":"Mélenchon","votes":2039,"share":17.000166750041686},{"id":"ZEMMOUR","name":"Éric Zemmour","shortName":"Zemmour","votes":1961,"share":16.349841587460396}]},"2":{"code":"94067","name":"Saint-Mandé","departmentCode":"94","registered":15620,"voters":11399,"expressed":10795,"blank":480,"invalid":124,"turnout":72.97695262483995,"abstention":27.023047375160054,"winnerId":"MACRON","runnerUpId":"LE_PEN","margin":66.66975451597962,"top":[{"id":"MACRON","name":"Emmanuel Macron","shortName":"Macron","votes":8996,"share":83.33487725798982},{"id":"LE_PEN","name":"Marine Le Pen","shortName":"Le Pen","votes":1799,"share":16.66512274201019}]}}},"geometry":{"type":"Polygon","coordinates":[[[481.89,410.69],[481.99,410.69],[482.26,410.35],[481.89,410.59],[481.89,410.69]]]}},{"type":"Feature","id":"94068","properties":{"code":"94068","name":"Saint-Maur-des-Fossés","departmentCode":"94","rounds":{"1":{"code":"94068","name":"Saint-Maur-des-Fossés","departmentCode":"94","registered":50466,"voters":40753,"expressed":40083,"blank":520,"invalid":150,"turnout":80.75337851226568,"abstention":19.246621487734316,"winnerId":"MACRON","runnerUpId":"MELENCHON","margin":21.438016116558142,"top":[{"id":"MACRON","name":"Emmanuel Macron","shortName":"Macron","votes":15588,"share":38.889304692762515},{"id":"MELENCHON","name":"Jean-Luc Mélenchon","shortName":"Mélenchon","votes":6995,"share":17.451288576204377},{"id":"LE_PEN","name":"Marine Le Pen","shortName":"Le Pen","votes":4256,"share":10.617967716987252}]},"2":{"code":"94068","name":"Saint-Maur-des-Fossés","departmentCode":"94","registered":50567,"voters":38748,"expressed":36195,"blank":2029,"invalid":524,"turnout":76.627049261376,"abstention":23.372950738624006,"winnerId":"MACRON","runnerUpId":"LE_PEN","margin":53.48528802320762,"top":[{"id":"MACRON","name":"Emmanuel Macron","shortName":"Macron","votes":27777,"share":76.74264401160382},{"id":"LE_PEN","name":"Marine Le Pen","shortName":"Le Pen","votes":8418,"share":23.257355988396185}]}}},"geometry":{"type":"Polygon","coordinates":[[[483.37,408.7],[483.27,408.79],[483.87,408.98],[485.17,408.54],[485.01,407.7],[484.85,407.65],[483.7,407.8],[483.37,408.7]]]}},{"type":"Feature","id":"94069","properties":{"code":"94069","name":"Saint-Maurice","departmentCode":"94","rounds":{"1":{"code":"94069","name":"Saint-Maurice","departmentCode":"94","registered":8250,"voters":6422,"expressed":6300,"blank":72,"invalid":50,"turnout":77.84242424242424,"abstention":22.157575757575756,"winnerId":"MACRON","runnerUpId":"MELENCHON","margin":8.238095238095237,"top":[{"id":"MACRON","name":"Emmanuel Macron","shortName":"Macron","votes":2061,"share":32.714285714285715},{"id":"MELENCHON","name":"Jean-Luc Mélenchon","shortName":"Mélenchon","votes":1542,"share":24.476190476190478},{"id":"ZEMMOUR","name":"Éric Zemmour","shortName":"Zemmour","votes":758,"share":12.031746031746032}]},"2":{"code":"94069","name":"Saint-Maurice","departmentCode":"94","registered":8249,"voters":5913,"expressed":5425,"blank":343,"invalid":145,"turnout":71.68141592920354,"abstention":28.31858407079646,"winnerId":"MACRON","runnerUpId":"LE_PEN","margin":53.843317972350235,"top":[{"id":"MACRON","name":"Emmanuel Macron","shortName":"Macron","votes":4173,"share":76.92165898617512},{"id":"LE_PEN","name":"Marine Le Pen","shortName":"Le Pen","votes":1252,"share":23.078341013824886}]}}},"geometry":{"type":"Polygon","coordinates":[[[482.01,409.18],[482.01,409.51],[483.28,409.22],[483.09,408.98],[482.01,409.18]]]}},{"type":"Feature","id":"94070","properties":{"code":"94070","name":"Santeny","departmentCode":"94","rounds":{"1":{"code":"94070","name":"Santeny","departmentCode":"94","registered":2791,"voters":2240,"expressed":2208,"blank":28,"invalid":4,"turnout":80.25797205302759,"abstention":19.742027946972414,"winnerId":"MACRON","runnerUpId":"LE_PEN","margin":16.032608695652172,"top":[{"id":"MACRON","name":"Emmanuel Macron","shortName":"Macron","votes":763,"share":34.55615942028986},{"id":"LE_PEN","name":"Marine Le Pen","shortName":"Le Pen","votes":409,"share":18.52355072463768},{"id":"MELENCHON","name":"Jean-Luc Mélenchon","shortName":"Mélenchon","votes":334,"share":15.126811594202898}]},"2":{"code":"94070","name":"Santeny","departmentCode":"94","registered":2795,"voters":2105,"expressed":1966,"blank":76,"invalid":63,"turnout":75.31305903398928,"abstention":24.686940966010734,"winnerId":"MACRON","runnerUpId":"LE_PEN","margin":28.992878942014244,"top":[{"id":"MACRON","name":"Emmanuel Macron","shortName":"Macron","votes":1268,"share":64.49643947100712},{"id":"LE_PEN","name":"Marine Le Pen","shortName":"Le Pen","votes":698,"share":35.50356052899288}]}}},"geometry":{"type":"Polygon","coordinates":[[[486.64,406.04],[486.86,406.23],[487.48,406.5],[487.41,405.14],[486.57,404.06],[486.14,404.34],[486.11,404.67],[486.64,406.04]]]}},{"type":"Feature","id":"94071","properties":{"code":"94071","name":"Sucy-en-Brie","departmentCode":"94","rounds":{"1":{"code":"94071","name":"Sucy-en-Brie","departmentCode":"94","registered":17112,"voters":13645,"expressed":13376,"blank":219,"invalid":50,"turnout":79.73936418887331,"abstention":20.260635811126697,"winnerId":"MACRON","runnerUpId":"MELENCHON","margin":9.614234449760765,"top":[{"id":"MACRON","name":"Emmanuel Macron","shortName":"Macron","votes":4438,"share":33.178827751196174},{"id":"MELENCHON","name":"Jean-Luc Mélenchon","shortName":"Mélenchon","votes":3152,"share":23.56459330143541},{"id":"LE_PEN","name":"Marine Le Pen","shortName":"Le Pen","votes":1750,"share":13.083133971291867}]},"2":{"code":"94071","name":"Sucy-en-Brie","departmentCode":"94","registered":17113,"voters":12876,"expressed":11863,"blank":804,"invalid":209,"turnout":75.24104481972769,"abstention":24.758955180272306,"winnerId":"MACRON","runnerUpId":"LE_PEN","margin":43.90963499957852,"top":[{"id":"MACRON","name":"Emmanuel Macron","shortName":"Macron","votes":8536,"share":71.95481749978926},{"id":"LE_PEN","name":"Marine Le Pen","shortName":"Le Pen","votes":3327,"share":28.045182500210743}]}}},"geometry":{"type":"Polygon","coordinates":[[[484.85,407.65],[485.01,407.7],[485.04,407.65],[485.56,407.27],[486.71,406.79],[486.86,406.23],[486.64,406.04],[486.24,406.23],[484.47,406.62],[484.85,407.65]]]}},{"type":"Feature","id":"94073","properties":{"code":"94073","name":"Thiais","departmentCode":"94","rounds":{"1":{"code":"94073","name":"Thiais","departmentCode":"94","registered":17376,"voters":12990,"expressed":12703,"blank":212,"invalid":75,"turnout":74.75828729281768,"abstention":25.241712707182316,"winnerId":"MELENCHON","runnerUpId":"MACRON","margin":2.133354325749823,"top":[{"id":"MELENCHON","name":"Jean-Luc Mélenchon","shortName":"Mélenchon","votes":4008,"share":31.551601983783357},{"id":"MACRON","name":"Emmanuel Macron","shortName":"Macron","votes":3737,"share":29.418247658033536},{"id":"LE_PEN","name":"Marine Le Pen","shortName":"Le Pen","votes":1850,"share":14.563488939620562}]},"2":{"code":"94073","name":"Thiais","departmentCode":"94","registered":17388,"voters":11877,"expressed":10799,"blank":865,"invalid":213,"turnout":68.30572808833678,"abstention":31.69427191166322,"winnerId":"MACRON","runnerUpId":"LE_PEN","margin":41.08713769793499,"top":[{"id":"MACRON","name":"Emmanuel Macron","shortName":"Macron","votes":7618,"share":70.5435688489675},{"id":"LE_PEN","name":"Marine Le Pen","shortName":"Le Pen","votes":3181,"share":29.456431151032504}]}}},"geometry":{"type":"Polygon","coordinates":[[[480.4,405.84],[480.4,406.36],[480.38,407.07],[481.34,407.2],[481.55,406.07],[480.4,405.84]]]}},{"type":"Feature","id":"94074","properties":{"code":"94074","name":"Valenton","departmentCode":"94","rounds":{"1":{"code":"94074","name":"Valenton","departmentCode":"94","registered":6792,"voters":4575,"expressed":4470,"blank":65,"invalid":40,"turnout":67.35865724381625,"abstention":32.64134275618375,"winnerId":"MELENCHON","runnerUpId":"MACRON","margin":37.024608501118564,"top":[{"id":"MELENCHON","name":"Jean-Luc Mélenchon","shortName":"Mélenchon","votes":2424,"share":54.22818791946309},{"id":"MACRON","name":"Emmanuel Macron","shortName":"Macron","votes":769,"share":17.20357941834452},{"id":"LE_PEN","name":"Marine Le Pen","shortName":"Le Pen","votes":592,"share":13.243847874720357}]},"2":{"code":"94074","name":"Valenton","departmentCode":"94","registered":6797,"voters":3953,"expressed":3553,"blank":288,"invalid":112,"turnout":58.158010887156095,"abstention":41.841989112843905,"winnerId":"MACRON","runnerUpId":"LE_PEN","margin":35.49113425274416,"top":[{"id":"MACRON","name":"Emmanuel Macron","shortName":"Macron","votes":2407,"share":67.74556712637208},{"id":"LE_PEN","name":"Marine Le Pen","shortName":"Le Pen","votes":1146,"share":32.25443287362792}]}}},"geometry":{"type":"Polygon","coordinates":[[[482.67,406.58],[482.45,406.82],[483.48,406.58],[484,405.02],[483.68,404.97],[483.62,404.97],[482.67,406.58]]]}},{"type":"Feature","id":"94075","properties":{"code":"94075","name":"Villecresnes","departmentCode":"94","rounds":{"1":{"code":"94075","name":"Villecresnes","departmentCode":"94","registered":7305,"voters":5728,"expressed":5597,"blank":104,"invalid":27,"turnout":78.41204654346338,"abstention":21.587953456536617,"winnerId":"MACRON","runnerUpId":"MELENCHON","margin":7.8970877255672685,"top":[{"id":"MACRON","name":"Emmanuel Macron","shortName":"Macron","votes":1655,"share":29.569412185099157},{"id":"MELENCHON","name":"Jean-Luc Mélenchon","shortName":"Mélenchon","votes":1213,"share":21.672324459531893},{"id":"LE_PEN","name":"Marine Le Pen","shortName":"Le Pen","votes":1192,"share":21.29712345899589}]},"2":{"code":"94075","name":"Villecresnes","departmentCode":"94","registered":7308,"voters":5373,"expressed":4932,"blank":333,"invalid":108,"turnout":73.52216748768473,"abstention":26.47783251231527,"winnerId":"MACRON","runnerUpId":"LE_PEN","margin":20.68126520681265,"top":[{"id":"MACRON","name":"Emmanuel Macron","shortName":"Macron","votes":2976,"share":60.34063260340633},{"id":"LE_PEN","name":"Marine Le Pen","shortName":"Le Pen","votes":1956,"share":39.65936739659367}]}}},"geometry":{"type":"Polygon","coordinates":[[[484.77,405.3],[484.99,405.48],[485.61,404.96],[486.11,404.67],[486.14,404.34],[485.39,403.93],[485.05,404.26],[484.77,405.3]]]}},{"type":"Feature","id":"94076","properties":{"code":"94076","name":"Villejuif","departmentCode":"94","rounds":{"1":{"code":"94076","name":"Villejuif","departmentCode":"94","registered":30738,"voters":22090,"expressed":21706,"blank":245,"invalid":139,"turnout":71.86544342507645,"abstention":28.134556574923547,"winnerId":"MELENCHON","runnerUpId":"MACRON","margin":19.192849903252558,"top":[{"id":"MELENCHON","name":"Jean-Luc Mélenchon","shortName":"Mélenchon","votes":9295,"share":42.822261125955954},{"id":"MACRON","name":"Emmanuel Macron","shortName":"Macron","votes":5129,"share":23.6294112227034},{"id":"LE_PEN","name":"Marine Le Pen","shortName":"Le Pen","votes":2204,"share":10.153874504745232}]},"2":{"code":"94076","name":"Villejuif","departmentCode":"94","registered":30755,"voters":19898,"expressed":18131,"blank":1342,"invalid":425,"turnout":64.69842302064704,"abstention":35.30157697935295,"winnerId":"MACRON","runnerUpId":"LE_PEN","margin":52.65567260493078,"top":[{"id":"MACRON","name":"Emmanuel Macron","shortName":"Macron","votes":13839,"share":76.32783630246539},{"id":"LE_PEN","name":"Marine Le Pen","shortName":"Le Pen","votes":4292,"share":23.67216369753461}]}}},"geometry":{"type":"Polygon","coordinates":[[[479.64,408.3],[479.77,408.49],[480.36,408.77],[480.48,408.58],[480.35,407.4],[479.64,407.97],[479.64,408.3]]]}},{"type":"Feature","id":"94077","properties":{"code":"94077","name":"Villeneuve-le-Roi","departmentCode":"94","rounds":{"1":{"code":"94077","name":"Villeneuve-le-Roi","departmentCode":"94","registered":11218,"voters":7970,"expressed":7758,"blank":212,"invalid":0,"turnout":71.04653235870921,"abstention":28.953467641290782,"winnerId":"MELENCHON","runnerUpId":"MACRON","margin":14.178912090745039,"top":[{"id":"MELENCHON","name":"Jean-Luc Mélenchon","shortName":"Mélenchon","votes":2817,"share":36.31090487238979},{"id":"MACRON","name":"Emmanuel Macron","shortName":"Macron","votes":1717,"share":22.131992781644755},{"id":"LE_PEN","name":"Marine Le Pen","shortName":"Le Pen","votes":1548,"share":19.953596287703014}]},"2":{"code":"94077","name":"Villeneuve-le-Roi","departmentCode":"94","registered":11224,"voters":7204,"expressed":6450,"blank":754,"invalid":0,"turnout":64.18389166072701,"abstention":35.816108339272986,"winnerId":"MACRON","runnerUpId":"LE_PEN","margin":22.48062015503876,"top":[{"id":"MACRON","name":"Emmanuel Macron","shortName":"Macron","votes":3950,"share":61.240310077519375},{"id":"LE_PEN","name":"Marine Le Pen","shortName":"Le Pen","votes":2500,"share":38.759689922480625}]}}},"geometry":{"type":"Polygon","coordinates":[[[480.45,404.62],[480.42,405],[482.51,405.78],[482.6,404.84],[482.44,404.79],[481.69,404.89],[480.45,404.62]]]}},{"type":"Feature","id":"94078","properties":{"code":"94078","name":"Villeneuve-Saint-Georges","departmentCode":"94","rounds":{"1":{"code":"94078","name":"Villeneuve-Saint-Georges","departmentCode":"94","registered":11557,"voters":8195,"expressed":8050,"blank":85,"invalid":60,"turnout":70.90940555507484,"abstention":29.090594444925156,"winnerId":"MELENCHON","runnerUpId":"MACRON","margin":25.639751552795033,"top":[{"id":"MELENCHON","name":"Jean-Luc Mélenchon","shortName":"Mélenchon","votes":3718,"share":46.18633540372671},{"id":"MACRON","name":"Emmanuel Macron","shortName":"Macron","votes":1654,"share":20.546583850931675},{"id":"LE_PEN","name":"Marine Le Pen","shortName":"Le Pen","votes":1306,"share":16.22360248447205}]},"2":{"code":"94078","name":"Villeneuve-Saint-Georges","departmentCode":"94","registered":11673,"voters":7302,"expressed":6680,"blank":435,"invalid":187,"turnout":62.554613209971734,"abstention":37.445386790028266,"winnerId":"MACRON","runnerUpId":"LE_PEN","margin":32.48502994011976,"top":[{"id":"MACRON","name":"Emmanuel Macron","shortName":"Macron","votes":4425,"share":66.24251497005989},{"id":"LE_PEN","name":"Marine Le Pen","shortName":"Le Pen","votes":2255,"share":33.75748502994012}]}}},"geometry":{"type":"Polygon","coordinates":[[[482.69,404.65],[482.6,404.84],[482.51,405.78],[482.2,406.07],[482.67,406.58],[483.62,404.97],[482.93,404.36],[482.69,404.65]]]}},{"type":"Feature","id":"94079","properties":{"code":"94079","name":"Villiers-sur-Marne","departmentCode":"94","rounds":{"1":{"code":"94079","name":"Villiers-sur-Marne","departmentCode":"94","registered":16861,"voters":12838,"expressed":12555,"blank":212,"invalid":71,"turnout":76.14020520728309,"abstention":23.859794792716922,"winnerId":"MELENCHON","runnerUpId":"MACRON","margin":6.101154918359219,"top":[{"id":"MELENCHON","name":"Jean-Luc Mélenchon","shortName":"Mélenchon","votes":4262,"share":33.946634806849865},{"id":"MACRON","name":"Emmanuel Macron","shortName":"Macron","votes":3496,"share":27.845479888490644},{"id":"LE_PEN","name":"Marine Le Pen","shortName":"Le Pen","votes":1707,"share":13.596176821983274}]},"2":{"code":"94079","name":"Villiers-sur-Marne","departmentCode":"94","registered":16868,"voters":11791,"expressed":10722,"blank":815,"invalid":254,"turnout":69.90158880720891,"abstention":30.098411192791087,"winnerId":"MACRON","runnerUpId":"LE_PEN","margin":44.45066218988995,"top":[{"id":"MACRON","name":"Emmanuel Macron","shortName":"Macron","votes":7744,"share":72.22533109494498},{"id":"LE_PEN","name":"Marine Le Pen","shortName":"Le Pen","votes":2978,"share":27.774668905055027}]}}},"geometry":{"type":"Polygon","coordinates":[[[485.27,409.63],[485.64,410.19],[486.63,409.2],[486.26,409.24],[485.27,409.63]]]}},{"type":"Feature","id":"94080","properties":{"code":"94080","name":"Vincennes","departmentCode":"94","rounds":{"1":{"code":"94080","name":"Vincennes","departmentCode":"94","registered":32777,"voters":27073,"expressed":26615,"blank":369,"invalid":89,"turnout":82.59755316227843,"abstention":17.402446837721573,"winnerId":"MACRON","runnerUpId":"MELENCHON","margin":16.911516062370843,"top":[{"id":"MACRON","name":"Emmanuel Macron","shortName":"Macron","votes":10383,"share":39.01183543114785},{"id":"MELENCHON","name":"Jean-Luc Mélenchon","shortName":"Mélenchon","votes":5882,"share":22.100319368777004},{"id":"JADOT","name":"Yannick Jadot","shortName":"Jadot","votes":2463,"share":9.254179973699042}]},"2":{"code":"94080","name":"Vincennes","departmentCode":"94","registered":32782,"voters":25939,"expressed":24141,"blank":1416,"invalid":382,"turnout":79.12573973522055,"abstention":20.87426026477945,"winnerId":"MACRON","runnerUpId":"LE_PEN","margin":68.20347127293816,"top":[{"id":"MACRON","name":"Emmanuel Macron","shortName":"Macron","votes":20303,"share":84.10173563646907},{"id":"LE_PEN","name":"Marine Le Pen","shortName":"Le Pen","votes":3838,"share":15.898264363530924}]}}},"geometry":{"type":"Polygon","coordinates":[[[482.26,410.35],[481.99,410.69],[482.85,410.77],[482.88,410.49],[482.26,410.35]]]}},{"type":"Feature","id":"94081","properties":{"code":"94081","name":"Vitry-sur-Seine","departmentCode":"94","rounds":{"1":{"code":"94081","name":"Vitry-sur-Seine","departmentCode":"94","registered":45843,"voters":31684,"expressed":31058,"blank":398,"invalid":228,"turnout":69.11415047008266,"abstention":30.885849529917326,"winnerId":"MELENCHON","runnerUpId":"MACRON","margin":22.435443364028593,"top":[{"id":"MELENCHON","name":"Jean-Luc Mélenchon","shortName":"Mélenchon","votes":14069,"share":45.299117779638095},{"id":"MACRON","name":"Emmanuel Macron","shortName":"Macron","votes":7101,"share":22.863674415609506},{"id":"LE_PEN","name":"Marine Le Pen","shortName":"Le Pen","votes":3757,"share":12.096722261575117}]},"2":{"code":"94081","name":"Vitry-sur-Seine","departmentCode":"94","registered":45826,"voters":28042,"expressed":25615,"blank":1828,"invalid":599,"turnout":61.19233622834199,"abstention":38.807663771658014,"winnerId":"MACRON","runnerUpId":"LE_PEN","margin":48.139761858286164,"top":[{"id":"MACRON","name":"Emmanuel Macron","shortName":"Macron","votes":18973,"share":74.06988092914308},{"id":"LE_PEN","name":"Marine Le Pen","shortName":"Le Pen","votes":6642,"share":25.93011907085692}]}}},"geometry":{"type":"Polygon","coordinates":[[[480.38,407.07],[480.35,407.4],[480.48,408.58],[481.66,408.8],[481.84,407.29],[481.34,407.2],[480.38,407.07]]]}}]}