{"type":"FeatureCollection","features":[{"type":"Feature","id":"97201","properties":{"code":"97201","name":"L'Ajoupa-Bouillon","departmentCode":"972","rounds":{"1":{"code":"97201","name":"L'Ajoupa-Bouillon","departmentCode":"972","registered":1526,"voters":570,"expressed":526,"blank":21,"invalid":23,"turnout":37.352555701179554,"abstention":62.647444298820446,"winnerId":"MELENCHON","runnerUpId":"MACRON","margin":28.13688212927757,"top":[{"id":"MELENCHON","name":"Jean-Luc Mélenchon","shortName":"Mélenchon","votes":251,"share":47.71863117870723},{"id":"MACRON","name":"Emmanuel Macron","shortName":"Macron","votes":103,"share":19.581749049429657},{"id":"LE_PEN","name":"Marine Le Pen","shortName":"Le Pen","votes":82,"share":15.5893536121673}]},"2":{"code":"97201","name":"L'Ajoupa-Bouillon","departmentCode":"972","registered":1529,"voters":646,"expressed":563,"blank":49,"invalid":34,"turnout":42.249836494440814,"abstention":57.75016350555919,"winnerId":"LE_PEN","runnerUpId":"MACRON","margin":17.2291296625222,"top":[{"id":"LE_PEN","name":"Marine Le Pen","shortName":"Le Pen","votes":330,"share":58.614564831261106},{"id":"MACRON","name":"Emmanuel Macron","shortName":"Macron","votes":233,"share":41.3854351687389}]}}},"geometry":{"type":"Polygon","coordinates":[[[141.31,268.98],[139.4,269.74],[139.4,270.25],[142.19,269.36],[144.36,271.52],[147.91,272.15],[146.52,269.23],[144.23,268.09],[141.31,268.98]]]}},{"type":"Feature","id":"97202","properties":{"code":"97202","name":"Les Anses-d'Arlet","departmentCode":"972","rounds":{"1":{"code":"97202","name":"Les Anses-d'Arlet","departmentCode":"972","registered":3299,"voters":1243,"expressed":1183,"blank":26,"invalid":34,"turnout":37.67808426795999,"abstention":62.32191573204001,"winnerId":"MELENCHON","runnerUpId":"MACRON","margin":38.03888419273035,"top":[{"id":"MELENCHON","name":"Jean-Luc Mélenchon","shortName":"Mélenchon","votes":640,"share":54.09974640743872},{"id":"MACRON","name":"Emmanuel Macron","shortName":"Macron","votes":190,"share":16.06086221470837},{"id":"LE_PEN","name":"Marine Le Pen","shortName":"Le Pen","votes":158,"share":13.355874894336434}]},"2":{"code":"97202","name":"Les Anses-d'Arlet","departmentCode":"972","registered":3299,"voters":1423,"expressed":1259,"blank":88,"invalid":76,"turnout":43.13428311609579,"abstention":56.86571688390421,"winnerId":"LE_PEN","runnerUpId":"MACRON","margin":25.814138204924543,"top":[{"id":"LE_PEN","name":"Marine Le Pen","shortName":"Le Pen","votes":792,"share":62.90706910246227},{"id":"MACRON","name":"Emmanuel Macron","shortName":"Macron","votes":467,"share":37.09293089753773}]}}},"geometry":{"type":"Polygon","coordinates":[[[153.12,230.85],[153.51,224.5],[149.82,226.4],[150.07,228.69],[147.91,232.5],[150.84,235.3],[153.12,230.85]]]}},{"type":"Feature","id":"97203","properties":{"code":"97203","name":"Basse-Pointe","departmentCode":"972","rounds":{"1":{"code":"97203","name":"Basse-Pointe","departmentCode":"972","registered":3350,"voters":1203,"expressed":1126,"blank":39,"invalid":38,"turnout":35.91044776119403,"abstention":64.08955223880596,"winnerId":"MELENCHON","runnerUpId":"LE_PEN","margin":27.797513321492005,"top":[{"id":"MELENCHON","name":"Jean-Luc Mélenchon","shortName":"Mélenchon","votes":551,"share":48.93428063943161},{"id":"LE_PEN","name":"Marine Le Pen","shortName":"Le Pen","votes":238,"share":21.136767317939608},{"id":"MACRON","name":"Emmanuel Macron","shortName":"Macron","votes":165,"share":14.653641207815276}]},"2":{"code":"97203","name":"Basse-Pointe","departmentCode":"972","registered":3351,"voters":1434,"expressed":1253,"blank":116,"invalid":65,"turnout":42.79319606087735,"abstention":57.20680393912265,"winnerId":"LE_PEN","runnerUpId":"MACRON","margin":37.43016759776536,"top":[{"id":"LE_PEN","name":"Marine Le Pen","shortName":"Le Pen","votes":861,"share":68.71508379888269},{"id":"MACRON","name":"Emmanuel Macron","shortName":"Macron","votes":392,"share":31.28491620111732}]}}},"geometry":{"type":"Polygon","coordinates":[[[139.4,270.25],[139.4,270.25],[144.36,277.62],[149.69,274.95],[147.91,272.15],[144.36,271.52],[142.19,269.36],[139.4,270.25]]]}},{"type":"Feature","id":"97204","properties":{"code":"97204","name":"Le Carbet","departmentCode":"972","rounds":{"1":{"code":"97204","name":"Le Carbet","departmentCode":"972","registered":3152,"voters":1524,"expressed":1454,"blank":37,"invalid":33,"turnout":48.3502538071066,"abstention":51.649746192893396,"winnerId":"MELENCHON","runnerUpId":"MACRON","margin":32.46217331499312,"top":[{"id":"MELENCHON","name":"Jean-Luc Mélenchon","shortName":"Mélenchon","votes":751,"share":51.65061898211829},{"id":"MACRON","name":"Emmanuel Macron","shortName":"Macron","votes":279,"share":19.188445667125173},{"id":"LE_PEN","name":"Marine Le Pen","shortName":"Le Pen","votes":156,"share":10.729023383768913}]},"2":{"code":"97204","name":"Le Carbet","departmentCode":"972","registered":3151,"voters":1534,"expressed":1308,"blank":139,"invalid":87,"turnout":48.68295779117741,"abstention":51.31704220882259,"winnerId":"LE_PEN","runnerUpId":"MACRON","margin":7.033639143730887,"top":[{"id":"LE_PEN","name":"Marine Le Pen","shortName":"Le Pen","votes":700,"share":53.51681957186545},{"id":"MACRON","name":"Emmanuel Macron","shortName":"Macron","votes":608,"share":46.48318042813456}]}}},"geometry":{"type":"Polygon","coordinates":[[[140.42,259.7],[144.74,257.92],[140.16,257.29],[140.67,254.74],[138.89,252.33],[136.86,257.16],[137.49,259.7],[140.42,259.7]]]}},{"type":"Feature","id":"97205","properties":{"code":"97205","name":"Case-Pilote","departmentCode":"972","rounds":{"1":{"code":"97205","name":"Case-Pilote","departmentCode":"972","registered":3430,"voters":1765,"expressed":1710,"blank":34,"invalid":21,"turnout":51.45772594752187,"abstention":48.542274052478135,"winnerId":"MELENCHON","runnerUpId":"MACRON","margin":35.43859649122807,"top":[{"id":"MELENCHON","name":"Jean-Luc Mélenchon","shortName":"Mélenchon","votes":914,"share":53.45029239766082},{"id":"MACRON","name":"Emmanuel Macron","shortName":"Macron","votes":308,"share":18.01169590643275},{"id":"LE_PEN","name":"Marine Le Pen","shortName":"Le Pen","votes":168,"share":9.824561403508772}]},"2":{"code":"97205","name":"Case-Pilote","departmentCode":"972","registered":3432,"voters":1743,"expressed":1502,"blank":167,"invalid":74,"turnout":50.786713286713294,"abstention":49.21328671328671,"winnerId":"LE_PEN","runnerUpId":"MACRON","margin":0.9320905459387484,"top":[{"id":"LE_PEN","name":"Marine Le Pen","shortName":"Le Pen","votes":758,"share":50.466045272969374},{"id":"MACRON","name":"Emmanuel Macron","shortName":"Macron","votes":744,"share":49.533954727030626}]}}},"geometry":{"type":"Polygon","coordinates":[[[140.67,249.91],[143.85,251.44],[144.48,254.24],[145.5,254.36],[146.52,249.53],[145.24,246.36],[142.96,247.12],[140.67,249.91]]]}},{"type":"Feature","id":"97206","properties":{"code":"97206","name":"Le Diamant","departmentCode":"972","rounds":{"1":{"code":"97206","name":"Le Diamant","departmentCode":"972","registered":5250,"voters":2390,"expressed":2312,"blank":34,"invalid":44,"turnout":45.52380952380952,"abstention":54.47619047619048,"winnerId":"MELENCHON","runnerUpId":"MACRON","margin":31.920415224913494,"top":[{"id":"MELENCHON","name":"Jean-Luc Mélenchon","shortName":"Mélenchon","votes":1161,"share":50.21626297577855},{"id":"MACRON","name":"Emmanuel Macron","shortName":"Macron","votes":423,"share":18.29584775086505},{"id":"LE_PEN","name":"Marine Le Pen","shortName":"Le Pen","votes":276,"share":11.937716262975778}]},"2":{"code":"97206","name":"Le Diamant","departmentCode":"972","registered":5250,"voters":2410,"expressed":2119,"blank":145,"invalid":146,"turnout":45.904761904761905,"abstention":54.095238095238095,"winnerId":"LE_PEN","runnerUpId":"MACRON","margin":8.541764983482775,"top":[{"id":"LE_PEN","name":"Marine Le Pen","shortName":"Le Pen","votes":1150,"share":54.27088249174139},{"id":"MACRON","name":"Emmanuel Macron","shortName":"Macron","votes":969,"share":45.72911750825861}]}}},"geometry":{"type":"Polygon","coordinates":[[[162.4,230.22],[162.27,228.31],[161.51,226.02],[157.83,227.67],[154.52,226.28],[153.51,224.5],[153.12,230.85],[159.73,231.23],[162.4,230.22]]]}},{"type":"Feature","id":"97207","properties":{"code":"97207","name":"Ducos","departmentCode":"972","rounds":{"1":{"code":"97207","name":"Ducos","departmentCode":"972","registered":13308,"voters":6251,"expressed":5931,"blank":146,"invalid":174,"turnout":46.97174631800421,"abstention":53.02825368199579,"winnerId":"MELENCHON","runnerUpId":"MACRON","margin":37.481031866464335,"top":[{"id":"MELENCHON","name":"Jean-Luc Mélenchon","shortName":"Mélenchon","votes":3075,"share":51.84623166413759},{"id":"MACRON","name":"Emmanuel Macron","shortName":"Macron","votes":852,"share":14.365199797673242},{"id":"LE_PEN","name":"Marine Le Pen","shortName":"Le Pen","votes":720,"share":12.139605462822459}]},"2":{"code":"97207","name":"Ducos","departmentCode":"972","registered":13309,"voters":6511,"expressed":5565,"blank":521,"invalid":425,"turnout":48.92178225261101,"abstention":51.07821774738899,"winnerId":"LE_PEN","runnerUpId":"MACRON","margin":28.33782569631626,"top":[{"id":"LE_PEN","name":"Marine Le Pen","shortName":"Le Pen","votes":3571,"share":64.16891284815813},{"id":"MACRON","name":"Emmanuel Macron","shortName":"Macron","votes":1994,"share":35.83108715184187}]}}},"geometry":{"type":"Polygon","coordinates":[[[166.09,237.08],[162.78,236.57],[159.99,237.97],[161,240.76],[164.69,243.94],[166.98,243.69],[168.37,241.27],[166.09,237.08]]]}},{"type":"Feature","id":"97208","properties":{"code":"97208","name":"Fonds-Saint-Denis","departmentCode":"972","rounds":{"1":{"code":"97208","name":"Fonds-Saint-Denis","departmentCode":"972","registered":675,"voters":265,"expressed":248,"blank":8,"invalid":9,"turnout":39.25925925925926,"abstention":60.74074074074074,"winnerId":"MELENCHON","runnerUpId":"MACRON","margin":30.64516129032258,"top":[{"id":"MELENCHON","name":"Jean-Luc Mélenchon","shortName":"Mélenchon","votes":123,"share":49.596774193548384},{"id":"MACRON","name":"Emmanuel Macron","shortName":"Macron","votes":47,"share":18.951612903225808},{"id":"LE_PEN","name":"Marine Le Pen","shortName":"Le Pen","votes":39,"share":15.725806451612904}]},"2":{"code":"97208","name":"Fonds-Saint-Denis","departmentCode":"972","registered":675,"voters":293,"expressed":261,"blank":18,"invalid":14,"turnout":43.407407407407405,"abstention":56.592592592592595,"winnerId":"LE_PEN","runnerUpId":"MACRON","margin":25.67049808429119,"top":[{"id":"LE_PEN","name":"Marine Le Pen","shortName":"Le Pen","votes":164,"share":62.83524904214559},{"id":"MACRON","name":"Emmanuel Macron","shortName":"Macron","votes":97,"share":37.16475095785441}]}}},"geometry":{"type":"Polygon","coordinates":[[[149.44,258.68],[149.57,256.52],[147.41,255],[145.88,255.89],[144.74,257.92],[140.42,259.7],[143.34,261.35],[146.39,260.34],[149.18,260.97],[150.2,258.94],[149.44,258.68]]]}},{"type":"Feature","id":"97209","properties":{"code":"97209","name":"Fort-de-France","departmentCode":"972","rounds":{"1":{"code":"97209","name":"Fort-de-France","departmentCode":"972","registered":60281,"voters":25502,"expressed":24131,"blank":840,"invalid":531,"turnout":42.305203961447226,"abstention":57.694796038552774,"winnerId":"MELENCHON","runnerUpId":"MACRON","margin":38.651527081347645,"top":[{"id":"MELENCHON","name":"Jean-Luc Mélenchon","shortName":"Mélenchon","votes":13229,"share":54.82159877336207},{"id":"MACRON","name":"Emmanuel Macron","shortName":"Macron","votes":3902,"share":16.17007169201442},{"id":"LE_PEN","name":"Marine Le Pen","shortName":"Le Pen","votes":2734,"share":11.329824706808669}]},"2":{"code":"97209","name":"Fort-de-France","departmentCode":"972","registered":60299,"voters":26477,"expressed":22591,"blank":2522,"invalid":1364,"turnout":43.909517570772316,"abstention":56.090482429227684,"winnerId":"LE_PEN","runnerUpId":"MACRON","margin":15.603558939400648,"top":[{"id":"LE_PEN","name":"Marine Le Pen","shortName":"Le Pen","votes":13058,"share":57.80177946970032},{"id":"MACRON","name":"Emmanuel Macron","shortName":"Macron","votes":9533,"share":42.19822053029968}]}}},"geometry":{"type":"Polygon","coordinates":[[[148.68,242.8],[149.82,247.63],[147.91,250.8],[147.41,255],[149.57,256.52],[149.57,252.71],[155.28,248.26],[155.54,243.94],[148.68,242.8]]]}},{"type":"Feature","id":"97210","properties":{"code":"97210","name":"Le François","departmentCode":"972","rounds":{"1":{"code":"97210","name":"Le François","departmentCode":"972","registered":16212,"voters":6792,"expressed":6398,"blank":240,"invalid":154,"turnout":41.89489267209475,"abstention":58.10510732790526,"winnerId":"MELENCHON","runnerUpId":"MACRON","margin":38.01187871209753,"top":[{"id":"MELENCHON","name":"Jean-Luc Mélenchon","shortName":"Mélenchon","votes":3333,"share":52.094404501406686},{"id":"MACRON","name":"Emmanuel Macron","shortName":"Macron","votes":901,"share":14.082525789309159},{"id":"LE_PEN","name":"Marine Le Pen","shortName":"Le Pen","votes":900,"share":14.066895904970304}]},"2":{"code":"97210","name":"Le François","departmentCode":"972","registered":16214,"voters":7526,"expressed":6575,"blank":544,"invalid":407,"turnout":46.41667694584927,"abstention":53.58332305415073,"winnerId":"LE_PEN","runnerUpId":"MACRON","margin":31.680608365019015,"top":[{"id":"LE_PEN","name":"Marine Le Pen","shortName":"Le Pen","votes":4329,"share":65.8403041825095},{"id":"MACRON","name":"Emmanuel Macron","shortName":"Macron","votes":2246,"share":34.159695817490494}]}}},"geometry":{"type":"Polygon","coordinates":[[[179.3,240.89],[173.46,238.1],[168.37,241.27],[166.98,243.69],[166.72,247.12],[169.52,247.12],[171.42,249.66],[173.71,249.15],[173.2,245.34],[176.89,243.43],[179.3,240.89]]]}},{"type":"Feature","id":"97211","properties":{"code":"97211","name":"Grand'Rivière","departmentCode":"972","rounds":{"1":{"code":"97211","name":"Grand'Rivière","departmentCode":"972","registered":725,"voters":253,"expressed":242,"blank":8,"invalid":3,"turnout":34.89655172413793,"abstention":65.10344827586206,"winnerId":"MELENCHON","runnerUpId":"MACRON","margin":36.36363636363637,"top":[{"id":"MELENCHON","name":"Jean-Luc Mélenchon","shortName":"Mélenchon","votes":133,"share":54.958677685950406},{"id":"MACRON","name":"Emmanuel Macron","shortName":"Macron","votes":45,"share":18.59504132231405},{"id":"LE_PEN","name":"Marine Le Pen","shortName":"Le Pen","votes":34,"share":14.049586776859504}]},"2":{"code":"97211","name":"Grand'Rivière","departmentCode":"972","registered":726,"voters":272,"expressed":250,"blank":13,"invalid":9,"turnout":37.46556473829201,"abstention":62.53443526170799,"winnerId":"LE_PEN","runnerUpId":"MACRON","margin":28.799999999999997,"top":[{"id":"LE_PEN","name":"Marine Le Pen","shortName":"Le Pen","votes":161,"share":64.4},{"id":"MACRON","name":"Emmanuel Macron","shortName":"Macron","votes":89,"share":35.6}]}}},"geometry":{"type":"Polygon","coordinates":[[[134.32,276.09],[139.14,278],[139.02,270.37],[135.84,272.28],[134.32,276.09]]]}},{"type":"Feature","id":"97212","properties":{"code":"97212","name":"Gros-Morne","departmentCode":"972","rounds":{"1":{"code":"97212","name":"Gros-Morne","departmentCode":"972","registered":8143,"voters":3287,"expressed":3084,"blank":124,"invalid":79,"turnout":40.365958491956285,"abstention":59.63404150804372,"winnerId":"MELENCHON","runnerUpId":"LE_PEN","margin":32.1011673151751,"top":[{"id":"MELENCHON","name":"Jean-Luc Mélenchon","shortName":"Mélenchon","votes":1562,"share":50.648508430609596},{"id":"LE_PEN","name":"Marine Le Pen","shortName":"Le Pen","votes":572,"share":18.547341115434502},{"id":"MACRON","name":"Emmanuel Macron","shortName":"Macron","votes":487,"share":15.791180285343708}]},"2":{"code":"97212","name":"Gros-Morne","departmentCode":"972","registered":8145,"voters":3695,"expressed":3262,"blank":264,"invalid":169,"turnout":45.36525475751995,"abstention":54.63474524248005,"winnerId":"LE_PEN","runnerUpId":"MACRON","margin":33.78295524218271,"top":[{"id":"LE_PEN","name":"Marine Le Pen","shortName":"Le Pen","votes":2182,"share":66.89147762109135},{"id":"MACRON","name":"Emmanuel Macron","shortName":"Macron","votes":1080,"share":33.108522378908646}]}}},"geometry":{"type":"Polygon","coordinates":[[[149.44,258.68],[150.2,258.94],[153.63,261.1],[157.44,259.95],[161.77,258.17],[163.16,255.25],[161.64,253.47],[161,252.07],[153,255.76],[149.44,258.68]]]}},{"type":"Feature","id":"97213","properties":{"code":"97213","name":"Le Lamentin","departmentCode":"972","rounds":{"1":{"code":"97213","name":"Le Lamentin","departmentCode":"972","registered":27390,"voters":12528,"expressed":11916,"blank":372,"invalid":240,"turnout":45.739320920043816,"abstention":54.260679079956184,"winnerId":"MELENCHON","runnerUpId":"MACRON","margin":41.012084592145015,"top":[{"id":"MELENCHON","name":"Jean-Luc Mélenchon","shortName":"Mélenchon","votes":6624,"share":55.58912386706949},{"id":"MACRON","name":"Emmanuel Macron","shortName":"Macron","votes":1737,"share":14.577039274924472},{"id":"LE_PEN","name":"Marine Le Pen","shortName":"Le Pen","votes":1597,"share":13.402148371936892}]},"2":{"code":"97213","name":"Le Lamentin","departmentCode":"972","registered":27406,"voters":12861,"expressed":11146,"blank":1132,"invalid":583,"turnout":46.927680070057654,"abstention":53.072319929942346,"winnerId":"LE_PEN","runnerUpId":"MACRON","margin":25.390274537950834,"top":[{"id":"LE_PEN","name":"Marine Le Pen","shortName":"Le Pen","votes":6988,"share":62.69513726897542},{"id":"MACRON","name":"Emmanuel Macron","shortName":"Macron","votes":4158,"share":37.304862731024585}]}}},"geometry":{"type":"Polygon","coordinates":[[[155.28,248.26],[159.61,250.17],[161,252.07],[161.64,253.47],[165.45,249.91],[166.72,247.12],[166.98,243.69],[164.69,243.94],[161,240.76],[159.99,237.97],[158.97,240.64],[159.22,244.32],[155.54,243.94],[155.28,248.26]]]}},{"type":"Feature","id":"97214","properties":{"code":"97214","name":"Le Lorrain","departmentCode":"972","rounds":{"1":{"code":"97214","name":"Le Lorrain","departmentCode":"972","registered":6559,"voters":2672,"expressed":2440,"blank":121,"invalid":111,"turnout":40.737917365452056,"abstention":59.26208263454795,"winnerId":"MELENCHON","runnerUpId":"LE_PEN","margin":27.581967213114755,"top":[{"id":"MELENCHON","name":"Jean-Luc Mélenchon","shortName":"Mélenchon","votes":1142,"share":46.80327868852459},{"id":"LE_PEN","name":"Marine Le Pen","shortName":"Le Pen","votes":469,"share":19.221311475409834},{"id":"MACRON","name":"Emmanuel Macron","shortName":"Macron","votes":440,"share":18.0327868852459}]},"2":{"code":"97214","name":"Le Lorrain","departmentCode":"972","registered":6560,"voters":3169,"expressed":2785,"blank":189,"invalid":195,"turnout":48.3079268292683,"abstention":51.69207317073171,"winnerId":"LE_PEN","runnerUpId":"MACRON","margin":31.34649910233393,"top":[{"id":"LE_PEN","name":"Marine Le Pen","shortName":"Le Pen","votes":1829,"share":65.67324955116696},{"id":"MACRON","name":"Emmanuel Macron","shortName":"Macron","votes":956,"share":34.32675044883303}]}}},"geometry":{"type":"Polygon","coordinates":[[[146.52,269.23],[147.91,272.15],[149.69,274.95],[153.38,272.41],[155.16,272.28],[153.38,268.09],[152.11,262.11],[149.31,261.48],[147.66,264.66],[146.52,269.23]]]}},{"type":"Feature","id":"97215","properties":{"code":"97215","name":"Macouba","departmentCode":"972","rounds":{"1":{"code":"97215","name":"Macouba","departmentCode":"972","registered":1010,"voters":289,"expressed":270,"blank":15,"invalid":4,"turnout":28.613861386138613,"abstention":71.38613861386138,"winnerId":"MELENCHON","runnerUpId":"LE_PEN","margin":21.85185185185185,"top":[{"id":"MELENCHON","name":"Jean-Luc Mélenchon","shortName":"Mélenchon","votes":128,"share":47.40740740740741},{"id":"LE_PEN","name":"Marine Le Pen","shortName":"Le Pen","votes":69,"share":25.555555555555554},{"id":"MACRON","name":"Emmanuel Macron","shortName":"Macron","votes":27,"share":10}]},"2":{"code":"97215","name":"Macouba","departmentCode":"972","registered":1010,"voters":353,"expressed":326,"blank":12,"invalid":15,"turnout":34.95049504950495,"abstention":65.04950495049505,"winnerId":"LE_PEN","runnerUpId":"MACRON","margin":50.920245398773,"top":[{"id":"LE_PEN","name":"Marine Le Pen","shortName":"Le Pen","votes":246,"share":75.4601226993865},{"id":"MACRON","name":"Emmanuel Macron","shortName":"Macron","votes":80,"share":24.539877300613497}]}}},"geometry":{"type":"Polygon","coordinates":[[[139.4,270.25],[139.02,270.37],[139.14,278],[144.36,277.62],[139.4,270.25]]]}},{"type":"Feature","id":"97216","properties":{"code":"97216","name":"Le Marigot","departmentCode":"972","rounds":{"1":{"code":"97216","name":"Le Marigot","departmentCode":"972","registered":3150,"voters":1146,"expressed":1049,"blank":51,"invalid":46,"turnout":36.38095238095238,"abstention":63.61904761904762,"winnerId":"MELENCHON","runnerUpId":"MACRON","margin":30.981887511916113,"top":[{"id":"MELENCHON","name":"Jean-Luc Mélenchon","shortName":"Mélenchon","votes":526,"share":50.14299332697807},{"id":"MACRON","name":"Emmanuel Macron","shortName":"Macron","votes":201,"share":19.161105815061962},{"id":"LE_PEN","name":"Marine Le Pen","shortName":"Le Pen","votes":169,"share":16.11058150619638}]},"2":{"code":"97216","name":"Le Marigot","departmentCode":"972","registered":3153,"voters":1336,"expressed":1156,"blank":89,"invalid":91,"turnout":42.37234379955598,"abstention":57.62765620044402,"winnerId":"LE_PEN","runnerUpId":"MACRON","margin":25.77854671280277,"top":[{"id":"LE_PEN","name":"Marine Le Pen","shortName":"Le Pen","votes":727,"share":62.88927335640139},{"id":"MACRON","name":"Emmanuel Macron","shortName":"Macron","votes":429,"share":37.11072664359862}]}}},"geometry":{"type":"Polygon","coordinates":[[[157.83,269.49],[154.27,266.31],[153.63,261.1],[150.2,258.94],[149.18,260.97],[149.31,261.48],[152.11,262.11],[153.38,268.09],[155.16,272.28],[157.83,269.49]]]}},{"type":"Feature","id":"97217","properties":{"code":"97217","name":"Le Marin","departmentCode":"972","rounds":{"1":{"code":"97217","name":"Le Marin","departmentCode":"972","registered":6873,"voters":2560,"expressed":2424,"blank":86,"invalid":50,"turnout":37.24719918521752,"abstention":62.75280081478248,"winnerId":"MELENCHON","runnerUpId":"MACRON","margin":38.49009900990099,"top":[{"id":"MELENCHON","name":"Jean-Luc Mélenchon","shortName":"Mélenchon","votes":1344,"share":55.44554455445545},{"id":"MACRON","name":"Emmanuel Macron","shortName":"Macron","votes":411,"share":16.955445544554458},{"id":"LE_PEN","name":"Marine Le Pen","shortName":"Le Pen","votes":305,"share":12.582508250825084}]},"2":{"code":"97217","name":"Le Marin","departmentCode":"972","registered":6874,"voters":2845,"expressed":2453,"blank":245,"invalid":147,"turnout":41.38783823101542,"abstention":58.612161768984585,"winnerId":"LE_PEN","runnerUpId":"MACRON","margin":18.874847125968202,"top":[{"id":"LE_PEN","name":"Marine Le Pen","shortName":"Le Pen","votes":1458,"share":59.4374235629841},{"id":"MACRON","name":"Emmanuel Macron","shortName":"Macron","votes":995,"share":40.5625764370159}]}}},"geometry":{"type":"Polygon","coordinates":[[[172.06,224.63],[177.4,232],[182.61,229.96],[182.61,226.4],[178.03,225.77],[175.24,226.15],[172.06,224.63]]]}},{"type":"Feature","id":"97218","properties":{"code":"97218","name":"Le Morne-Rouge","departmentCode":"972","rounds":{"1":{"code":"97218","name":"Le Morne-Rouge","departmentCode":"972","registered":4264,"voters":1745,"expressed":1629,"blank":75,"invalid":41,"turnout":40.92401500938087,"abstention":59.07598499061913,"winnerId":"MELENCHON","runnerUpId":"MACRON","margin":24.3707796193984,"top":[{"id":"MELENCHON","name":"Jean-Luc Mélenchon","shortName":"Mélenchon","votes":740,"share":45.42664211172499},{"id":"MACRON","name":"Emmanuel Macron","shortName":"Macron","votes":343,"share":21.05586249232658},{"id":"LE_PEN","name":"Marine Le Pen","shortName":"Le Pen","votes":271,"share":16.63597298956415}]},"2":{"code":"97218","name":"Le Morne-Rouge","departmentCode":"972","registered":4259,"voters":1890,"expressed":1684,"blank":123,"invalid":83,"turnout":44.376614228692176,"abstention":55.623385771307824,"winnerId":"LE_PEN","runnerUpId":"MACRON","margin":15.795724465558195,"top":[{"id":"LE_PEN","name":"Marine Le Pen","shortName":"Le Pen","votes":975,"share":57.8978622327791},{"id":"MACRON","name":"Emmanuel Macron","shortName":"Macron","votes":709,"share":42.1021377672209}]}}},"geometry":{"type":"Polygon","coordinates":[[[149.18,260.97],[146.39,260.34],[143.34,261.35],[140.03,263.13],[141.69,265.67],[141.31,268.98],[144.23,268.09],[146.52,269.23],[147.66,264.66],[149.31,261.48],[149.18,260.97]]]}},{"type":"Feature","id":"97219","properties":{"code":"97219","name":"Le Prêcheur","departmentCode":"972","rounds":{"1":{"code":"97219","name":"Le Prêcheur","departmentCode":"972","registered":1448,"voters":548,"expressed":538,"blank":8,"invalid":2,"turnout":37.84530386740331,"abstention":62.15469613259669,"winnerId":"MELENCHON","runnerUpId":"LE_PEN","margin":38.10408921933085,"top":[{"id":"MELENCHON","name":"Jean-Luc Mélenchon","shortName":"Mélenchon","votes":307,"share":57.06319702602231},{"id":"LE_PEN","name":"Marine Le Pen","shortName":"Le Pen","votes":102,"share":18.95910780669145},{"id":"MACRON","name":"Emmanuel Macron","shortName":"Macron","votes":66,"share":12.267657992565056}]},"2":{"code":"97219","name":"Le Prêcheur","departmentCode":"972","registered":1448,"voters":593,"expressed":538,"blank":35,"invalid":20,"turnout":40.95303867403315,"abstention":59.04696132596685,"winnerId":"LE_PEN","runnerUpId":"MACRON","margin":37.54646840148699,"top":[{"id":"LE_PEN","name":"Marine Le Pen","shortName":"Le Pen","votes":370,"share":68.77323420074349},{"id":"MACRON","name":"Emmanuel Macron","shortName":"Macron","votes":168,"share":31.226765799256505}]}}},"geometry":{"type":"Polygon","coordinates":[[[139.02,270.37],[139.4,270.25],[139.4,270.25],[139.4,269.74],[133.81,267.32],[133.04,265.93],[131.39,268.47],[131.52,272.28],[134.32,276.09],[135.84,272.28],[139.02,270.37]]]}},{"type":"Feature","id":"97220","properties":{"code":"97220","name":"Rivière-Pilote","departmentCode":"972","rounds":{"1":{"code":"97220","name":"Rivière-Pilote","departmentCode":"972","registered":10976,"voters":3605,"expressed":3399,"blank":122,"invalid":84,"turnout":32.84438775510204,"abstention":67.15561224489795,"winnerId":"MELENCHON","runnerUpId":"LE_PEN","margin":55.51632833186231,"top":[{"id":"MELENCHON","name":"Jean-Luc Mélenchon","shortName":"Mélenchon","votes":2283,"share":67.16681376875552},{"id":"LE_PEN","name":"Marine Le Pen","shortName":"Le Pen","votes":396,"share":11.650485436893204},{"id":"MACRON","name":"Emmanuel Macron","shortName":"Macron","votes":353,"share":10.385407472786113}]},"2":{"code":"97220","name":"Rivière-Pilote","departmentCode":"972","registered":10974,"voters":3992,"expressed":3441,"blank":312,"invalid":239,"turnout":36.37689083287771,"abstention":63.623109167122294,"winnerId":"LE_PEN","runnerUpId":"MACRON","margin":41.99360650973554,"top":[{"id":"LE_PEN","name":"Marine Le Pen","shortName":"Le Pen","votes":2443,"share":70.99680325486777},{"id":"MACRON","name":"Emmanuel Macron","shortName":"Macron","votes":998,"share":29.003196745132232}]}}},"geometry":{"type":"Polygon","coordinates":[[[177.4,232],[172.06,224.63],[171.55,226.15],[171.17,228.95],[169.26,232.38],[169.77,234.92],[171.93,234.41],[174.09,236.19],[176.89,234.16],[177.4,232]]]}},{"type":"Feature","id":"97221","properties":{"code":"97221","name":"Rivière-Salée","departmentCode":"972","rounds":{"1":{"code":"97221","name":"Rivière-Salée","departmentCode":"972","registered":10240,"voters":4174,"expressed":3936,"blank":135,"invalid":103,"turnout":40.76171875,"abstention":59.23828125,"winnerId":"MELENCHON","runnerUpId":"MACRON","margin":40.92987804878049,"top":[{"id":"MELENCHON","name":"Jean-Luc Mélenchon","shortName":"Mélenchon","votes":2201,"share":55.91971544715447},{"id":"MACRON","name":"Emmanuel Macron","shortName":"Macron","votes":590,"share":14.989837398373984},{"id":"LE_PEN","name":"Marine Le Pen","shortName":"Le Pen","votes":480,"share":12.195121951219512}]},"2":{"code":"97221","name":"Rivière-Salée","departmentCode":"972","registered":10247,"voters":4517,"expressed":3875,"blank":379,"invalid":263,"turnout":44.08119449595003,"abstention":55.91880550404996,"winnerId":"LE_PEN","runnerUpId":"MACRON","margin":25.367741935483874,"top":[{"id":"LE_PEN","name":"Marine Le Pen","shortName":"Le Pen","votes":2429,"share":62.68387096774194},{"id":"MACRON","name":"Emmanuel Macron","shortName":"Macron","votes":1446,"share":37.31612903225807}]}}},"geometry":{"type":"Polygon","coordinates":[[[162.78,236.57],[166.09,237.08],[169.77,234.92],[169.26,232.38],[168.63,230.85],[165.32,229.71],[162.4,230.22],[159.73,231.23],[159.86,234.16],[162.78,236.57]]]}},{"type":"Feature","id":"97222","properties":{"code":"97222","name":"Le Robert","departmentCode":"972","rounds":{"1":{"code":"97222","name":"Le Robert","departmentCode":"972","registered":18091,"voters":7945,"expressed":7466,"blank":248,"invalid":231,"turnout":43.91686473937317,"abstention":56.083135260626825,"winnerId":"MELENCHON","runnerUpId":"LE_PEN","margin":37.11492097508706,"top":[{"id":"MELENCHON","name":"Jean-Luc Mélenchon","shortName":"Mélenchon","votes":3943,"share":52.812751138494505},{"id":"LE_PEN","name":"Marine Le Pen","shortName":"Le Pen","votes":1172,"share":15.697830163407447},{"id":"MACRON","name":"Emmanuel Macron","shortName":"Macron","votes":1121,"share":15.014733458344494}]},"2":{"code":"97222","name":"Le Robert","departmentCode":"972","registered":18103,"voters":8519,"expressed":7331,"blank":663,"invalid":525,"turnout":47.05849859139369,"abstention":52.94150140860631,"winnerId":"LE_PEN","runnerUpId":"MACRON","margin":30.132314827445093,"top":[{"id":"LE_PEN","name":"Marine Le Pen","shortName":"Le Pen","votes":4770,"share":65.06615741372255},{"id":"MACRON","name":"Emmanuel Macron","shortName":"Macron","votes":2561,"share":34.93384258627745}]}}},"geometry":{"type":"Polygon","coordinates":[[[161.64,253.47],[163.16,255.25],[169.26,257.67],[171.68,255.51],[168.25,253.35],[169.14,249.66],[171.3,251.06],[173.71,249.15],[171.42,249.66],[169.52,247.12],[166.72,247.12],[165.45,249.91],[161.64,253.47]]]}},{"type":"Feature","id":"97223","properties":{"code":"97223","name":"Saint-Esprit","departmentCode":"972","rounds":{"1":{"code":"97223","name":"Saint-Esprit","departmentCode":"972","registered":7540,"voters":2979,"expressed":2845,"blank":73,"invalid":61,"turnout":39.50928381962865,"abstention":60.49071618037135,"winnerId":"MELENCHON","runnerUpId":"LE_PEN","margin":45.09666080843585,"top":[{"id":"MELENCHON","name":"Jean-Luc Mélenchon","shortName":"Mélenchon","votes":1649,"share":57.96133567662566},{"id":"LE_PEN","name":"Marine Le Pen","shortName":"Le Pen","votes":366,"share":12.864674868189807},{"id":"MACRON","name":"Emmanuel Macron","shortName":"Macron","votes":360,"share":12.65377855887522}]},"2":{"code":"97223","name":"Saint-Esprit","departmentCode":"972","registered":7540,"voters":3248,"expressed":2818,"blank":239,"invalid":191,"turnout":43.07692307692308,"abstention":56.92307692307692,"winnerId":"LE_PEN","runnerUpId":"MACRON","margin":33.427963094393185,"top":[{"id":"LE_PEN","name":"Marine Le Pen","shortName":"Le Pen","votes":1880,"share":66.71398154719658},{"id":"MACRON","name":"Emmanuel Macron","shortName":"Macron","votes":938,"share":33.286018452803404}]}}},"geometry":{"type":"Polygon","coordinates":[[[168.37,241.27],[173.46,238.1],[174.09,236.19],[171.93,234.41],[169.77,234.92],[166.09,237.08],[168.37,241.27]]]}},{"type":"Feature","id":"97224","properties":{"code":"97224","name":"Saint-Joseph","departmentCode":"972","rounds":{"1":{"code":"97224","name":"Saint-Joseph","departmentCode":"972","registered":12205,"voters":5301,"expressed":5016,"blank":160,"invalid":125,"turnout":43.43301925440393,"abstention":56.56698074559606,"winnerId":"MELENCHON","runnerUpId":"MACRON","margin":38.197767145135565,"top":[{"id":"MELENCHON","name":"Jean-Luc Mélenchon","shortName":"Mélenchon","votes":2672,"share":53.2695374800638},{"id":"MACRON","name":"Emmanuel Macron","shortName":"Macron","votes":756,"share":15.07177033492823},{"id":"LE_PEN","name":"Marine Le Pen","shortName":"Le Pen","votes":737,"share":14.692982456140353}]},"2":{"code":"97224","name":"Saint-Joseph","departmentCode":"972","registered":12204,"voters":5568,"expressed":4911,"blank":433,"invalid":224,"turnout":45.624385447394296,"abstention":54.3756145526057,"winnerId":"LE_PEN","runnerUpId":"MACRON","margin":28.40562003665241,"top":[{"id":"LE_PEN","name":"Marine Le Pen","shortName":"Le Pen","votes":3153,"share":64.2028100183262},{"id":"MACRON","name":"Emmanuel Macron","shortName":"Macron","votes":1758,"share":35.797189981673796}]}}},"geometry":{"type":"Polygon","coordinates":[[[161,252.07],[159.61,250.17],[155.28,248.26],[149.57,252.71],[149.57,256.52],[149.44,258.68],[153,255.76],[161,252.07]]]}},{"type":"Feature","id":"97225","properties":{"code":"97225","name":"Saint-Pierre","departmentCode":"972","rounds":{"1":{"code":"97225","name":"Saint-Pierre","departmentCode":"972","registered":3756,"voters":1577,"expressed":1492,"blank":48,"invalid":37,"turnout":41.98615548455804,"abstention":58.01384451544196,"winnerId":"MELENCHON","runnerUpId":"MACRON","margin":31.702412868632706,"top":[{"id":"MELENCHON","name":"Jean-Luc Mélenchon","shortName":"Mélenchon","votes":771,"share":51.67560321715817},{"id":"MACRON","name":"Emmanuel Macron","shortName":"Macron","votes":298,"share":19.973190348525467},{"id":"LE_PEN","name":"Marine Le Pen","shortName":"Le Pen","votes":236,"share":15.81769436997319}]},"2":{"code":"97225","name":"Saint-Pierre","departmentCode":"972","registered":3758,"voters":1687,"expressed":1499,"blank":102,"invalid":86,"turnout":44.89089941458222,"abstention":55.10910058541778,"winnerId":"LE_PEN","runnerUpId":"MACRON","margin":28.619079386257507,"top":[{"id":"LE_PEN","name":"Marine Le Pen","shortName":"Le Pen","votes":964,"share":64.30953969312874},{"id":"MACRON","name":"Emmanuel Macron","shortName":"Macron","votes":535,"share":35.690460306871245}]}}},"geometry":{"type":"Polygon","coordinates":[[[133.04,265.93],[133.81,267.32],[139.4,269.74],[141.31,268.98],[141.69,265.67],[140.03,263.13],[143.34,261.35],[140.42,259.7],[137.49,259.7],[137.75,261.22],[133.04,265.93]]]}},{"type":"Feature","id":"97226","properties":{"code":"97226","name":"Sainte-Anne","departmentCode":"972","rounds":{"1":{"code":"97226","name":"Sainte-Anne","departmentCode":"972","registered":4315,"voters":1564,"expressed":1488,"blank":52,"invalid":24,"turnout":36.24565469293163,"abstention":63.75434530706836,"winnerId":"MELENCHON","runnerUpId":"MACRON","margin":34.74462365591398,"top":[{"id":"MELENCHON","name":"Jean-Luc Mélenchon","shortName":"Mélenchon","votes":758,"share":50.94086021505376},{"id":"MACRON","name":"Emmanuel Macron","shortName":"Macron","votes":241,"share":16.196236559139784},{"id":"LE_PEN","name":"Marine Le Pen","shortName":"Le Pen","votes":230,"share":15.456989247311828}]},"2":{"code":"97226","name":"Sainte-Anne","departmentCode":"972","registered":4316,"voters":1732,"expressed":1493,"blank":136,"invalid":103,"turnout":40.12974976830399,"abstention":59.87025023169601,"winnerId":"LE_PEN","runnerUpId":"MACRON","margin":26.054922973878096,"top":[{"id":"LE_PEN","name":"Marine Le Pen","shortName":"Le Pen","votes":941,"share":63.02746148693905},{"id":"MACRON","name":"Emmanuel Macron","shortName":"Macron","votes":552,"share":36.97253851306095}]}}},"geometry":{"type":"Polygon","coordinates":[[[178.03,225.77],[182.61,226.4],[182.35,221.96],[179.68,221.83],[178.29,217.13],[176,217],[174.73,220.81],[178.03,225.77]]]}},{"type":"Feature","id":"97227","properties":{"code":"97227","name":"Sainte-Luce","departmentCode":"972","rounds":{"1":{"code":"97227","name":"Sainte-Luce","departmentCode":"972","registered":7915,"voters":3571,"expressed":3400,"blank":86,"invalid":85,"turnout":45.1168667087808,"abstention":54.8831332912192,"winnerId":"MELENCHON","runnerUpId":"MACRON","margin":36.205882352941174,"top":[{"id":"MELENCHON","name":"Jean-Luc Mélenchon","shortName":"Mélenchon","votes":1829,"share":53.794117647058826},{"id":"MACRON","name":"Emmanuel Macron","shortName":"Macron","votes":598,"share":17.588235294117645},{"id":"LE_PEN","name":"Marine Le Pen","shortName":"Le Pen","votes":379,"share":11.147058823529411}]},"2":{"code":"97227","name":"Sainte-Luce","departmentCode":"972","registered":7921,"voters":3729,"expressed":3228,"blank":297,"invalid":204,"turnout":47.077389218533014,"abstention":52.922610781466986,"winnerId":"LE_PEN","runnerUpId":"MACRON","margin":12.763320941759604,"top":[{"id":"LE_PEN","name":"Marine Le Pen","shortName":"Le Pen","votes":1820,"share":56.3816604708798},{"id":"MACRON","name":"Emmanuel Macron","shortName":"Macron","votes":1408,"share":43.6183395291202}]}}},"geometry":{"type":"Polygon","coordinates":[[[162.27,228.31],[162.4,230.22],[165.32,229.71],[168.63,230.85],[169.26,232.38],[171.17,228.95],[171.55,226.15],[165.83,225.64],[162.27,228.31]]]}},{"type":"Feature","id":"97228","properties":{"code":"97228","name":"Sainte-Marie","departmentCode":"972","rounds":{"1":{"code":"97228","name":"Sainte-Marie","departmentCode":"972","registered":16441,"voters":6165,"expressed":5690,"blank":254,"invalid":221,"turnout":37.49771911684204,"abstention":62.50228088315796,"winnerId":"MELENCHON","runnerUpId":"MACRON","margin":32.51318101933216,"top":[{"id":"MELENCHON","name":"Jean-Luc Mélenchon","shortName":"Mélenchon","votes":2863,"share":50.31634446397189},{"id":"MACRON","name":"Emmanuel Macron","shortName":"Macron","votes":1013,"share":17.80316344463972},{"id":"LE_PEN","name":"Marine Le Pen","shortName":"Le Pen","votes":996,"share":17.504393673110723}]},"2":{"code":"97228","name":"Sainte-Marie","departmentCode":"972","registered":16440,"voters":7268,"expressed":6348,"blank":483,"invalid":437,"turnout":44.209245742092456,"abstention":55.79075425790754,"winnerId":"LE_PEN","runnerUpId":"MACRON","margin":29.300567107750474,"top":[{"id":"LE_PEN","name":"Marine Le Pen","shortName":"Le Pen","votes":4104,"share":64.65028355387523},{"id":"MACRON","name":"Emmanuel Macron","shortName":"Macron","votes":2244,"share":35.34971644612476}]}}},"geometry":{"type":"Polygon","coordinates":[[[153.63,261.1],[154.27,266.31],[157.83,269.49],[163.67,263.51],[157.44,259.95],[153.63,261.1]]]}},{"type":"Feature","id":"97229","properties":{"code":"97229","name":"Schœlcher","departmentCode":"972","rounds":{"1":{"code":"97229","name":"Schoelcher","departmentCode":"972","registered":15278,"voters":8269,"expressed":7916,"blank":199,"invalid":154,"turnout":54.123576384343494,"abstention":45.8764236156565,"winnerId":"MELENCHON","runnerUpId":"MACRON","margin":31.24052551793835,"top":[{"id":"MELENCHON","name":"Jean-Luc Mélenchon","shortName":"Mélenchon","votes":4061,"share":51.3011622031329},{"id":"MACRON","name":"Emmanuel Macron","shortName":"Macron","votes":1588,"share":20.060636685194545},{"id":"LE_PEN","name":"Marine Le Pen","shortName":"Le Pen","votes":788,"share":9.954522486104093}]},"2":{"code":"97229","name":"Schoelcher","departmentCode":"972","registered":15277,"voters":8299,"expressed":7097,"blank":796,"invalid":406,"turnout":54.323492832362376,"abstention":45.676507167637624,"winnerId":"MACRON","runnerUpId":"LE_PEN","margin":3.0858109060166266,"top":[{"id":"MACRON","name":"Emmanuel Macron","shortName":"Macron","votes":3658,"share":51.542905453008316},{"id":"LE_PEN","name":"Marine Le Pen","shortName":"Le Pen","votes":3439,"share":48.457094546991684}]}}},"geometry":{"type":"Polygon","coordinates":[[[145.5,254.36],[145.88,255.89],[147.41,255],[147.91,250.8],[149.82,247.63],[148.68,242.8],[145.24,246.36],[146.52,249.53],[145.5,254.36]]]}},{"type":"Feature","id":"97230","properties":{"code":"97230","name":"La Trinité","departmentCode":"972","rounds":{"1":{"code":"97230","name":"La Trinité","departmentCode":"972","registered":10201,"voters":4677,"expressed":4388,"blank":170,"invalid":119,"turnout":45.84844623076169,"abstention":54.15155376923831,"winnerId":"MELENCHON","runnerUpId":"MACRON","margin":30.69735642661805,"top":[{"id":"MELENCHON","name":"Jean-Luc Mélenchon","shortName":"Mélenchon","votes":2193,"share":49.97721057429353},{"id":"MACRON","name":"Emmanuel Macron","shortName":"Macron","votes":846,"share":19.27985414767548},{"id":"LE_PEN","name":"Marine Le Pen","shortName":"Le Pen","votes":570,"share":12.989972652689152}]},"2":{"code":"97230","name":"La Trinité","departmentCode":"972","registered":10203,"voters":4684,"expressed":4002,"blank":395,"invalid":287,"turnout":45.90806625502303,"abstention":54.09193374497697,"winnerId":"LE_PEN","runnerUpId":"MACRON","margin":7.34632683658171,"top":[{"id":"LE_PEN","name":"Marine Le Pen","shortName":"Le Pen","votes":2148,"share":53.67316341829086},{"id":"MACRON","name":"Emmanuel Macron","shortName":"Macron","votes":1854,"share":46.326836581709145}]}}},"geometry":{"type":"Polygon","coordinates":[[[163.16,255.25],[161.77,258.17],[157.44,259.95],[163.67,263.51],[165.07,260.34],[167.48,262.75],[173.33,263],[172.82,259.95],[169.77,261.99],[167.48,260.97],[169.26,257.67],[163.16,255.25]]]}},{"type":"Feature","id":"97231","properties":{"code":"97231","name":"Les Trois-Îlets","departmentCode":"972","rounds":{"1":{"code":"97231","name":"Les Trois-Ilets","departmentCode":"972","registered":6194,"voters":3128,"expressed":3028,"blank":53,"invalid":47,"turnout":50.50048433968356,"abstention":49.49951566031643,"winnerId":"MELENCHON","runnerUpId":"MACRON","margin":21.367239101717306,"top":[{"id":"MELENCHON","name":"Jean-Luc Mélenchon","shortName":"Mélenchon","votes":1320,"share":43.59313077939234},{"id":"MACRON","name":"Emmanuel Macron","shortName":"Macron","votes":673,"share":22.225891677675033},{"id":"LE_PEN","name":"Marine Le Pen","shortName":"Le Pen","votes":363,"share":11.988110964332893}]},"2":{"code":"97231","name":"Les Trois-Ilets","departmentCode":"972","registered":6194,"voters":3138,"expressed":2772,"blank":244,"invalid":122,"turnout":50.66193090087181,"abstention":49.33806909912819,"winnerId":"MACRON","runnerUpId":"LE_PEN","margin":2.525252525252525,"top":[{"id":"MACRON","name":"Emmanuel Macron","shortName":"Macron","votes":1421,"share":51.26262626262626},{"id":"LE_PEN","name":"Marine Le Pen","shortName":"Le Pen","votes":1351,"share":48.73737373737374}]}}},"geometry":{"type":"Polygon","coordinates":[[[159.86,234.16],[159.73,231.23],[153.12,230.85],[150.84,235.3],[152.49,236.32],[159.86,234.16]]]}},{"type":"Feature","id":"97232","properties":{"code":"97232","name":"Le Vauclin","departmentCode":"972","rounds":{"1":{"code":"97232","name":"Le Vauclin","departmentCode":"972","registered":8085,"voters":2938,"expressed":2783,"blank":83,"invalid":72,"turnout":36.33889919604205,"abstention":63.66110080395795,"winnerId":"MELENCHON","runnerUpId":"LE_PEN","margin":33.02191879266978,"top":[{"id":"MELENCHON","name":"Jean-Luc Mélenchon","shortName":"Mélenchon","votes":1421,"share":51.0600071864894},{"id":"LE_PEN","name":"Marine Le Pen","shortName":"Le Pen","votes":502,"share":18.038088393819617},{"id":"MACRON","name":"Emmanuel Macron","shortName":"Macron","votes":449,"share":16.133668702838662}]},"2":{"code":"97232","name":"Le Vauclin","departmentCode":"972","registered":8091,"voters":3380,"expressed":3003,"blank":209,"invalid":168,"turnout":41.7748115189717,"abstention":58.2251884810283,"winnerId":"LE_PEN","runnerUpId":"MACRON","margin":30.336330336330334,"top":[{"id":"LE_PEN","name":"Marine Le Pen","shortName":"Le Pen","votes":1957,"share":65.16816516816517},{"id":"MACRON","name":"Emmanuel Macron","shortName":"Macron","votes":1046,"share":34.831834831834826}]}}},"geometry":{"type":"Polygon","coordinates":[[[173.46,238.1],[179.3,240.89],[178.67,239.37],[182.23,234.79],[180.83,231.61],[182.61,229.96],[177.4,232],[176.89,234.16],[174.09,236.19],[173.46,238.1]]]}},{"type":"Feature","id":"97233","properties":{"code":"97233","name":"Le Morne-Vert","departmentCode":"972","rounds":{"1":{"code":"97233","name":"Le Morne-Vert","departmentCode":"972","registered":1646,"voters":811,"expressed":769,"blank":11,"invalid":31,"turnout":49.27095990279465,"abstention":50.72904009720535,"winnerId":"MELENCHON","runnerUpId":"MACRON","margin":33.55006501950585,"top":[{"id":"MELENCHON","name":"Jean-Luc Mélenchon","shortName":"Mélenchon","votes":394,"share":51.23537061118335},{"id":"MACRON","name":"Emmanuel Macron","shortName":"Macron","votes":136,"share":17.6853055916775},{"id":"LE_PEN","name":"Marine Le Pen","shortName":"Le Pen","votes":102,"share":13.263979193758127}]},"2":{"code":"97233","name":"Le Morne-Vert","departmentCode":"972","registered":1646,"voters":872,"expressed":779,"blank":45,"invalid":48,"turnout":52.97691373025516,"abstention":47.02308626974484,"winnerId":"LE_PEN","runnerUpId":"MACRON","margin":21.18100128369705,"top":[{"id":"LE_PEN","name":"Marine Le Pen","shortName":"Le Pen","votes":472,"share":60.59050064184852},{"id":"MACRON","name":"Emmanuel Macron","shortName":"Macron","votes":307,"share":39.40949935815148}]}}},"geometry":{"type":"Polygon","coordinates":[[[145.88,255.89],[145.5,254.36],[144.48,254.24],[140.67,254.74],[140.16,257.29],[144.74,257.92],[145.88,255.89]]]}},{"type":"Feature","id":"97234","properties":{"code":"97234","name":"Bellefontaine","departmentCode":"972","rounds":{"1":{"code":"97234","name":"Bellefontaine","departmentCode":"972","registered":1666,"voters":769,"expressed":722,"blank":22,"invalid":25,"turnout":46.15846338535414,"abstention":53.84153661464586,"winnerId":"MELENCHON","runnerUpId":"LE_PEN","margin":38.9196675900277,"top":[{"id":"MELENCHON","name":"Jean-Luc Mélenchon","shortName":"Mélenchon","votes":400,"share":55.4016620498615},{"id":"LE_PEN","name":"Marine Le Pen","shortName":"Le Pen","votes":119,"share":16.481994459833796},{"id":"MACRON","name":"Emmanuel Macron","shortName":"Macron","votes":94,"share":13.019390581717452}]},"2":{"code":"97234","name":"Bellefontaine","departmentCode":"972","registered":1666,"voters":825,"expressed":725,"blank":54,"invalid":46,"turnout":49.51980792316927,"abstention":50.48019207683073,"winnerId":"LE_PEN","runnerUpId":"MACRON","margin":32.41379310344827,"top":[{"id":"LE_PEN","name":"Marine Le Pen","shortName":"Le Pen","votes":480,"share":66.20689655172414},{"id":"MACRON","name":"Emmanuel Macron","shortName":"Macron","votes":245,"share":33.793103448275865}]}}},"geometry":{"type":"Polygon","coordinates":[[[140.67,254.74],[144.48,254.24],[143.85,251.44],[140.67,249.91],[138.89,252.33],[140.67,254.74]]]}}]}