{"type":"FeatureCollection","features":[{"type":"Feature","id":"97301","properties":{"code":"97301","name":"Régina","departmentCode":"973","rounds":{"1":{"code":"97301","name":"Régina","departmentCode":"973","registered":522,"voters":209,"expressed":205,"blank":3,"invalid":1,"turnout":40.03831417624521,"abstention":59.961685823754785,"winnerId":"MELENCHON","runnerUpId":"LE_PEN","margin":21.463414634146343,"top":[{"id":"MELENCHON","name":"Jean-Luc Mélenchon","shortName":"Mélenchon","votes":88,"share":42.926829268292686},{"id":"LE_PEN","name":"Marine Le Pen","shortName":"Le Pen","votes":44,"share":21.463414634146343},{"id":"MACRON","name":"Emmanuel Macron","shortName":"Macron","votes":29,"share":14.146341463414632}]},"2":{"code":"97301","name":"Régina","departmentCode":"973","registered":522,"voters":246,"expressed":230,"blank":12,"invalid":4,"turnout":47.12643678160919,"abstention":52.87356321839081,"winnerId":"LE_PEN","runnerUpId":"MACRON","margin":8.695652173913043,"top":[{"id":"LE_PEN","name":"Marine Le Pen","shortName":"Le Pen","votes":125,"share":54.347826086956516},{"id":"MACRON","name":"Emmanuel Macron","shortName":"Macron","votes":105,"share":45.65217391304348}]}}},"geometry":{"type":"Polygon","coordinates":[[[194.21,380.58],[191.63,380.2],[191.08,379.9],[191.22,377.42],[191.03,376.85],[191.41,374.89],[191.41,374.13],[192.17,373.99],[192.61,373.34],[191.79,372.77],[191.16,372.87],[190.21,372.68],[190.18,372.3],[189.34,371.92],[188.71,372.68],[188.25,372.3],[187.43,372.03],[187.08,371.29],[187.57,370.8],[188.36,368.52],[187.51,368.3],[186.78,367.56],[186.53,367.86],[185.85,367.67],[185.03,367.15],[184.9,367.54],[183.94,367.78],[183.78,366.91],[183.23,366.64],[182.88,365.68],[182.34,365.49],[181.55,365.76],[181.46,365.19],[180.86,364.38],[180.43,364.43],[179.99,363.53],[178.3,363.04],[177.13,363.18],[176.81,362.06],[177,361.87],[176.78,360.42],[176.83,359.96],[176.18,359.01],[175.17,358.93],[174.76,358.6],[174.3,359.31],[173.92,358],[173.97,356.91],[173.62,355.93],[172.88,355.06],[173.7,354.65],[172.34,354.19],[172.56,353.37],[172.28,352.47],[172.31,351.08],[172.15,350.81],[170.7,350.4],[170.13,350.45],[169.89,349.96],[170.08,349.34],[170.68,348.3],[169.04,346.91],[168.8,346.34],[168.28,346.56],[167.65,346.42],[166.53,346.89],[166.26,347.35],[166.7,348.14],[165.88,348.96],[165.01,349.31],[164.25,348.6],[162.78,348.6],[161.93,349.17],[160.71,349.45],[159.62,349.31],[159.29,349.47],[158.33,349.28],[158.12,348.74],[158.31,348.25],[157.93,346.99],[157.35,347.43],[156.89,348.33],[156.13,348.68],[155.45,349.8],[155.94,350.7],[155.69,351.57],[155.83,352.25],[156.81,352.99],[156.67,353.72],[156.21,354.19],[156.59,355.17],[157.44,356.07],[157.33,357.16],[157.76,357.54],[157.38,357.95],[156.78,357.54],[156.37,357.86],[156.65,358.46],[156.46,359.93],[155.67,360.94],[155.09,361.92],[154.52,362.11],[153.89,363.01],[154.52,363.26],[155.72,364.54],[156.29,364.65],[156.51,365.36],[155.88,365.82],[155.96,366.06],[157.03,366.61],[157.35,367.04],[157.95,367.15],[158.42,367.67],[158.99,367.51],[159.18,368],[160.38,368.43],[160.9,369.41],[161.5,369.47],[161.82,370.34],[162.31,370.94],[162.45,371.87],[163.13,372.08],[164.36,373.31],[165.04,372.68],[166.21,372.25],[167.24,372.38],[168.85,371.21],[169.5,371.1],[171.11,371.76],[171.19,372.28],[172.45,373.69],[172.72,374.37],[173.18,374.29],[173.62,374.89],[175.44,374.84],[176.21,375.3],[176.94,376.14],[177.4,375.98],[178.14,376.55],[178.22,377.37],[179.42,378.65],[179.69,378.08],[180.16,378.49],[180.86,379.52],[181.52,379.17],[181.65,379.71],[182.28,380.42],[182.09,381.57],[181.71,382.46],[182.47,382.93],[182.66,383.36],[181.46,383.96],[180.95,385.08],[181.16,386.28],[181.44,386.71],[182.5,387.5],[182.28,388.05],[182.5,389.11],[182.94,389.87],[182.83,390.53],[184.35,389.79],[184.6,389.44],[186.15,388.51],[187.13,387.64],[187.46,385.54],[188.25,384.1],[188.55,382.95],[188.55,381.73],[188.76,380.72],[188.74,379.6],[189.17,379.49],[189.42,380.34],[189.28,382.98],[189.36,385.82],[189.64,386.63],[190.18,386.85],[191.11,386.71],[191.9,386.14],[192.8,385.16],[193.21,384.13],[193.61,381.24],[194.21,380.58]]]}},{"type":"Feature","id":"97302","properties":{"code":"97302","name":"Cayenne","departmentCode":"973","rounds":{"1":{"code":"97302","name":"Cayenne","departmentCode":"973","registered":24790,"voters":9481,"expressed":9072,"blank":235,"invalid":174,"turnout":38.24526018555869,"abstention":61.75473981444131,"winnerId":"MELENCHON","runnerUpId":"LE_PEN","margin":33.289241622574956,"top":[{"id":"MELENCHON","name":"Jean-Luc Mélenchon","shortName":"Mélenchon","votes":4718,"share":52.00617283950617},{"id":"LE_PEN","name":"Marine Le Pen","shortName":"Le Pen","votes":1698,"share":18.71693121693122},{"id":"MACRON","name":"Emmanuel Macron","shortName":"Macron","votes":1131,"share":12.466931216931217}]},"2":{"code":"97302","name":"Cayenne","departmentCode":"973","registered":24819,"voters":9942,"expressed":8812,"blank":819,"invalid":311,"turnout":40.05802006527258,"abstention":59.94197993472743,"winnerId":"LE_PEN","runnerUpId":"MACRON","margin":30.98048116205175,"top":[{"id":"LE_PEN","name":"Marine Le Pen","shortName":"Le Pen","votes":5771,"share":65.49024058102587},{"id":"MACRON","name":"Emmanuel Macron","shortName":"Macron","votes":3041,"share":34.50975941897413}]}}},"geometry":{"type":"Polygon","coordinates":[[[179.72,393.77],[178.9,393.36],[178.77,392.68],[178.09,393.36],[178.14,393.93],[179.15,394.31],[179.72,393.77]]]}},{"type":"Feature","id":"97303","properties":{"code":"97303","name":"Iracoubo","departmentCode":"973","rounds":{"1":{"code":"97303","name":"Iracoubo","departmentCode":"973","registered":1183,"voters":340,"expressed":329,"blank":6,"invalid":5,"turnout":28.740490278951818,"abstention":71.25950972104819,"winnerId":"MELENCHON","runnerUpId":"LE_PEN","margin":20.972644376899694,"top":[{"id":"MELENCHON","name":"Jean-Luc Mélenchon","shortName":"Mélenchon","votes":145,"share":44.07294832826747},{"id":"LE_PEN","name":"Marine Le Pen","shortName":"Le Pen","votes":76,"share":23.10030395136778},{"id":"MACRON","name":"Emmanuel Macron","shortName":"Macron","votes":69,"share":20.972644376899694}]},"2":{"code":"97303","name":"Iracoubo","departmentCode":"973","registered":1183,"voters":498,"expressed":464,"blank":18,"invalid":16,"turnout":42.096365173288255,"abstention":57.903634826711745,"winnerId":"LE_PEN","runnerUpId":"MACRON","margin":38.793103448275865,"top":[{"id":"LE_PEN","name":"Marine Le Pen","shortName":"Le Pen","votes":322,"share":69.39655172413794},{"id":"MACRON","name":"Emmanuel Macron","shortName":"Macron","votes":142,"share":30.603448275862068}]}}},"geometry":{"type":"Polygon","coordinates":[[[155.47,409.87],[155.67,409.33],[156.48,408.26],[157.71,407.47],[158.23,407.42],[158.53,406.98],[158.47,406.06],[158.12,405.68],[158.06,404.97],[157.49,403.36],[157.95,401.4],[157.38,401.26],[156.84,402.54],[156.18,402.68],[156.18,400.99],[156.54,400.14],[156.35,399.6],[155.01,398.18],[155.17,397.39],[154.52,396.96],[154.33,396],[153.92,396.44],[153.1,396.96],[153,395.84],[152.07,395],[151.17,395.19],[150.95,394.61],[150.13,393.39],[148.83,393.96],[148.17,393.69],[148.2,394.61],[148.42,395.08],[147.98,395.87],[147.33,395.89],[146.59,397.34],[146.05,396.96],[145.8,397.61],[146.27,398.16],[146.38,399.03],[145.67,399.52],[145.78,400.42],[145.45,400.85],[145.91,401.43],[146.24,402.41],[145.53,403.3],[145.83,404.37],[145.59,405.73],[145.83,407.01],[146.32,407.5],[146.18,407.88],[146.62,408.32],[148.31,408.13],[148.36,409.33],[148.04,410.03],[147.33,410.63],[147.33,411.04],[147.68,411.15],[149.34,410.96],[151.69,410.31],[151.99,410.82],[152.7,410.93],[153,410.58],[155.47,409.87]]]}},{"type":"Feature","id":"97304","properties":{"code":"97304","name":"Kourou","departmentCode":"973","rounds":{"1":{"code":"97304","name":"Kourou","departmentCode":"973","registered":10800,"voters":4371,"expressed":4236,"blank":78,"invalid":57,"turnout":40.47222222222222,"abstention":59.52777777777778,"winnerId":"MELENCHON","runnerUpId":"LE_PEN","margin":30.68932955618508,"top":[{"id":"MELENCHON","name":"Jean-Luc Mélenchon","shortName":"Mélenchon","votes":2022,"share":47.73371104815864},{"id":"LE_PEN","name":"Marine Le Pen","shortName":"Le Pen","votes":722,"share":17.04438149197356},{"id":"MACRON","name":"Emmanuel Macron","shortName":"Macron","votes":686,"share":16.19452313503305}]},"2":{"code":"97304","name":"Kourou","departmentCode":"973","registered":10800,"voters":4512,"expressed":3683,"blank":307,"invalid":522,"turnout":41.77777777777778,"abstention":58.22222222222222,"winnerId":"LE_PEN","runnerUpId":"MACRON","margin":9.313060005430355,"top":[{"id":"LE_PEN","name":"Marine Le Pen","shortName":"Le Pen","votes":2013,"share":54.65653000271517},{"id":"MACRON","name":"Emmanuel Macron","shortName":"Macron","votes":1670,"share":45.34346999728483}]}}},"geometry":{"type":"Polygon","coordinates":[[[170.87,393.39],[170.78,392.82],[170.38,392.11],[170.76,391.62],[170.21,391.32],[169.94,390.17],[170.02,388.51],[170.57,388.02],[169.7,386.96],[169.29,386.99],[169.04,386.28],[168.5,385.84],[168.01,385.11],[167.08,384.34],[167.22,383.83],[166.86,383.23],[166.48,383.15],[166.21,382.38],[165.83,382.25],[165.04,383.66],[164.85,384.4],[164.25,385],[163.32,385.46],[163.02,386.39],[163.24,387.12],[162.61,388.02],[162.97,389.14],[163.21,389.38],[162.83,390.06],[163.08,391.48],[163.7,392.68],[163.1,394.15],[162.53,394.75],[162.34,395.46],[162.42,395.89],[161.09,397.12],[160.65,397.69],[161.17,398.24],[161.06,398.86],[162.07,399.71],[163.02,400.01],[163.16,401.13],[164.55,402.79],[164.74,403.44],[165.23,403.58],[165.2,404.48],[165.88,404.01],[166.51,403.14],[167.68,402.08],[169.2,401.1],[170.13,399.98],[171.66,398.54],[171.96,398.54],[170.81,397.09],[170.98,396.77],[171.77,396.66],[171.38,395.7],[171.19,394.81],[170.7,394.53],[170.87,393.39]]]}},{"type":"Feature","id":"97305","properties":{"code":"97305","name":"Macouria","departmentCode":"973","rounds":{"1":{"code":"97305","name":"Macouria","departmentCode":"973","registered":7041,"voters":2711,"expressed":2597,"blank":68,"invalid":46,"turnout":38.50305354353075,"abstention":61.496946456469246,"winnerId":"MELENCHON","runnerUpId":"LE_PEN","margin":34.000770119368504,"top":[{"id":"MELENCHON","name":"Jean-Luc Mélenchon","shortName":"Mélenchon","votes":1418,"share":54.60146322680015},{"id":"LE_PEN","name":"Marine Le Pen","shortName":"Le Pen","votes":535,"share":20.600693107431653},{"id":"MACRON","name":"Emmanuel Macron","shortName":"Macron","votes":229,"share":8.81786676934925}]},"2":{"code":"97305","name":"Macouria","departmentCode":"973","registered":7045,"voters":3013,"expressed":2659,"blank":256,"invalid":98,"turnout":42.76792051100071,"abstention":57.23207948899929,"winnerId":"LE_PEN","runnerUpId":"MACRON","margin":45.994734862730354,"top":[{"id":"LE_PEN","name":"Marine Le Pen","shortName":"Le Pen","votes":1941,"share":72.99736743136518},{"id":"MACRON","name":"Emmanuel Macron","shortName":"Macron","votes":718,"share":27.002632568634827}]}}},"geometry":{"type":"Polygon","coordinates":[[[177.35,393.12],[177.13,393.01],[176.59,392.93],[175.93,393.28],[175.53,392.63],[174.49,392.84],[175.17,394.23],[174.79,394.37],[173.4,394.31],[173.02,393.72],[172.23,392.9],[170.87,393.39],[170.7,394.53],[171.19,394.81],[171.38,395.7],[171.77,396.66],[170.98,396.77],[170.81,397.09],[171.96,398.54],[173.37,397.5],[174.82,395.98],[175.99,395.16],[176.7,394.21],[177.6,393.31],[177.35,393.12]]]}},{"type":"Feature","id":"97306","properties":{"code":"97306","name":"Mana","departmentCode":"973","rounds":{"1":{"code":"97306","name":"Mana","departmentCode":"973","registered":2825,"voters":724,"expressed":699,"blank":14,"invalid":11,"turnout":25.628318584070797,"abstention":74.3716814159292,"winnerId":"MELENCHON","runnerUpId":"MACRON","margin":32.04577968526466,"top":[{"id":"MELENCHON","name":"Jean-Luc Mélenchon","shortName":"Mélenchon","votes":354,"share":50.64377682403433},{"id":"MACRON","name":"Emmanuel Macron","shortName":"Macron","votes":130,"share":18.59799713876967},{"id":"LE_PEN","name":"Marine Le Pen","shortName":"Le Pen","votes":79,"share":11.301859799713878}]},"2":{"code":"97306","name":"Mana","departmentCode":"973","registered":2827,"voters":804,"expressed":733,"blank":50,"invalid":21,"turnout":28.44004244782455,"abstention":71.55995755217545,"winnerId":"LE_PEN","runnerUpId":"MACRON","margin":0.1364256480218281,"top":[{"id":"LE_PEN","name":"Marine Le Pen","shortName":"Le Pen","votes":367,"share":50.068212824010914},{"id":"MACRON","name":"Emmanuel Macron","shortName":"Macron","votes":366,"share":49.931787175989086}]}}},"geometry":{"type":"Polygon","coordinates":[[[138.86,375.46],[138.47,375.84],[138.39,377.45],[139.18,379.33],[139.56,380.5],[139.16,381.84],[139.1,382.65],[139.37,383.12],[139.95,385.52],[139.24,386.55],[139.54,387.01],[139.56,388.38],[139.26,388.59],[139.78,389.44],[139.7,390.42],[139.43,391.13],[138.88,391.67],[139.16,392.22],[138.72,393.06],[138.86,393.33],[138.69,394.83],[139.29,395.4],[138.72,395.68],[138.97,396.47],[138.8,396.96],[138.01,397.26],[138.12,398.1],[137.41,398.37],[137.22,399.27],[136.81,399.52],[136.08,398.95],[135.56,399.11],[135.42,398.4],[133.98,398.89],[133.63,399.35],[132.97,399.44],[132.26,398.89],[132.24,398.05],[131.8,397.94],[131.34,398.81],[131.61,399.44],[131.36,400.2],[131.96,400.69],[131.99,401.48],[132.62,401.75],[133.11,402.32],[133.19,402.9],[134.42,403.25],[135.12,403.82],[136.21,404.04],[136.7,405.21],[136.65,405.73],[136.95,406.25],[136.24,406.96],[135.48,407.39],[135.12,408.43],[134.5,409.11],[135.15,409.46],[135.18,409.84],[135.94,410.06],[135.53,411.4],[134.52,411.7],[134.03,411.53],[133.76,412.05],[133.16,412.4],[132.13,412.65],[132.51,413.19],[134.5,412.95],[134.88,412.43],[135.51,412.35],[135.94,412],[136.35,413.22],[136.79,413.33],[137.49,414.39],[137.66,415.26],[137.71,415.43],[137.74,415.51],[138.67,415.24],[140.06,414.42],[140.44,414.34],[141.72,413.49],[142.92,412.89],[143.95,412.24],[144.2,412.29],[145.8,411.56],[147.33,411.04],[147.33,410.63],[148.04,410.03],[148.36,409.33],[148.31,408.13],[146.62,408.32],[146.18,407.88],[146.32,407.5],[145.83,407.01],[145.59,405.73],[145.83,404.37],[145.53,403.3],[146.24,402.41],[145.91,401.43],[145.45,400.85],[145.78,400.42],[145.67,399.52],[146.38,399.03],[146.27,398.16],[145.8,397.61],[146.05,396.96],[146.59,397.34],[147.33,395.89],[147.98,395.87],[148.42,395.08],[148.2,394.61],[148.17,393.69],[148.83,393.96],[150.13,393.39],[150.63,393.12],[150.27,392.41],[150.41,392.05],[149.7,391.54],[149.59,391.02],[148.72,390.36],[149.24,389.96],[149.24,389.41],[148.31,388.54],[148.55,387.94],[148.36,387.4],[149.02,387.15],[148.88,386.01],[149.84,385.05],[150.84,384.21],[151.28,384.32],[151.85,383.01],[151.55,382.74],[151.58,381.24],[151.12,380.45],[150.82,380.42],[150.54,378.24],[149.4,376.77],[148.34,376.55],[147.87,376.77],[147.14,376.53],[146.43,376.74],[145.78,376.42],[144.71,377.1],[144.71,378.46],[145.12,378.7],[144.66,379.39],[143.65,378.62],[142.78,377.48],[141.14,376.88],[140.52,376.88],[139.51,376.14],[138.86,375.46]]]}},{"type":"Feature","id":"97307","properties":{"code":"97307","name":"Matoury","departmentCode":"973","rounds":{"1":{"code":"97307","name":"Matoury","departmentCode":"973","registered":13275,"voters":5504,"expressed":5264,"blank":137,"invalid":103,"turnout":41.46139359698682,"abstention":58.53860640301318,"winnerId":"MELENCHON","runnerUpId":"LE_PEN","margin":34.55547112462006,"top":[{"id":"MELENCHON","name":"Jean-Luc Mélenchon","shortName":"Mélenchon","votes":2827,"share":53.704407294832826},{"id":"LE_PEN","name":"Marine Le Pen","shortName":"Le Pen","votes":1008,"share":19.148936170212767},{"id":"MACRON","name":"Emmanuel Macron","shortName":"Macron","votes":633,"share":12.025075987841944}]},"2":{"code":"97307","name":"Matoury","departmentCode":"973","registered":13274,"voters":5937,"expressed":5286,"blank":470,"invalid":181,"turnout":44.72653307217116,"abstention":55.27346692782884,"winnerId":"LE_PEN","runnerUpId":"MACRON","margin":32.95497540673477,"top":[{"id":"LE_PEN","name":"Marine Le Pen","shortName":"Le Pen","votes":3514,"share":66.47748770336739},{"id":"MACRON","name":"Emmanuel Macron","shortName":"Macron","votes":1772,"share":33.52251229663262}]}}},"geometry":{"type":"Polygon","coordinates":[[[177.13,393.01],[177.35,393.12],[178.09,393.36],[178.77,392.68],[179.45,391.54],[179.58,391.45],[178.9,389.52],[178.19,388.57],[177.21,389.27],[176.89,389.87],[177.05,390.85],[176.56,391.7],[176.7,392.44],[177.13,393.01]]]}},{"type":"Feature","id":"97308","properties":{"code":"97308","name":"Saint-Georges","departmentCode":"973","rounds":{"1":{"code":"97308","name":"Saint-Georges","departmentCode":"973","registered":1644,"voters":377,"expressed":356,"blank":12,"invalid":9,"turnout":22.931873479318735,"abstention":77.06812652068126,"winnerId":"MELENCHON","runnerUpId":"LE_PEN","margin":3.932584269662921,"top":[{"id":"MELENCHON","name":"Jean-Luc Mélenchon","shortName":"Mélenchon","votes":111,"share":31.179775280898873},{"id":"LE_PEN","name":"Marine Le Pen","shortName":"Le Pen","votes":97,"share":27.247191011235955},{"id":"MACRON","name":"Emmanuel Macron","shortName":"Macron","votes":87,"share":24.43820224719101}]},"2":{"code":"97308","name":"Saint-Georges","departmentCode":"973","registered":1644,"voters":501,"expressed":467,"blank":16,"invalid":18,"turnout":30.474452554744524,"abstention":69.52554744525547,"winnerId":"MACRON","runnerUpId":"LE_PEN","margin":0.6423982869379015,"top":[{"id":"MACRON","name":"Emmanuel Macron","shortName":"Macron","votes":235,"share":50.32119914346895},{"id":"LE_PEN","name":"Marine Le Pen","shortName":"Le Pen","votes":232,"share":49.67880085653105}]}}},"geometry":{"type":"Polygon","coordinates":[[[188.36,368.52],[189.45,368.46],[189.8,368.19],[190.94,367.81],[191.35,368.13],[192.47,368.05],[192.96,368.82],[193.12,369.52],[193.83,369.5],[194.92,370.31],[195.52,370.53],[195.66,371.16],[195.17,371.27],[195.66,372.19],[197.13,374.21],[197.54,373.72],[197.29,373.2],[197.21,372.03],[196.72,369.88],[196.18,369.39],[194.27,368.43],[193.29,367.43],[193.31,366.36],[192.82,365.33],[192.17,364.57],[191.27,363.86],[190.78,363.04],[190.13,362.9],[189.34,362.06],[189.64,361.49],[189.39,360.83],[188.55,360.78],[188.08,360.37],[187.54,358.68],[187.65,358.25],[186.83,357.35],[186.15,356.18],[185.03,356.67],[183.81,356.39],[183.13,356.04],[183.04,355.28],[181.57,355.03],[180.65,354.62],[180.21,353.72],[179.45,352.91],[178.98,352.88],[177.73,352.14],[177.32,352.63],[176.51,352.39],[176.07,353.04],[176.04,354],[174.87,354],[174.63,354.38],[173.7,354.65],[172.88,355.06],[173.62,355.93],[173.97,356.91],[173.92,358],[174.3,359.31],[174.76,358.6],[175.17,358.93],[176.18,359.01],[176.83,359.96],[176.78,360.42],[177,361.87],[176.81,362.06],[177.13,363.18],[178.3,363.04],[179.99,363.53],[180.43,364.43],[180.86,364.38],[181.46,365.19],[181.55,365.76],[182.34,365.49],[182.88,365.68],[183.23,366.64],[183.78,366.91],[183.94,367.78],[184.9,367.54],[185.03,367.15],[185.85,367.67],[186.53,367.86],[186.78,367.56],[187.51,368.3],[188.36,368.52]]]}},{"type":"Feature","id":"97309","properties":{"code":"97309","name":"Remire-Montjoly","departmentCode":"973","rounds":{"1":{"code":"97309","name":"Remire-Montjoly","departmentCode":"973","registered":13232,"voters":7165,"expressed":6933,"blank":149,"invalid":83,"turnout":54.14903264812576,"abstention":45.850967351874246,"winnerId":"MELENCHON","runnerUpId":"MACRON","margin":27.506130102408772,"top":[{"id":"MELENCHON","name":"Jean-Luc Mélenchon","shortName":"Mélenchon","votes":3091,"share":44.583874224722344},{"id":"MACRON","name":"Emmanuel Macron","shortName":"Macron","votes":1184,"share":17.07774412231357},{"id":"LE_PEN","name":"Marine Le Pen","shortName":"Le Pen","votes":1155,"share":16.65945478147988}]},"2":{"code":"97309","name":"Remire-Montjoly","departmentCode":"973","registered":13247,"voters":7135,"expressed":6258,"blank":665,"invalid":212,"turnout":53.86125160413678,"abstention":46.13874839586322,"winnerId":"LE_PEN","runnerUpId":"MACRON","margin":13.071268775966763,"top":[{"id":"LE_PEN","name":"Marine Le Pen","shortName":"Le Pen","votes":3538,"share":56.53563438798338},{"id":"MACRON","name":"Emmanuel Macron","shortName":"Macron","votes":2720,"share":43.46436561201662}]}}},"geometry":{"type":"Polygon","coordinates":[[[178.77,392.68],[178.9,393.36],[179.72,393.77],[180.18,393.31],[180.62,392.14],[180.16,391.65],[179.45,391.54],[178.77,392.68]]]}},{"type":"Feature","id":"97310","properties":{"code":"97310","name":"Roura","departmentCode":"973","rounds":{"1":{"code":"97310","name":"Roura","departmentCode":"973","registered":2028,"voters":808,"expressed":781,"blank":20,"invalid":7,"turnout":39.8422090729783,"abstention":60.15779092702169,"winnerId":"MELENCHON","runnerUpId":"MACRON","margin":18.053777208706787,"top":[{"id":"MELENCHON","name":"Jean-Luc Mélenchon","shortName":"Mélenchon","votes":299,"share":38.2842509603073},{"id":"MACRON","name":"Emmanuel Macron","shortName":"Macron","votes":158,"share":20.23047375160051},{"id":"LE_PEN","name":"Marine Le Pen","shortName":"Le Pen","votes":149,"share":19.078104993597954}]},"2":{"code":"97310","name":"Roura","departmentCode":"973","registered":2030,"voters":936,"expressed":866,"blank":51,"invalid":19,"turnout":46.108374384236456,"abstention":53.89162561576355,"winnerId":"LE_PEN","runnerUpId":"MACRON","margin":21.478060046189377,"top":[{"id":"LE_PEN","name":"Marine Le Pen","shortName":"Le Pen","votes":526,"share":60.739030023094685},{"id":"MACRON","name":"Emmanuel Macron","shortName":"Macron","votes":340,"share":39.260969976905315}]}}},"geometry":{"type":"Polygon","coordinates":[[[182.83,390.53],[182.94,389.87],[182.5,389.11],[182.28,388.05],[182.5,387.5],[181.44,386.71],[181.16,386.28],[180.95,385.08],[181.46,383.96],[182.66,383.36],[182.47,382.93],[181.71,382.46],[182.09,381.57],[182.28,380.42],[181.65,379.71],[181.52,379.17],[180.86,379.52],[180.16,378.49],[179.69,378.08],[179.42,378.65],[178.22,377.37],[178.14,376.55],[177.4,375.98],[176.94,376.14],[176.21,375.3],[175.44,374.84],[173.62,374.89],[173.18,374.29],[172.72,374.37],[172.45,373.69],[171.19,372.28],[171.11,371.76],[169.5,371.1],[168.85,371.21],[167.24,372.38],[166.21,372.25],[165.04,372.68],[164.36,373.31],[164.98,373.5],[164.82,374.05],[164.82,376.36],[164.9,376.93],[164.03,378.02],[163.92,379.41],[164.08,380.07],[164.63,380.26],[165.85,381.84],[165.83,382.25],[166.21,382.38],[166.48,383.15],[166.86,383.23],[167.22,383.83],[167.08,384.34],[168.01,385.11],[168.5,385.84],[169.04,386.28],[169.29,386.99],[169.7,386.96],[170.57,388.02],[171.44,387.94],[173.45,386.71],[174.57,386.36],[175.47,388.51],[175.8,389.68],[176.89,388.95],[177.21,389.27],[178.19,388.57],[178.9,389.52],[179.58,391.45],[180.43,391.29],[180.97,391.78],[181.87,391.59],[182.36,390.77],[182.83,390.53]]]}},{"type":"Feature","id":"97311","properties":{"code":"97311","name":"Saint-Laurent-du-Maroni","departmentCode":"973","rounds":{"1":{"code":"97311","name":"Saint-Laurent-du-Maroni","departmentCode":"973","registered":13901,"voters":2896,"expressed":2803,"blank":58,"invalid":35,"turnout":20.833033594705416,"abstention":79.16696640529459,"winnerId":"MELENCHON","runnerUpId":"LE_PEN","margin":49.37566892615055,"top":[{"id":"MELENCHON","name":"Jean-Luc Mélenchon","shortName":"Mélenchon","votes":1738,"share":62.004994648590795},{"id":"LE_PEN","name":"Marine Le Pen","shortName":"Le Pen","votes":354,"share":12.629325722440242},{"id":"MACRON","name":"Emmanuel Macron","shortName":"Macron","votes":299,"share":10.667142347484837}]},"2":{"code":"97311","name":"Saint-Laurent-du-Maroni","departmentCode":"973","registered":13909,"voters":3325,"expressed":2994,"blank":226,"invalid":105,"turnout":23.905385002516354,"abstention":76.09461499748365,"winnerId":"LE_PEN","runnerUpId":"MACRON","margin":5.277221108884436,"top":[{"id":"LE_PEN","name":"Marine Le Pen","shortName":"Le Pen","votes":1576,"share":52.638610554442224},{"id":"MACRON","name":"Emmanuel Macron","shortName":"Macron","votes":1418,"share":47.36138944555778}]}}},"geometry":{"type":"Polygon","coordinates":[[[138.47,375.84],[136.79,376.28],[136.54,376.88],[135.75,377.48],[135.42,378.16],[135.53,378.73],[134.77,380.28],[133.98,379.96],[133.49,380.26],[133.6,381.43],[133.3,382.14],[133.27,383.04],[133.79,384.29],[133.46,384.78],[133.38,385.38],[133.9,386.01],[133.87,386.33],[134.36,387.07],[134.17,387.4],[133.46,387.45],[133.11,387.01],[131.09,387.26],[130.33,387.83],[129.87,388.57],[129.21,388.27],[128.15,388.87],[128.07,389.47],[128.94,389.79],[128.42,390.64],[127.71,390.96],[127.58,391.75],[127.31,391.94],[126.79,393.14],[126.13,392.98],[126,393.52],[125.51,393.8],[125.37,394.7],[126.6,396.22],[127.11,396.36],[126.9,397.34],[127.28,398.26],[128.18,399.16],[127.69,400.14],[126.92,400.64],[127.03,401.26],[126.03,401.78],[125.7,403.17],[126.68,403.8],[127.14,403.88],[128.69,405.4],[129.78,407.12],[130.22,407.31],[130.44,407.85],[131.15,408.86],[132.26,409.82],[132.65,410.82],[132.48,411.78],[132.13,412.65],[133.16,412.4],[133.76,412.05],[134.03,411.53],[134.52,411.7],[135.53,411.4],[135.94,410.06],[135.18,409.84],[135.15,409.46],[134.5,409.11],[135.12,408.43],[135.48,407.39],[136.24,406.96],[136.95,406.25],[136.65,405.73],[136.7,405.21],[136.21,404.04],[135.12,403.82],[134.42,403.25],[133.19,402.9],[133.11,402.32],[132.62,401.75],[131.99,401.48],[131.96,400.69],[131.36,400.2],[131.61,399.44],[131.34,398.81],[131.8,397.94],[132.24,398.05],[132.26,398.89],[132.97,399.44],[133.63,399.35],[133.98,398.89],[135.42,398.4],[135.56,399.11],[136.08,398.95],[136.81,399.52],[137.22,399.27],[137.41,398.37],[138.12,398.1],[138.01,397.26],[138.8,396.96],[138.97,396.47],[138.72,395.68],[139.29,395.4],[138.69,394.83],[138.86,393.33],[138.72,393.06],[139.16,392.22],[138.88,391.67],[139.43,391.13],[139.7,390.42],[139.78,389.44],[139.26,388.59],[139.56,388.38],[139.54,387.01],[139.24,386.55],[139.95,385.52],[139.37,383.12],[139.1,382.65],[139.16,381.84],[139.56,380.5],[139.18,379.33],[138.39,377.45],[138.47,375.84]]]}},{"type":"Feature","id":"97312","properties":{"code":"97312","name":"Sinnamary","departmentCode":"973","rounds":{"1":{"code":"97312","name":"Sinnamary","departmentCode":"973","registered":1761,"voters":595,"expressed":578,"blank":12,"invalid":5,"turnout":33.78762067007382,"abstention":66.21237932992618,"winnerId":"MELENCHON","runnerUpId":"LE_PEN","margin":26.124567474048444,"top":[{"id":"MELENCHON","name":"Jean-Luc Mélenchon","shortName":"Mélenchon","votes":281,"share":48.615916955017305},{"id":"LE_PEN","name":"Marine Le Pen","shortName":"Le Pen","votes":130,"share":22.491349480968857},{"id":"MACRON","name":"Emmanuel Macron","shortName":"Macron","votes":72,"share":12.45674740484429}]},"2":{"code":"97312","name":"Sinnamary","departmentCode":"973","registered":1766,"voters":655,"expressed":590,"blank":46,"invalid":19,"turnout":37.08946772366931,"abstention":62.91053227633069,"winnerId":"LE_PEN","runnerUpId":"MACRON","margin":44.40677966101695,"top":[{"id":"LE_PEN","name":"Marine Le Pen","shortName":"Le Pen","votes":426,"share":72.20338983050848},{"id":"MACRON","name":"Emmanuel Macron","shortName":"Macron","votes":164,"share":27.796610169491526}]}}},"geometry":{"type":"Polygon","coordinates":[[[154.33,396],[154.52,396.96],[155.17,397.39],[155.01,398.18],[156.35,399.6],[156.54,400.14],[156.18,400.99],[156.18,402.68],[156.84,402.54],[157.38,401.26],[157.95,401.4],[157.49,403.36],[158.06,404.97],[158.12,405.68],[158.47,406.06],[158.53,406.98],[158.23,407.42],[157.71,407.47],[156.48,408.26],[155.67,409.33],[155.47,409.87],[156.43,409.49],[158.14,408.4],[160.02,407.99],[160.9,408.07],[162.2,407.36],[164.06,405.92],[165.2,404.48],[165.23,403.58],[164.74,403.44],[164.55,402.79],[163.16,401.13],[163.02,400.01],[162.07,399.71],[161.06,398.86],[161.17,398.24],[160.65,397.69],[161.09,397.12],[162.42,395.89],[162.34,395.46],[161.5,396.03],[160.81,396.25],[160.38,396.06],[159.51,396.17],[158.61,395.79],[158.01,395.32],[157.63,395.98],[156.7,396.68],[156.46,397.42],[155.91,397.39],[155.61,396.74],[155.64,396.17],[155.17,395.98],[154.33,396]]]}},{"type":"Feature","id":"97313","properties":{"code":"97313","name":"Montsinéry-Tonnegrande","departmentCode":"973","rounds":{"1":{"code":"97313","name":"Montsinéry-Tonnegrande","departmentCode":"973","registered":1342,"voters":538,"expressed":518,"blank":14,"invalid":6,"turnout":40.08941877794337,"abstention":59.910581222056635,"winnerId":"MELENCHON","runnerUpId":"LE_PEN","margin":23.745173745173744,"top":[{"id":"MELENCHON","name":"Jean-Luc Mélenchon","shortName":"Mélenchon","votes":247,"share":47.68339768339768},{"id":"LE_PEN","name":"Marine Le Pen","shortName":"Le Pen","votes":124,"share":23.93822393822394},{"id":"MACRON","name":"Emmanuel Macron","shortName":"Macron","votes":44,"share":8.494208494208493}]},"2":{"code":"97313","name":"Montsinéry-Tonnegrande","departmentCode":"973","registered":1342,"voters":606,"expressed":540,"blank":51,"invalid":15,"turnout":45.156482861400896,"abstention":54.843517138599104,"winnerId":"LE_PEN","runnerUpId":"MACRON","margin":45.55555555555556,"top":[{"id":"LE_PEN","name":"Marine Le Pen","shortName":"Le Pen","votes":393,"share":72.77777777777777},{"id":"MACRON","name":"Emmanuel Macron","shortName":"Macron","votes":147,"share":27.22222222222222}]}}},"geometry":{"type":"Polygon","coordinates":[[[170.57,388.02],[170.02,388.51],[169.94,390.17],[170.21,391.32],[170.76,391.62],[170.38,392.11],[170.78,392.82],[170.87,393.39],[172.23,392.9],[173.02,393.72],[173.4,394.31],[174.79,394.37],[175.17,394.23],[174.49,392.84],[175.53,392.63],[175.93,393.28],[176.59,392.93],[177.13,393.01],[176.7,392.44],[176.56,391.7],[177.05,390.85],[176.89,389.87],[177.21,389.27],[176.89,388.95],[175.8,389.68],[175.47,388.51],[174.57,386.36],[173.45,386.71],[171.44,387.94],[170.57,388.02]]]}},{"type":"Feature","id":"97314","properties":{"code":"97314","name":"Ouanary","departmentCode":"973","rounds":{"1":{"code":"97314","name":"Ouanary","departmentCode":"973","registered":56,"voters":20,"expressed":20,"blank":0,"invalid":0,"turnout":35.714285714285715,"abstention":64.28571428571429,"winnerId":"LE_PEN","runnerUpId":"MELENCHON","margin":15,"top":[{"id":"LE_PEN","name":"Marine Le Pen","shortName":"Le Pen","votes":8,"share":40},{"id":"MELENCHON","name":"Jean-Luc Mélenchon","shortName":"Mélenchon","votes":5,"share":25},{"id":"POUTOU","name":"Philippe Poutou","shortName":"Poutou","votes":3,"share":15}]},"2":{"code":"97314","name":"Ouanary","departmentCode":"973","registered":57,"voters":20,"expressed":19,"blank":0,"invalid":1,"turnout":35.08771929824561,"abstention":64.91228070175438,"winnerId":"LE_PEN","runnerUpId":"MACRON","margin":68.42105263157895,"top":[{"id":"LE_PEN","name":"Marine Le Pen","shortName":"Le Pen","votes":16,"share":84.21052631578947},{"id":"MACRON","name":"Emmanuel Macron","shortName":"Macron","votes":3,"share":15.789473684210526}]}}},"geometry":{"type":"Polygon","coordinates":[[[188.36,368.52],[187.57,370.8],[187.08,371.29],[187.43,372.03],[188.25,372.3],[188.71,372.68],[189.34,371.92],[190.18,372.3],[190.21,372.68],[191.16,372.87],[191.79,372.77],[192.61,373.34],[192.17,373.99],[191.41,374.13],[191.41,374.89],[191.03,376.85],[191.22,377.42],[191.08,379.9],[191.63,380.2],[194.21,380.58],[194.02,379.99],[194.43,379.49],[195.22,378.98],[195,378],[195.44,376.5],[196.31,375.22],[197.13,374.21],[195.66,372.19],[195.17,371.27],[195.66,371.16],[195.52,370.53],[194.92,370.31],[193.83,369.5],[193.12,369.52],[192.96,368.82],[192.47,368.05],[191.35,368.13],[190.94,367.81],[189.8,368.19],[189.45,368.46],[188.36,368.52]]]}},{"type":"Feature","id":"97352","properties":{"code":"97352","name":"Saül","departmentCode":"973","rounds":{"1":{"code":"97352","name":"Saül","departmentCode":"973","registered":120,"voters":49,"expressed":44,"blank":5,"invalid":0,"turnout":40.833333333333336,"abstention":59.166666666666664,"winnerId":"MELENCHON","runnerUpId":"LE_PEN","margin":40.909090909090914,"top":[{"id":"MELENCHON","name":"Jean-Luc Mélenchon","shortName":"Mélenchon","votes":24,"share":54.54545454545454},{"id":"LE_PEN","name":"Marine Le Pen","shortName":"Le Pen","votes":6,"share":13.636363636363635},{"id":"MACRON","name":"Emmanuel Macron","shortName":"Macron","votes":4,"share":9.090909090909092}]},"2":{"code":"97352","name":"Saül","departmentCode":"973","registered":120,"voters":49,"expressed":32,"blank":15,"invalid":2,"turnout":40.833333333333336,"abstention":59.166666666666664,"winnerId":"LE_PEN","runnerUpId":"MACRON","margin":56.25,"top":[{"id":"LE_PEN","name":"Marine Le Pen","shortName":"Le Pen","votes":25,"share":78.125},{"id":"MACRON","name":"Emmanuel Macron","shortName":"Macron","votes":7,"share":21.875}]}}},"geometry":{"type":"Polygon","coordinates":[[[150.54,378.24],[150.73,377.45],[151.39,377.34],[151.85,376.69],[151.44,376.2],[151.88,375.22],[153.19,374.7],[153.32,373.72],[153.92,373.42],[154.09,372.71],[154.44,372.33],[154.3,371.68],[153.54,371],[153.57,370.23],[153.89,369.61],[154.41,369.36],[155.42,366.5],[155.88,365.82],[156.51,365.36],[156.29,364.65],[155.72,364.54],[154.52,363.26],[153.89,363.01],[154.52,362.11],[155.09,361.92],[155.67,360.94],[156.46,359.93],[156.65,358.46],[156.37,357.86],[156.78,357.54],[157.38,357.95],[157.76,357.54],[157.33,357.16],[157.44,356.07],[156.59,355.17],[156.21,354.19],[156.67,353.72],[156.81,352.99],[155.83,352.25],[155.69,351.57],[155.94,350.7],[155.45,349.8],[156.13,348.68],[156.89,348.33],[157.35,347.43],[156.65,347.51],[155.34,348.6],[155.26,349.04],[153.68,349.58],[153.43,350.26],[153.68,351.98],[152.94,352.31],[151.8,352.14],[150.73,352.69],[148.8,352.88],[148.66,353.31],[148.85,354.3],[149.21,354.65],[149.48,356.23],[149.34,356.94],[149.59,357.56],[149.21,358.57],[148.77,358.71],[148.66,359.96],[148.96,360.48],[148.06,361.9],[147.22,362.22],[146.18,363.26],[145.75,364.18],[145.67,365.03],[144.69,365.71],[145.09,366.5],[144.3,366.88],[143.43,366.58],[143.27,367.24],[142.78,367.04],[142.18,367.45],[141.8,367.34],[141.34,367.83],[139.97,367.78],[139.65,367.92],[139.65,369.47],[139.46,369.82],[140.08,370.29],[140.22,370.7],[139.35,371.35],[139.67,373.01],[139.35,373.26],[139.46,374.16],[138.86,375.46],[139.51,376.14],[140.52,376.88],[141.14,376.88],[142.78,377.48],[143.65,378.62],[144.66,379.39],[145.12,378.7],[144.71,378.46],[144.71,377.1],[145.78,376.42],[146.43,376.74],[147.14,376.53],[147.87,376.77],[148.34,376.55],[149.4,376.77],[150.54,378.24]]]}},{"type":"Feature","id":"97353","properties":{"code":"97353","name":"Maripasoula","departmentCode":"973","rounds":{"1":{"code":"97353","name":"Maripasoula","departmentCode":"973","registered":2328,"voters":326,"expressed":317,"blank":5,"invalid":4,"turnout":14.003436426116838,"abstention":85.99656357388317,"winnerId":"MELENCHON","runnerUpId":"MACRON","margin":28.706624605678233,"top":[{"id":"MELENCHON","name":"Jean-Luc Mélenchon","shortName":"Mélenchon","votes":158,"share":49.8422712933754},{"id":"MACRON","name":"Emmanuel Macron","shortName":"Macron","votes":67,"share":21.13564668769716},{"id":"LE_PEN","name":"Marine Le Pen","shortName":"Le Pen","votes":51,"share":16.08832807570978}]},"2":{"code":"97353","name":"Maripasoula","departmentCode":"973","registered":2331,"voters":507,"expressed":481,"blank":17,"invalid":9,"turnout":21.75032175032175,"abstention":78.24967824967824,"winnerId":"MACRON","runnerUpId":"LE_PEN","margin":11.85031185031185,"top":[{"id":"MACRON","name":"Emmanuel Macron","shortName":"Macron","votes":269,"share":55.92515592515592},{"id":"LE_PEN","name":"Marine Le Pen","shortName":"Le Pen","votes":212,"share":44.07484407484408}]}}},"geometry":{"type":"Polygon","coordinates":[[[157.35,347.43],[157.93,346.99],[158.53,346.48],[158.58,345.22],[157.76,343.86],[157.63,341.52],[156.95,341.25],[156.67,340.59],[155.34,339.94],[155.09,338.98],[154.6,338.55],[154.06,337.7],[154.25,336.53],[153.54,336.12],[152.29,334.54],[152.59,333.75],[151.77,333.65],[151.85,332.42],[151.58,331.68],[151.85,331.08],[150.84,330.62],[151.17,330.02],[151.71,329.83],[151.63,328.88],[151.03,328.33],[151.39,328.01],[151.42,327.35],[152.21,327.03],[152.72,326.26],[153.49,326.1],[152.89,324.87],[152.21,324.36],[152.18,323.7],[151.47,323.18],[150.82,323.51],[150.41,323.4],[149.97,322.45],[149.21,322.23],[148.88,321.74],[148.36,321.79],[147.74,320.95],[146.92,321.06],[145.2,320.81],[144.85,321.14],[143.76,321.52],[142.21,321.52],[142.29,322.04],[141.25,322.31],[140.25,322.39],[139.73,322.64],[140.33,323.16],[139.86,323.97],[139.24,324.16],[138.39,323.76],[138.04,323.21],[137.36,322.97],[137.96,322.42],[137.28,322.15],[136.05,322.34],[136,321.41],[135.18,321.06],[134.47,320.98],[134.69,320.38],[134.5,319.94],[133.14,319.62],[132.43,318.91],[131.61,319.02],[131.09,319.29],[130.33,317.74],[129.81,317.14],[128.99,317],[128.29,317.44],[127.69,318.58],[126.76,318.01],[125.83,318.12],[125.59,317.84],[124.39,318.2],[123.55,318.06],[122.97,318.83],[122.97,319.7],[122.05,319.29],[120.63,319.48],[119.84,319.81],[119.35,320.27],[119.11,320.87],[118.26,321.03],[118.51,321.52],[118.07,322.83],[116.87,322.69],[116.46,323.1],[116.79,323.51],[117.33,323.57],[118.97,323.1],[119.11,324.57],[119.62,325.15],[119.92,325.8],[120.96,325.64],[121.42,325.8],[122.78,327.79],[123.25,328.06],[123.52,329.26],[123.93,329.91],[124.47,331.41],[125.37,332.31],[125.67,333.65],[126.79,334.46],[127.47,335.82],[127.2,336.56],[127.8,336.72],[127.93,337.49],[127.55,338.03],[128.15,339.48],[128.07,340.48],[127.82,341.11],[128.23,341.6],[127.55,342.94],[128.15,343.29],[127.99,344.52],[127.11,344.65],[127.03,345.28],[127.71,346.78],[128.1,346.78],[129.16,348.41],[129.54,348.57],[130.14,349.34],[130.66,349.12],[131.04,349.99],[131.5,351.68],[132.26,352.36],[132.4,353.64],[132.65,353.86],[132.7,356.69],[133.24,357.02],[133.41,357.7],[132.73,358.79],[132.13,358.44],[131.5,358.44],[131.5,358.9],[130.74,359.42],[130.49,359.99],[130.71,360.45],[130.17,361.46],[130.96,362.14],[131.83,362.33],[132.15,362.17],[132.62,363.2],[133.35,363.42],[134.85,364.1],[135.37,364.02],[136.24,365.66],[137.06,366.15],[137.71,366.2],[138.56,366.77],[139.21,367.7],[139.97,367.78],[141.34,367.83],[141.8,367.34],[142.18,367.45],[142.78,367.04],[143.27,367.24],[143.43,366.58],[144.3,366.88],[145.09,366.5],[144.69,365.71],[145.67,365.03],[145.75,364.18],[146.18,363.26],[147.22,362.22],[148.06,361.9],[148.96,360.48],[148.66,359.96],[148.77,358.71],[149.21,358.57],[149.59,357.56],[149.34,356.94],[149.48,356.23],[149.21,354.65],[148.85,354.3],[148.66,353.31],[148.8,352.88],[150.73,352.69],[151.8,352.14],[152.94,352.31],[153.68,351.98],[153.43,350.26],[153.68,349.58],[155.26,349.04],[155.34,348.6],[156.65,347.51],[157.35,347.43]]]}},{"type":"Feature","id":"97356","properties":{"code":"97356","name":"Camopi","departmentCode":"973","rounds":{"1":{"code":"97356","name":"Camopi","departmentCode":"973","registered":1081,"voters":241,"expressed":241,"blank":0,"invalid":0,"turnout":22.294172062904718,"abstention":77.70582793709528,"winnerId":"MELENCHON","runnerUpId":"MACRON","margin":3.319502074688797,"top":[{"id":"MELENCHON","name":"Jean-Luc Mélenchon","shortName":"Mélenchon","votes":97,"share":40.24896265560166},{"id":"MACRON","name":"Emmanuel Macron","shortName":"Macron","votes":89,"share":36.92946058091287},{"id":"LE_PEN","name":"Marine Le Pen","shortName":"Le Pen","votes":36,"share":14.937759336099585}]},"2":{"code":"97356","name":"Camopi","departmentCode":"973","registered":1081,"voters":418,"expressed":412,"blank":4,"invalid":2,"turnout":38.66790009250694,"abstention":61.33209990749307,"winnerId":"MACRON","runnerUpId":"LE_PEN","margin":31.06796116504854,"top":[{"id":"MACRON","name":"Emmanuel Macron","shortName":"Macron","votes":270,"share":65.53398058252428},{"id":"LE_PEN","name":"Marine Le Pen","shortName":"Le Pen","votes":142,"share":34.46601941747573}]}}},"geometry":{"type":"Polygon","coordinates":[[[157.93,346.99],[158.31,348.25],[158.12,348.74],[158.33,349.28],[159.29,349.47],[159.62,349.31],[160.71,349.45],[161.93,349.17],[162.78,348.6],[164.25,348.6],[165.01,349.31],[165.88,348.96],[166.7,348.14],[166.26,347.35],[166.53,346.89],[167.65,346.42],[168.28,346.56],[168.8,346.34],[169.04,346.91],[170.68,348.3],[170.08,349.34],[169.89,349.96],[170.13,350.45],[170.7,350.4],[172.15,350.81],[172.31,351.08],[172.28,352.47],[172.56,353.37],[172.34,354.19],[173.7,354.65],[174.63,354.38],[174.87,354],[176.04,354],[176.07,353.04],[176.51,352.39],[177.32,352.63],[177.73,352.14],[178.98,352.88],[179.45,352.91],[180.21,353.72],[180.65,354.62],[181.57,355.03],[183.04,355.28],[183.13,356.04],[183.81,356.39],[185.03,356.67],[186.15,356.18],[185.69,355.3],[184.98,354.51],[184.76,353.75],[184.02,352.72],[182.53,350.07],[182.2,349.39],[180.97,347.73],[180.54,348],[179.39,347.32],[179.09,346.61],[179.2,346.01],[178.39,345.71],[177.79,344.52],[177.95,343.83],[178.41,343.1],[177.49,341.63],[177.24,340.51],[176.59,339.28],[176.72,338.39],[175.91,338.25],[175.23,337.08],[174.33,335.23],[174.41,334.71],[173.54,332.96],[173.18,332.5],[172.94,331.68],[172.2,331.36],[172.58,330.87],[172.99,329.78],[172.07,328.82],[172.31,328.12],[171.96,327.98],[171.06,326.86],[170.54,326.89],[170.57,326.07],[169.99,326.04],[169.45,324.93],[169.34,324.11],[168.01,323.7],[167.82,323.29],[166.15,322.58],[165.45,322.09],[164.41,321.85],[164.08,321.11],[163.57,320.65],[162.72,319.12],[160.43,318.5],[160.19,318.74],[158.66,319.1],[158.09,319.89],[157.33,320.08],[154.38,319.67],[154,319.4],[153.43,319.67],[152.94,319.07],[152.56,319.23],[153.24,320.49],[153.92,321.11],[153.13,321.28],[153.02,321.71],[152.01,322.23],[151.47,323.18],[152.18,323.7],[152.21,324.36],[152.89,324.87],[153.49,326.1],[152.72,326.26],[152.21,327.03],[151.42,327.35],[151.39,328.01],[151.03,328.33],[151.63,328.88],[151.71,329.83],[151.17,330.02],[150.84,330.62],[151.85,331.08],[151.58,331.68],[151.85,332.42],[151.77,333.65],[152.59,333.75],[152.29,334.54],[153.54,336.12],[154.25,336.53],[154.06,337.7],[154.6,338.55],[155.09,338.98],[155.34,339.94],[156.67,340.59],[156.95,341.25],[157.63,341.52],[157.76,343.86],[158.58,345.22],[158.53,346.48],[157.93,346.99]]]}},{"type":"Feature","id":"97357","properties":{"code":"97357","name":"Grand-Santi","departmentCode":"973","rounds":{"1":{"code":"97357","name":"Grand-Santi","departmentCode":"973","registered":1312,"voters":172,"expressed":171,"blank":1,"invalid":0,"turnout":13.109756097560975,"abstention":86.89024390243902,"winnerId":"MELENCHON","runnerUpId":"MACRON","margin":17.543859649122805,"top":[{"id":"MELENCHON","name":"Jean-Luc Mélenchon","shortName":"Mélenchon","votes":80,"share":46.783625730994146},{"id":"MACRON","name":"Emmanuel Macron","shortName":"Macron","votes":50,"share":29.239766081871345},{"id":"ARTHAUD","name":"Nathalie Arthaud","shortName":"Arthaud","votes":8,"share":4.678362573099415}]},"2":{"code":"97357","name":"Grand-Santi","departmentCode":"973","registered":1312,"voters":150,"expressed":144,"blank":2,"invalid":4,"turnout":11.432926829268293,"abstention":88.5670731707317,"winnerId":"MACRON","runnerUpId":"LE_PEN","margin":51.388888888888886,"top":[{"id":"MACRON","name":"Emmanuel Macron","shortName":"Macron","votes":109,"share":75.69444444444444},{"id":"LE_PEN","name":"Marine Le Pen","shortName":"Le Pen","votes":35,"share":24.305555555555554}]}}},"geometry":{"type":"Polygon","coordinates":[[[138.47,375.84],[138.86,375.46],[138.01,374.95],[137.17,375.22],[135.61,374.92],[134.8,375.74],[133.3,376.23],[132.1,376.17],[131.66,375.9],[131.39,375.22],[130.47,374.59],[130.19,374.89],[129.48,374.4],[128.59,374.78],[127.8,375.52],[127.03,375.71],[126.43,375.03],[126.73,374.62],[126.16,373.07],[125.45,372.3],[124.91,372.08],[124.06,372.08],[124.06,372.38],[123.36,373.01],[122.29,373.34],[122.05,374.02],[122.46,375.54],[122.13,376.72],[122.35,377.94],[122.1,378.35],[121.23,378.57],[121.23,379.69],[120.85,380.26],[121.09,381.05],[120.63,382.74],[120.9,383.2],[121.42,383.31],[121.67,384.15],[121.5,385.11],[122.21,385.35],[123.57,385.41],[124.04,385.16],[124.36,384.45],[125.26,384.04],[125.89,384.26],[126.46,383.69],[127.47,383.53],[128.37,383.09],[132.37,383.72],[133.46,384.78],[133.79,384.29],[133.27,383.04],[133.3,382.14],[133.6,381.43],[133.49,380.26],[133.98,379.96],[134.77,380.28],[135.53,378.73],[135.42,378.16],[135.75,377.48],[136.54,376.88],[136.79,376.28],[138.47,375.84]]]}},{"type":"Feature","id":"97358","properties":{"code":"97358","name":"Saint-Élie","departmentCode":"973","rounds":{"1":{"code":"97358","name":"Saint-Elie","departmentCode":"973","registered":53,"voters":40,"expressed":40,"blank":0,"invalid":0,"turnout":75.47169811320755,"abstention":24.528301886792452,"winnerId":"MACRON","runnerUpId":"MELENCHON","margin":37.5,"top":[{"id":"MACRON","name":"Emmanuel Macron","shortName":"Macron","votes":25,"share":62.5},{"id":"MELENCHON","name":"Jean-Luc Mélenchon","shortName":"Mélenchon","votes":10,"share":25},{"id":"LASSALLE","name":"Jean Lassalle","shortName":"Lassalle","votes":2,"share":5}]},"2":{"code":"97358","name":"Saint-Elie","departmentCode":"973","registered":53,"voters":38,"expressed":33,"blank":2,"invalid":3,"turnout":71.69811320754717,"abstention":28.30188679245283,"winnerId":"MACRON","runnerUpId":"LE_PEN","margin":69.6969696969697,"top":[{"id":"MACRON","name":"Emmanuel Macron","shortName":"Macron","votes":28,"share":84.84848484848484},{"id":"LE_PEN","name":"Marine Le Pen","shortName":"Le Pen","votes":5,"share":15.151515151515152}]}}},"geometry":{"type":"Polygon","coordinates":[[[155.88,365.82],[155.42,366.5],[154.41,369.36],[153.89,369.61],[153.57,370.23],[153.54,371],[154.3,371.68],[154.44,372.33],[154.09,372.71],[153.92,373.42],[153.32,373.72],[153.19,374.7],[151.88,375.22],[151.44,376.2],[151.85,376.69],[151.39,377.34],[150.73,377.45],[150.54,378.24],[150.82,380.42],[151.12,380.45],[151.58,381.24],[151.55,382.74],[151.85,383.01],[151.28,384.32],[150.84,384.21],[149.84,385.05],[148.88,386.01],[149.02,387.15],[148.36,387.4],[148.55,387.94],[148.31,388.54],[149.24,389.41],[149.24,389.96],[148.72,390.36],[149.59,391.02],[149.7,391.54],[150.41,392.05],[150.27,392.41],[150.63,393.12],[150.13,393.39],[150.95,394.61],[151.17,395.19],[152.07,395],[153,395.84],[153.1,396.96],[153.92,396.44],[154.33,396],[155.17,395.98],[155.64,396.17],[155.61,396.74],[155.91,397.39],[156.46,397.42],[156.7,396.68],[157.63,395.98],[158.01,395.32],[158.61,395.79],[159.51,396.17],[160.38,396.06],[160.81,396.25],[161.5,396.03],[162.34,395.46],[162.53,394.75],[163.1,394.15],[163.7,392.68],[163.08,391.48],[162.83,390.06],[163.21,389.38],[162.97,389.14],[162.61,388.02],[163.24,387.12],[163.02,386.39],[163.32,385.46],[164.25,385],[164.85,384.4],[165.04,383.66],[165.83,382.25],[165.85,381.84],[164.63,380.26],[164.08,380.07],[163.92,379.41],[164.03,378.02],[164.9,376.93],[164.82,376.36],[164.82,374.05],[164.98,373.5],[164.36,373.31],[163.13,372.08],[162.45,371.87],[162.31,370.94],[161.82,370.34],[161.5,369.47],[160.9,369.41],[160.38,368.43],[159.18,368],[158.99,367.51],[158.42,367.67],[157.95,367.15],[157.35,367.04],[157.03,366.61],[155.96,366.06],[155.88,365.82]]]}},{"type":"Feature","id":"97360","properties":{"code":"97360","name":"Apatou","departmentCode":"973","rounds":{"1":{"code":"97360","name":"Apatou","departmentCode":"973","registered":2064,"voters":375,"expressed":369,"blank":2,"invalid":4,"turnout":18.168604651162788,"abstention":81.8313953488372,"winnerId":"MELENCHON","runnerUpId":"MACRON","margin":56.91056910569105,"top":[{"id":"MELENCHON","name":"Jean-Luc Mélenchon","shortName":"Mélenchon","votes":275,"share":74.52574525745257},{"id":"MACRON","name":"Emmanuel Macron","shortName":"Macron","votes":65,"share":17.615176151761517},{"id":"LE_PEN","name":"Marine Le Pen","shortName":"Le Pen","votes":18,"share":4.878048780487805}]},"2":{"code":"97360","name":"Apatou","departmentCode":"973","registered":2062,"voters":366,"expressed":160,"blank":8,"invalid":198,"turnout":17.749757516973812,"abstention":82.2502424830262,"winnerId":"MACRON","runnerUpId":"LE_PEN","margin":35,"top":[{"id":"MACRON","name":"Emmanuel Macron","shortName":"Macron","votes":108,"share":67.5},{"id":"LE_PEN","name":"Marine Le Pen","shortName":"Le Pen","votes":52,"share":32.5}]}}},"geometry":{"type":"Polygon","coordinates":[[[121.5,385.11],[121.09,385.84],[121.2,386.77],[121.5,387.53],[121.39,387.94],[120.44,388.13],[120.17,388.65],[120.33,389.74],[120.14,390.56],[120.09,392.65],[119.81,392.95],[120.88,394.34],[120.79,395.16],[120.93,396.09],[121.53,397.37],[121.53,397.91],[122.73,398.67],[122.92,399.38],[123.33,399.6],[124.42,401.72],[125.7,403.17],[126.03,401.78],[127.03,401.26],[126.92,400.64],[127.69,400.14],[128.18,399.16],[127.28,398.26],[126.9,397.34],[127.11,396.36],[126.6,396.22],[125.37,394.7],[125.51,393.8],[126,393.52],[126.13,392.98],[126.79,393.14],[127.31,391.94],[127.58,391.75],[127.71,390.96],[128.42,390.64],[128.94,389.79],[128.07,389.47],[128.15,388.87],[129.21,388.27],[129.87,388.57],[130.33,387.83],[131.09,387.26],[133.11,387.01],[133.46,387.45],[134.17,387.4],[134.36,387.07],[133.87,386.33],[133.9,386.01],[133.38,385.38],[133.46,384.78],[132.37,383.72],[128.37,383.09],[127.47,383.53],[126.46,383.69],[125.89,384.26],[125.26,384.04],[124.36,384.45],[124.04,385.16],[123.57,385.41],[122.21,385.35],[121.5,385.11]]]}},{"type":"Feature","id":"97361","properties":{"code":"97361","name":"Awala-Yalimapo","departmentCode":"973","rounds":{"1":{"code":"97361","name":"Awala-Yalimapo","departmentCode":"973","registered":706,"voters":133,"expressed":128,"blank":4,"invalid":1,"turnout":18.8385269121813,"abstention":81.16147308781869,"winnerId":"MELENCHON","runnerUpId":"LE_PEN","margin":33.59375,"top":[{"id":"MELENCHON","name":"Jean-Luc Mélenchon","shortName":"Mélenchon","votes":67,"share":52.34375},{"id":"LE_PEN","name":"Marine Le Pen","shortName":"Le Pen","votes":24,"share":18.75},{"id":"MACRON","name":"Emmanuel Macron","shortName":"Macron","votes":22,"share":17.1875}]},"2":{"code":"97361","name":"Awala-Yalimapo","departmentCode":"973","registered":705,"voters":236,"expressed":222,"blank":11,"invalid":3,"turnout":33.47517730496454,"abstention":66.52482269503545,"winnerId":"LE_PEN","runnerUpId":"MACRON","margin":0.9009009009009009,"top":[{"id":"LE_PEN","name":"Marine Le Pen","shortName":"Le Pen","votes":112,"share":50.45045045045045},{"id":"MACRON","name":"Emmanuel Macron","shortName":"Macron","votes":110,"share":49.549549549549546}]}}},"geometry":{"type":"Polygon","coordinates":[[[132.51,413.19],[132.51,413.71],[133.19,415.13],[133.71,415.75],[134.63,416],[135.7,415.62],[136.81,415.56],[137.66,415.26],[137.49,414.39],[136.79,413.33],[136.35,413.22],[135.94,412],[135.51,412.35],[134.88,412.43],[134.5,412.95],[132.51,413.19]]]}},{"type":"Feature","id":"97362","properties":{"code":"97362","name":"Papaichton","departmentCode":"973","rounds":{"1":{"code":"97362","name":"Papaichton","departmentCode":"973","registered":929,"voters":164,"expressed":160,"blank":2,"invalid":2,"turnout":17.653390742734125,"abstention":82.34660925726588,"winnerId":"MELENCHON","runnerUpId":"MACRON","margin":38.125,"top":[{"id":"MELENCHON","name":"Jean-Luc Mélenchon","shortName":"Mélenchon","votes":88,"share":55.00000000000001},{"id":"MACRON","name":"Emmanuel Macron","shortName":"Macron","votes":27,"share":16.875},{"id":"LE_PEN","name":"Marine Le Pen","shortName":"Le Pen","votes":10,"share":6.25}]},"2":{"code":"97362","name":"Papaichton","departmentCode":"973","registered":929,"voters":194,"expressed":186,"blank":3,"invalid":5,"turnout":20.882669537136707,"abstention":79.1173304628633,"winnerId":"LE_PEN","runnerUpId":"MACRON","margin":1.0752688172043012,"top":[{"id":"LE_PEN","name":"Marine Le Pen","shortName":"Le Pen","votes":94,"share":50.53763440860215},{"id":"MACRON","name":"Emmanuel Macron","shortName":"Macron","votes":92,"share":49.46236559139785}]}}},"geometry":{"type":"Polygon","coordinates":[[[130.17,361.46],[129.32,362.96],[128.29,363.09],[127.66,362.99],[127.39,363.56],[127.55,364.35],[126.49,364.54],[126,365.66],[125.18,366.45],[124.72,368.3],[123.98,368.92],[123.57,369.55],[123.16,369.66],[123.52,370.83],[123.55,371.68],[124.06,372.08],[124.91,372.08],[125.45,372.3],[126.16,373.07],[126.73,374.62],[126.43,375.03],[127.03,375.71],[127.8,375.52],[128.59,374.78],[129.48,374.4],[130.19,374.89],[130.47,374.59],[131.39,375.22],[131.66,375.9],[132.1,376.17],[133.3,376.23],[134.8,375.74],[135.61,374.92],[137.17,375.22],[138.01,374.95],[138.86,375.46],[139.46,374.16],[139.35,373.26],[139.67,373.01],[139.35,371.35],[140.22,370.7],[140.08,370.29],[139.46,369.82],[139.65,369.47],[139.65,367.92],[139.97,367.78],[139.21,367.7],[138.56,366.77],[137.71,366.2],[137.06,366.15],[136.24,365.66],[135.37,364.02],[134.85,364.1],[133.35,363.42],[132.62,363.2],[132.15,362.17],[131.83,362.33],[130.96,362.14],[130.17,361.46]]]}}]}