{"type":"FeatureCollection","features":[{"type":"Feature","id":"97401","properties":{"code":"97401","name":"Les Avirons","departmentCode":"974","rounds":{"1":{"code":"97401","name":"Les Avirons","departmentCode":"974","registered":9474,"voters":5776,"expressed":5571,"blank":116,"invalid":89,"turnout":60.96685666033355,"abstention":39.03314333966645,"winnerId":"MELENCHON","runnerUpId":"LE_PEN","margin":19.601507808292943,"top":[{"id":"MELENCHON","name":"Jean-Luc Mélenchon","shortName":"Mélenchon","votes":2304,"share":41.35702746365105},{"id":"LE_PEN","name":"Marine Le Pen","shortName":"Le Pen","votes":1212,"share":21.755519655358103},{"id":"MACRON","name":"Emmanuel Macron","shortName":"Macron","votes":948,"share":17.016693591814754}]},"2":{"code":"97401","name":"Les Avirons","departmentCode":"974","registered":9489,"voters":6113,"expressed":5510,"blank":373,"invalid":230,"turnout":64.42196227210454,"abstention":35.578037727895456,"winnerId":"LE_PEN","runnerUpId":"MACRON","margin":18.185117967332122,"top":[{"id":"LE_PEN","name":"Marine Le Pen","shortName":"Le Pen","votes":3256,"share":59.092558983666066},{"id":"MACRON","name":"Emmanuel Macron","shortName":"Macron","votes":2254,"share":40.90744101633394}]}}},"geometry":{"type":"Polygon","coordinates":[[[790.73,104.69],[788.54,100.41],[785.46,96.79],[784.92,93.06],[781.52,93.06],[781.41,93.5],[782.94,97.12],[784.81,99.43],[790.62,104.91],[790.73,104.69]]]}},{"type":"Feature","id":"97402","properties":{"code":"97402","name":"Bras-Panon","departmentCode":"974","rounds":{"1":{"code":"97402","name":"Bras-Panon","departmentCode":"974","registered":10155,"voters":5330,"expressed":5115,"blank":103,"invalid":112,"turnout":52.486459871984245,"abstention":47.513540128015755,"winnerId":"MELENCHON","runnerUpId":"LE_PEN","margin":12.70772238514174,"top":[{"id":"MELENCHON","name":"Jean-Luc Mélenchon","shortName":"Mélenchon","votes":2097,"share":40.997067448680355},{"id":"LE_PEN","name":"Marine Le Pen","shortName":"Le Pen","votes":1447,"share":28.28934506353861},{"id":"MACRON","name":"Emmanuel Macron","shortName":"Macron","votes":770,"share":15.053763440860216}]},"2":{"code":"97402","name":"Bras-Panon","departmentCode":"974","registered":10165,"voters":6090,"expressed":5575,"blank":276,"invalid":239,"turnout":59.91146089522873,"abstention":40.08853910477128,"winnerId":"LE_PEN","runnerUpId":"MACRON","margin":32.30493273542601,"top":[{"id":"LE_PEN","name":"Marine Le Pen","shortName":"Le Pen","votes":3688,"share":66.152466367713},{"id":"MACRON","name":"Emmanuel Macron","shortName":"Macron","votes":1887,"share":33.847533632286996}]}}},"geometry":{"type":"Polygon","coordinates":[[[806.74,112.81],[807.73,113.79],[807.07,116.86],[807.84,118.73],[810.36,120.7],[812.01,120.48],[816.28,123.23],[820.01,122.46],[822.97,123.12],[823.08,120.26],[821.22,119.83],[818.48,116.97],[814.09,116.32],[810.58,111.49],[806.74,112.81]]]}},{"type":"Feature","id":"97403","properties":{"code":"97403","name":"Entre-Deux","departmentCode":"974","rounds":{"1":{"code":"97403","name":"Entre-Deux","departmentCode":"974","registered":5934,"voters":3911,"expressed":3790,"blank":55,"invalid":66,"turnout":65.90832490731378,"abstention":34.091675092686216,"winnerId":"MELENCHON","runnerUpId":"LE_PEN","margin":5.540897097625329,"top":[{"id":"MELENCHON","name":"Jean-Luc Mélenchon","shortName":"Mélenchon","votes":1374,"share":36.2532981530343},{"id":"LE_PEN","name":"Marine Le Pen","shortName":"Le Pen","votes":1164,"share":30.71240105540897},{"id":"MACRON","name":"Emmanuel Macron","shortName":"Macron","votes":653,"share":17.229551451187337}]},"2":{"code":"97403","name":"Entre-Deux","departmentCode":"974","registered":5944,"voters":4161,"expressed":3749,"blank":232,"invalid":180,"turnout":70.00336473755047,"abstention":29.996635262449526,"winnerId":"LE_PEN","runnerUpId":"MACRON","margin":31.715124033075487,"top":[{"id":"LE_PEN","name":"Marine Le Pen","shortName":"Le Pen","votes":2469,"share":65.85756201653774},{"id":"MACRON","name":"Emmanuel Macron","shortName":"Macron","votes":1280,"share":34.14243798346226}]}}},"geometry":{"type":"Polygon","coordinates":[[[801.81,105.46],[804,105.9],[804.55,101.62],[802.68,100.3],[802.35,96.03],[798.74,92.85],[796.1,89.45],[797.09,92.95],[796.54,94.93],[796.87,99.43],[800.49,101.4],[801.81,105.46]]]}},{"type":"Feature","id":"97404","properties":{"code":"97404","name":"L'Étang-Salé","departmentCode":"974","rounds":{"1":{"code":"97404","name":"L'Etang-Salé","departmentCode":"974","registered":12542,"voters":7368,"expressed":7157,"blank":101,"invalid":110,"turnout":58.7466113857439,"abstention":41.253388614256096,"winnerId":"MELENCHON","runnerUpId":"LE_PEN","margin":17.311722788878022,"top":[{"id":"MELENCHON","name":"Jean-Luc Mélenchon","shortName":"Mélenchon","votes":2912,"share":40.68743887103535},{"id":"LE_PEN","name":"Marine Le Pen","shortName":"Le Pen","votes":1673,"share":23.37571608215733},{"id":"MACRON","name":"Emmanuel Macron","shortName":"Macron","votes":1180,"share":16.48735503702669}]},"2":{"code":"97404","name":"L'Etang-Salé","departmentCode":"974","registered":12549,"voters":8049,"expressed":7290,"blank":477,"invalid":282,"turnout":64.140568969639,"abstention":35.85943103036098,"winnerId":"LE_PEN","runnerUpId":"MACRON","margin":20.521262002743484,"top":[{"id":"LE_PEN","name":"Marine Le Pen","shortName":"Le Pen","votes":4393,"share":60.26063100137174},{"id":"MACRON","name":"Emmanuel Macron","shortName":"Macron","votes":2897,"share":39.73936899862826}]}}},"geometry":{"type":"Polygon","coordinates":[[[789.08,88.68],[783.38,89.99],[781.52,93.06],[784.92,93.06],[785.46,96.79],[788.54,100.41],[789.19,92.3],[787.88,89.88],[789.08,88.68]]]}},{"type":"Feature","id":"97405","properties":{"code":"97405","name":"Petite-Île","departmentCode":"974","rounds":{"1":{"code":"97405","name":"Petite-Ile","departmentCode":"974","registered":10732,"voters":6555,"expressed":6256,"blank":131,"invalid":168,"turnout":61.07901602683563,"abstention":38.92098397316437,"winnerId":"MELENCHON","runnerUpId":"LE_PEN","margin":9.143222506393862,"top":[{"id":"MELENCHON","name":"Jean-Luc Mélenchon","shortName":"Mélenchon","votes":2303,"share":36.81265984654731},{"id":"LE_PEN","name":"Marine Le Pen","shortName":"Le Pen","votes":1731,"share":27.66943734015345},{"id":"MACRON","name":"Emmanuel Macron","shortName":"Macron","votes":1187,"share":18.973785166240408}]},"2":{"code":"97405","name":"Petite-Ile","departmentCode":"974","registered":10738,"voters":6987,"expressed":6359,"blank":343,"invalid":285,"turnout":65.06798286459303,"abstention":34.932017135406966,"winnerId":"LE_PEN","runnerUpId":"MACRON","margin":28.227708759238872,"top":[{"id":"LE_PEN","name":"Marine Le Pen","shortName":"Le Pen","votes":4077,"share":64.11385437961944},{"id":"MACRON","name":"Emmanuel Macron","shortName":"Macron","votes":2282,"share":35.88614562038056}]}}},"geometry":{"type":"Polygon","coordinates":[[[804.99,81],[806.19,85.5],[809.92,86.92],[812.45,89.23],[810.69,86.15],[810.8,81.66],[810.14,80.01],[808.94,79.57],[804.99,81]]]}},{"type":"Feature","id":"97406","properties":{"code":"97406","name":"La Plaine-des-Palmistes","departmentCode":"974","rounds":{"1":{"code":"97406","name":"La Plaine-des-Palmistes","departmentCode":"974","registered":5374,"voters":3056,"expressed":2924,"blank":57,"invalid":75,"turnout":56.86639374767398,"abstention":43.13360625232601,"winnerId":"LE_PEN","runnerUpId":"MELENCHON","margin":11.2859097127223,"top":[{"id":"LE_PEN","name":"Marine Le Pen","shortName":"Le Pen","votes":1206,"share":41.244870041039675},{"id":"MELENCHON","name":"Jean-Luc Mélenchon","shortName":"Mélenchon","votes":876,"share":29.958960328317374},{"id":"MACRON","name":"Emmanuel Macron","shortName":"Macron","votes":438,"share":14.979480164158687}]},"2":{"code":"97406","name":"La Plaine-des-Palmistes","departmentCode":"974","registered":5377,"voters":3433,"expressed":3163,"blank":138,"invalid":132,"turnout":63.846010786684026,"abstention":36.153989213315974,"winnerId":"LE_PEN","runnerUpId":"MACRON","margin":47.45494783433449,"top":[{"id":"LE_PEN","name":"Marine Le Pen","shortName":"Le Pen","votes":2332,"share":73.72747391716725},{"id":"MACRON","name":"Emmanuel Macron","shortName":"Macron","votes":831,"share":26.272526082832755}]}}},"geometry":{"type":"Polygon","coordinates":[[[824.73,101.95],[821.11,100.52],[818.7,98.44],[816.17,102.5],[814.64,100.96],[811.02,101.84],[809.05,106.12],[815.3,107.87],[818.04,109.3],[824.73,101.95]]]}},{"type":"Feature","id":"97407","properties":{"code":"97407","name":"Le Port","departmentCode":"974","rounds":{"1":{"code":"97407","name":"Le Port","departmentCode":"974","registered":26354,"voters":13080,"expressed":12433,"blank":291,"invalid":356,"turnout":49.631934431205885,"abstention":50.36806556879411,"winnerId":"MELENCHON","runnerUpId":"LE_PEN","margin":29.671036757017617,"top":[{"id":"MELENCHON","name":"Jean-Luc Mélenchon","shortName":"Mélenchon","votes":6456,"share":51.92632510254966},{"id":"LE_PEN","name":"Marine Le Pen","shortName":"Le Pen","votes":2767,"share":22.25528834553205},{"id":"MACRON","name":"Emmanuel Macron","shortName":"Macron","votes":1728,"share":13.898495938228908}]},"2":{"code":"97407","name":"Le Port","departmentCode":"974","registered":26375,"voters":14305,"expressed":12831,"blank":797,"invalid":677,"turnout":54.23696682464455,"abstention":45.76303317535545,"winnerId":"LE_PEN","runnerUpId":"MACRON","margin":19.538617410957837,"top":[{"id":"LE_PEN","name":"Marine Le Pen","shortName":"Le Pen","votes":7669,"share":59.76930870547892},{"id":"MACRON","name":"Emmanuel Macron","shortName":"Macron","votes":5162,"share":40.23069129452108}]}}},"geometry":{"type":"Polygon","coordinates":[[[782.39,128.71],[781.19,124.21],[778.88,125.53],[776.58,125.42],[777.79,128.16],[782.39,128.71]]]}},{"type":"Feature","id":"97408","properties":{"code":"97408","name":"La Possession","departmentCode":"974","rounds":{"1":{"code":"97408","name":"La Possession","departmentCode":"974","registered":24431,"voters":13674,"expressed":13202,"blank":245,"invalid":227,"turnout":55.9698743399779,"abstention":44.0301256600221,"winnerId":"MELENCHON","runnerUpId":"LE_PEN","margin":22.542039084987124,"top":[{"id":"MELENCHON","name":"Jean-Luc Mélenchon","shortName":"Mélenchon","votes":5627,"share":42.622329950007575},{"id":"LE_PEN","name":"Marine Le Pen","shortName":"Le Pen","votes":2651,"share":20.08029086502045},{"id":"MACRON","name":"Emmanuel Macron","shortName":"Macron","votes":2567,"share":19.444023632782912}]},"2":{"code":"97408","name":"La Possession","departmentCode":"974","registered":24474,"voters":14608,"expressed":13241,"blank":813,"invalid":554,"turnout":59.68783198496364,"abstention":40.31216801503636,"winnerId":"LE_PEN","runnerUpId":"MACRON","margin":8.360395740502984,"top":[{"id":"LE_PEN","name":"Marine Le Pen","shortName":"Le Pen","votes":7174,"share":54.18019787025149},{"id":"MACRON","name":"Emmanuel Macron","shortName":"Macron","votes":6067,"share":45.81980212974851}]}}},"geometry":{"type":"Polygon","coordinates":[[[797.2,111.38],[797.09,111.38],[792.48,110.17],[790.62,111.82],[791.94,113.35],[790.29,115.44],[790.07,119.83],[785.14,123.45],[781.19,124.21],[782.39,128.71],[787.44,132.22],[789.19,127.61],[792.15,122.68],[795.45,120.92],[796.76,119.17],[795.77,114.12],[797.2,111.38]]]}},{"type":"Feature","id":"97409","properties":{"code":"97409","name":"Saint-André","departmentCode":"974","rounds":{"1":{"code":"97409","name":"Saint-André","departmentCode":"974","registered":40298,"voters":18546,"expressed":17904,"blank":302,"invalid":340,"turnout":46.02213509355303,"abstention":53.97786490644697,"winnerId":"MELENCHON","runnerUpId":"LE_PEN","margin":10.796470062555853,"top":[{"id":"MELENCHON","name":"Jean-Luc Mélenchon","shortName":"Mélenchon","votes":7248,"share":40.48257372654155},{"id":"LE_PEN","name":"Marine Le Pen","shortName":"Le Pen","votes":5315,"share":29.6861036639857},{"id":"MACRON","name":"Emmanuel Macron","shortName":"Macron","votes":3033,"share":16.94034852546917}]},"2":{"code":"97409","name":"Saint-André","departmentCode":"974","registered":40320,"voters":21446,"expressed":19807,"blank":867,"invalid":772,"turnout":53.189484126984134,"abstention":46.81051587301587,"winnerId":"LE_PEN","runnerUpId":"MACRON","margin":27.944666027162114,"top":[{"id":"LE_PEN","name":"Marine Le Pen","shortName":"Le Pen","votes":12671,"share":63.972333013581064},{"id":"MACRON","name":"Emmanuel Macron","shortName":"Macron","votes":7136,"share":36.02766698641894}]}}},"geometry":{"type":"Polygon","coordinates":[[[810.36,120.7],[809.15,121.58],[811.35,123.99],[817.05,127.5],[815.19,130.57],[819.14,129.04],[821.11,126.85],[822.97,123.12],[820.01,122.46],[816.28,123.23],[812.01,120.48],[810.36,120.7]]]}},{"type":"Feature","id":"97410","properties":{"code":"97410","name":"Saint-Benoît","departmentCode":"974","rounds":{"1":{"code":"97410","name":"Saint-Benoît","departmentCode":"974","registered":29074,"voters":14522,"expressed":13896,"blank":260,"invalid":366,"turnout":49.94840751186627,"abstention":50.05159248813372,"winnerId":"MELENCHON","runnerUpId":"LE_PEN","margin":7.239493379389753,"top":[{"id":"MELENCHON","name":"Jean-Luc Mélenchon","shortName":"Mélenchon","votes":5141,"share":36.996257915947034},{"id":"LE_PEN","name":"Marine Le Pen","shortName":"Le Pen","votes":4135,"share":29.756764536557284},{"id":"MACRON","name":"Emmanuel Macron","shortName":"Macron","votes":2706,"share":19.473229706390327}]},"2":{"code":"97410","name":"Saint-Benoît","departmentCode":"974","registered":29103,"voters":16734,"expressed":15373,"blank":643,"invalid":718,"turnout":57.4992268838264,"abstention":42.50077311617359,"winnerId":"LE_PEN","runnerUpId":"MACRON","margin":27.99063292786054,"top":[{"id":"LE_PEN","name":"Marine Le Pen","shortName":"Le Pen","votes":9838,"share":63.995316463930266},{"id":"MACRON","name":"Emmanuel Macron","shortName":"Macron","votes":5535,"share":36.004683536069734}]}}},"geometry":{"type":"Polygon","coordinates":[[[804,105.9],[801.81,105.46],[800.49,108.64],[801.15,109.63],[806.74,112.81],[810.58,111.49],[814.09,116.32],[818.48,116.97],[821.22,119.83],[823.08,120.26],[823.85,117.74],[826.48,115.22],[827.03,113.14],[830.32,109.41],[827.58,106.55],[827.8,104.25],[824.73,101.95],[818.04,109.3],[815.3,107.87],[809.05,106.12],[804,105.9]]]}},{"type":"Feature","id":"97411","properties":{"code":"97411","name":"Saint-Denis","departmentCode":"974","rounds":{"1":{"code":"97411","name":"Saint-Denis","departmentCode":"974","registered":107461,"voters":59631,"expressed":57464,"blank":1221,"invalid":946,"turnout":55.490829231069874,"abstention":44.509170768930126,"winnerId":"MELENCHON","runnerUpId":"LE_PEN","margin":15.23388556313518,"top":[{"id":"MELENCHON","name":"Jean-Luc Mélenchon","shortName":"Mélenchon","votes":21544,"share":37.49129890018098},{"id":"LE_PEN","name":"Marine Le Pen","shortName":"Le Pen","votes":12790,"share":22.257413337045804},{"id":"MACRON","name":"Emmanuel Macron","shortName":"Macron","votes":12128,"share":21.105387721007933}]},"2":{"code":"97411","name":"Saint-Denis","departmentCode":"974","registered":107567,"voters":63649,"expressed":58311,"blank":3405,"invalid":1933,"turnout":59.17149311591845,"abstention":40.82850688408155,"winnerId":"LE_PEN","runnerUpId":"MACRON","margin":2.114523846272573,"top":[{"id":"LE_PEN","name":"Marine Le Pen","shortName":"Le Pen","votes":29772,"share":51.05726192313629},{"id":"MACRON","name":"Emmanuel Macron","shortName":"Macron","votes":28539,"share":48.94273807686371}]}}},"geometry":{"type":"Polygon","coordinates":[[[797.64,119.72],[796.76,119.17],[795.45,120.92],[792.15,122.68],[789.19,127.61],[787.44,132.22],[789.63,133.75],[795.77,134.85],[797.75,133.54],[801.26,133.75],[801.48,128.38],[799.94,124.87],[800.16,122.13],[797.64,119.72]]]}},{"type":"Feature","id":"97412","properties":{"code":"97412","name":"Saint-Joseph","departmentCode":"974","rounds":{"1":{"code":"97412","name":"Saint-Joseph","departmentCode":"974","registered":31401,"voters":19600,"expressed":18779,"blank":356,"invalid":465,"turnout":62.41839431865227,"abstention":37.58160568134773,"winnerId":"MELENCHON","runnerUpId":"LE_PEN","margin":17.082911763139677,"top":[{"id":"MELENCHON","name":"Jean-Luc Mélenchon","shortName":"Mélenchon","votes":8543,"share":45.49230523457053},{"id":"LE_PEN","name":"Marine Le Pen","shortName":"Le Pen","votes":5335,"share":28.409393471430853},{"id":"MACRON","name":"Emmanuel Macron","shortName":"Macron","votes":2374,"share":12.641780712498003}]},"2":{"code":"97412","name":"Saint-Joseph","departmentCode":"974","registered":31421,"voters":20727,"expressed":18645,"blank":1064,"invalid":1018,"turnout":65.96543712803539,"abstention":34.03456287196461,"winnerId":"LE_PEN","runnerUpId":"MACRON","margin":39.962456422633416,"top":[{"id":"LE_PEN","name":"Marine Le Pen","shortName":"Le Pen","votes":13048,"share":69.9812282113167},{"id":"MACRON","name":"Emmanuel Macron","shortName":"Macron","votes":5597,"share":30.018771788683292}]}}},"geometry":{"type":"Polygon","coordinates":[[[812.45,89.23],[812.23,90.87],[812.12,93.72],[813.65,97.78],[815.74,99.43],[817.93,97.56],[817.27,94.82],[820.67,94.49],[821.99,89.99],[821.66,87.8],[823.63,80.12],[822.97,79.57],[820.78,79.68],[817.38,78.15],[813.1,78.37],[810.14,80.01],[810.8,81.66],[810.69,86.15],[812.45,89.23]]]}},{"type":"Feature","id":"97413","properties":{"code":"97413","name":"Saint-Leu","departmentCode":"974","rounds":{"1":{"code":"97413","name":"Saint-Leu","departmentCode":"974","registered":28611,"voters":14827,"expressed":14219,"blank":277,"invalid":331,"turnout":51.822725525147675,"abstention":48.177274474852325,"winnerId":"MELENCHON","runnerUpId":"LE_PEN","margin":25.69800970532386,"top":[{"id":"MELENCHON","name":"Jean-Luc Mélenchon","shortName":"Mélenchon","votes":6564,"share":46.163583936985724},{"id":"LE_PEN","name":"Marine Le Pen","shortName":"Le Pen","votes":2910,"share":20.46557423166186},{"id":"MACRON","name":"Emmanuel Macron","shortName":"Macron","votes":2195,"share":15.43709121597862}]},"2":{"code":"97413","name":"Saint-Leu","departmentCode":"974","registered":28627,"voters":16173,"expressed":14324,"blank":1082,"invalid":767,"turnout":56.49561602682782,"abstention":43.50438397317218,"winnerId":"LE_PEN","runnerUpId":"MACRON","margin":16.47584473610723,"top":[{"id":"LE_PEN","name":"Marine Le Pen","shortName":"Le Pen","votes":8342,"share":58.23792236805362},{"id":"MACRON","name":"Emmanuel Macron","shortName":"Macron","votes":5982,"share":41.76207763194638}]}}},"geometry":{"type":"Polygon","coordinates":[[[775.92,105.9],[780.75,107.65],[784.7,108.31],[791.83,107.32],[790.62,104.91],[784.81,99.43],[782.94,97.12],[781.41,93.5],[778.45,95.48],[777.02,98.66],[777.68,103.15],[775.92,105.9]]]}},{"type":"Feature","id":"97414","properties":{"code":"97414","name":"Saint-Louis","departmentCode":"974","rounds":{"1":{"code":"97414","name":"Saint-Louis","departmentCode":"974","registered":43938,"voters":18968,"expressed":18167,"blank":302,"invalid":499,"turnout":43.16992125267422,"abstention":56.83007874732577,"winnerId":"MELENCHON","runnerUpId":"LE_PEN","margin":17.10794297352342,"top":[{"id":"MELENCHON","name":"Jean-Luc Mélenchon","shortName":"Mélenchon","votes":8082,"share":44.487257114548356},{"id":"LE_PEN","name":"Marine Le Pen","shortName":"Le Pen","votes":4974,"share":27.379314141024935},{"id":"MACRON","name":"Emmanuel Macron","shortName":"Macron","votes":2631,"share":14.48230307700776}]},"2":{"code":"97414","name":"Saint-Louis","departmentCode":"974","registered":43949,"voters":23301,"expressed":21224,"blank":868,"invalid":1209,"turnout":53.018271177956265,"abstention":46.981728822043735,"winnerId":"LE_PEN","runnerUpId":"MACRON","margin":31.228797587636635,"top":[{"id":"LE_PEN","name":"Marine Le Pen","shortName":"Le Pen","votes":13926,"share":65.61439879381832},{"id":"MACRON","name":"Emmanuel Macron","shortName":"Macron","votes":7298,"share":34.38560120618168}]}}},"geometry":{"type":"Polygon","coordinates":[[[788.54,100.41],[790.73,104.69],[794.24,99.97],[796.87,99.43],[796.54,94.93],[797.09,92.95],[796.1,89.45],[790.51,87.47],[789.08,88.68],[787.88,89.88],[789.19,92.3],[788.54,100.41]]]}},{"type":"Feature","id":"97415","properties":{"code":"97415","name":"Saint-Paul","departmentCode":"974","rounds":{"1":{"code":"97415","name":"Saint-Paul","departmentCode":"974","registered":85567,"voters":44129,"expressed":41966,"blank":1036,"invalid":1127,"turnout":51.57245199668097,"abstention":48.42754800331904,"winnerId":"MELENCHON","runnerUpId":"MACRON","margin":20.340275461087547,"top":[{"id":"MELENCHON","name":"Jean-Luc Mélenchon","shortName":"Mélenchon","votes":17335,"share":41.307248725158466},{"id":"MACRON","name":"Emmanuel Macron","shortName":"Macron","votes":8799,"share":20.966973264070916},{"id":"LE_PEN","name":"Marine Le Pen","shortName":"Le Pen","votes":7770,"share":18.514988323881237}]},"2":{"code":"97415","name":"Saint-Paul","departmentCode":"974","registered":85593,"voters":49896,"expressed":44492,"blank":3018,"invalid":2386,"turnout":58.294486698678625,"abstention":41.70551330132137,"winnerId":"LE_PEN","runnerUpId":"MACRON","margin":3.474781983277893,"top":[{"id":"LE_PEN","name":"Marine Le Pen","shortName":"Le Pen","votes":23019,"share":51.73739099163895},{"id":"MACRON","name":"Emmanuel Macron","shortName":"Macron","votes":21473,"share":48.26260900836105}]}}},"geometry":{"type":"Polygon","coordinates":[[[797.09,111.38],[796.1,109.85],[792.59,108.09],[789.63,110.06],[780.09,110.72],[774.06,108.75],[770.44,112.48],[770,116.43],[771.97,118.84],[776.25,120.37],[777.13,124.1],[776.58,125.42],[778.88,125.53],[781.19,124.21],[785.14,123.45],[790.07,119.83],[790.29,115.44],[791.94,113.35],[790.62,111.82],[792.48,110.17],[797.09,111.38]]]}},{"type":"Feature","id":"97416","properties":{"code":"97416","name":"Saint-Pierre","departmentCode":"974","rounds":{"1":{"code":"97416","name":"Saint-Pierre","departmentCode":"974","registered":66442,"voters":37719,"expressed":35837,"blank":867,"invalid":1015,"turnout":56.76981427410372,"abstention":43.23018572589627,"winnerId":"MELENCHON","runnerUpId":"LE_PEN","margin":18.86876691687362,"top":[{"id":"MELENCHON","name":"Jean-Luc Mélenchon","shortName":"Mélenchon","votes":14667,"share":40.92697491419482},{"id":"LE_PEN","name":"Marine Le Pen","shortName":"Le Pen","votes":7905,"share":22.058207997321205},{"id":"MACRON","name":"Emmanuel Macron","shortName":"Macron","votes":6607,"share":18.436253034573205}]},"2":{"code":"97416","name":"Saint-Pierre","departmentCode":"974","registered":66410,"voters":40522,"expressed":36386,"blank":2231,"invalid":1905,"turnout":61.0179189881042,"abstention":38.9820810118958,"winnerId":"LE_PEN","runnerUpId":"MACRON","margin":12.416863628868246,"top":[{"id":"LE_PEN","name":"Marine Le Pen","shortName":"Le Pen","votes":20452,"share":56.20843181443412},{"id":"MACRON","name":"Emmanuel Macron","shortName":"Macron","votes":15934,"share":43.79156818556588}]}}},"geometry":{"type":"Polygon","coordinates":[[[812.23,90.87],[812.45,89.23],[809.92,86.92],[806.19,85.5],[804.99,81],[796.65,83.41],[793.36,85.06],[790.51,87.47],[796.1,89.45],[798.74,92.85],[804.88,86.05],[808.72,88.13],[812.23,90.87]]]}},{"type":"Feature","id":"97417","properties":{"code":"97417","name":"Saint-Philippe","departmentCode":"974","rounds":{"1":{"code":"97417","name":"Saint-Philippe","departmentCode":"974","registered":4866,"voters":2523,"expressed":2426,"blank":32,"invalid":65,"turnout":51.84956843403206,"abstention":48.150431565967935,"winnerId":"MELENCHON","runnerUpId":"LE_PEN","margin":8.45012366034625,"top":[{"id":"MELENCHON","name":"Jean-Luc Mélenchon","shortName":"Mélenchon","votes":971,"share":40.024732069249794},{"id":"LE_PEN","name":"Marine Le Pen","shortName":"Le Pen","votes":766,"share":31.574608408903543},{"id":"MACRON","name":"Emmanuel Macron","shortName":"Macron","votes":283,"share":11.665292662819455}]},"2":{"code":"97417","name":"Saint-Philippe","departmentCode":"974","registered":5018,"voters":2886,"expressed":2682,"blank":86,"invalid":118,"turnout":57.51295336787565,"abstention":42.487046632124354,"winnerId":"LE_PEN","runnerUpId":"MACRON","margin":52.72184936614467,"top":[{"id":"LE_PEN","name":"Marine Le Pen","shortName":"Le Pen","votes":2048,"share":76.36092468307233},{"id":"MACRON","name":"Emmanuel Macron","shortName":"Macron","votes":634,"share":23.639075316927666}]}}},"geometry":{"type":"Polygon","coordinates":[[[820.67,94.49],[834.38,93.17],[834.93,84.51],[831.86,81.11],[822.97,79.57],[823.63,80.12],[821.66,87.8],[821.99,89.99],[820.67,94.49]]]}},{"type":"Feature","id":"97418","properties":{"code":"97418","name":"Sainte-Marie","departmentCode":"974","rounds":{"1":{"code":"97418","name":"Sainte-Marie","departmentCode":"974","registered":26539,"voters":13760,"expressed":13258,"blank":253,"invalid":249,"turnout":51.84822336938091,"abstention":48.15177663061909,"winnerId":"MELENCHON","runnerUpId":"LE_PEN","margin":9.820485744456176,"top":[{"id":"MELENCHON","name":"Jean-Luc Mélenchon","shortName":"Mélenchon","votes":4857,"share":36.634484839342285},{"id":"LE_PEN","name":"Marine Le Pen","shortName":"Le Pen","votes":3555,"share":26.813999094886103},{"id":"MACRON","name":"Emmanuel Macron","shortName":"Macron","votes":2561,"share":19.31663901040881}]},"2":{"code":"97418","name":"Sainte-Marie","departmentCode":"974","registered":26563,"voters":15577,"expressed":14352,"blank":715,"invalid":510,"turnout":58.64171968527651,"abstention":41.35828031472349,"winnerId":"LE_PEN","runnerUpId":"MACRON","margin":19.983277591973245,"top":[{"id":"LE_PEN","name":"Marine Le Pen","shortName":"Le Pen","votes":8610,"share":59.991638795986624},{"id":"MACRON","name":"Emmanuel Macron","shortName":"Macron","votes":5742,"share":40.008361204013376}]}}},"geometry":{"type":"Polygon","coordinates":[[[809.26,132.33],[808.72,126.52],[805.54,120.37],[801.81,120.81],[797.64,119.72],[800.16,122.13],[799.94,124.87],[801.48,128.38],[801.26,133.75],[806.08,132.33],[809.26,132.33]]]}},{"type":"Feature","id":"97419","properties":{"code":"97419","name":"Sainte-Rose","departmentCode":"974","rounds":{"1":{"code":"97419","name":"Sainte-Rose","departmentCode":"974","registered":5580,"voters":3243,"expressed":3080,"blank":76,"invalid":87,"turnout":58.11827956989247,"abstention":41.88172043010753,"winnerId":"MACRON","runnerUpId":"MELENCHON","margin":4.48051948051948,"top":[{"id":"MACRON","name":"Emmanuel Macron","shortName":"Macron","votes":1075,"share":34.9025974025974},{"id":"MELENCHON","name":"Jean-Luc Mélenchon","shortName":"Mélenchon","votes":937,"share":30.42207792207792},{"id":"LE_PEN","name":"Marine Le Pen","shortName":"Le Pen","votes":803,"share":26.071428571428573}]},"2":{"code":"97419","name":"Sainte-Rose","departmentCode":"974","registered":5583,"voters":4081,"expressed":3808,"blank":124,"invalid":149,"turnout":73.09690130754075,"abstention":26.90309869245925,"winnerId":"LE_PEN","runnerUpId":"MACRON","margin":9.978991596638656,"top":[{"id":"LE_PEN","name":"Marine Le Pen","shortName":"Le Pen","votes":2094,"share":54.98949579831933},{"id":"MACRON","name":"Emmanuel Macron","shortName":"Macron","votes":1714,"share":45.010504201680675}]}}},"geometry":{"type":"Polygon","coordinates":[[[834.38,93.17],[820.67,94.49],[817.27,94.82],[817.93,97.56],[818.7,98.44],[821.11,100.52],[824.73,101.95],[827.8,104.25],[827.58,106.55],[830.32,109.41],[831.75,107.43],[836.9,104.91],[838,100.74],[834.93,95.92],[834.38,93.17]]]}},{"type":"Feature","id":"97420","properties":{"code":"97420","name":"Sainte-Suzanne","departmentCode":"974","rounds":{"1":{"code":"97420","name":"Sainte-Suzanne","departmentCode":"974","registered":18846,"voters":9468,"expressed":9117,"blank":145,"invalid":206,"turnout":50.238777459407835,"abstention":49.76122254059217,"winnerId":"MELENCHON","runnerUpId":"LE_PEN","margin":10.452999890314798,"top":[{"id":"MELENCHON","name":"Jean-Luc Mélenchon","shortName":"Mélenchon","votes":3400,"share":37.292969178457824},{"id":"LE_PEN","name":"Marine Le Pen","shortName":"Le Pen","votes":2447,"share":26.839969288143028},{"id":"MACRON","name":"Emmanuel Macron","shortName":"Macron","votes":1476,"share":16.189536031589338}]},"2":{"code":"97420","name":"Sainte-Suzanne","departmentCode":"974","registered":18853,"voters":10817,"expressed":9934,"blank":436,"invalid":447,"turnout":57.37548400785021,"abstention":42.62451599214979,"winnerId":"LE_PEN","runnerUpId":"MACRON","margin":29.857056573384337,"top":[{"id":"LE_PEN","name":"Marine Le Pen","shortName":"Le Pen","votes":6450,"share":64.92852828669217},{"id":"MACRON","name":"Emmanuel Macron","shortName":"Macron","votes":3484,"share":35.07147171330784}]}}},"geometry":{"type":"Polygon","coordinates":[[[809.15,121.58],[805.54,120.37],[808.72,126.52],[809.26,132.33],[815.19,130.57],[817.05,127.5],[811.35,123.99],[809.15,121.58]]]}},{"type":"Feature","id":"97421","properties":{"code":"97421","name":"Salazie","departmentCode":"974","rounds":{"1":{"code":"97421","name":"Salazie","departmentCode":"974","registered":6124,"voters":2771,"expressed":2626,"blank":50,"invalid":95,"turnout":45.248203788373615,"abstention":54.75179621162639,"winnerId":"LE_PEN","runnerUpId":"MELENCHON","margin":2.9322162985529325,"top":[{"id":"LE_PEN","name":"Marine Le Pen","shortName":"Le Pen","votes":915,"share":34.84386900228485},{"id":"MELENCHON","name":"Jean-Luc Mélenchon","shortName":"Mélenchon","votes":838,"share":31.911652703731914},{"id":"MACRON","name":"Emmanuel Macron","shortName":"Macron","votes":522,"share":19.87814166031988}]},"2":{"code":"97421","name":"Salazie","departmentCode":"974","registered":6129,"voters":3521,"expressed":3284,"blank":100,"invalid":137,"turnout":57.44819709577419,"abstention":42.55180290422581,"winnerId":"LE_PEN","runnerUpId":"MACRON","margin":31.60779537149817,"top":[{"id":"LE_PEN","name":"Marine Le Pen","shortName":"Le Pen","votes":2161,"share":65.80389768574909},{"id":"MACRON","name":"Emmanuel Macron","shortName":"Macron","votes":1123,"share":34.196102314250915}]}}},"geometry":{"type":"Polygon","coordinates":[[[805.54,120.37],[809.15,121.58],[810.36,120.7],[807.84,118.73],[807.07,116.86],[807.73,113.79],[806.74,112.81],[801.15,109.63],[800.49,108.64],[797.2,111.38],[795.77,114.12],[796.76,119.17],[797.64,119.72],[801.81,120.81],[805.54,120.37]]]}},{"type":"Feature","id":"97422","properties":{"code":"97422","name":"Le Tampon","departmentCode":"974","rounds":{"1":{"code":"97422","name":"Le Tampon","departmentCode":"974","registered":64236,"voters":38355,"expressed":36267,"blank":982,"invalid":1106,"turnout":59.709508686717726,"abstention":40.290491313282274,"winnerId":"MELENCHON","runnerUpId":"LE_PEN","margin":5.743513386825488,"top":[{"id":"MELENCHON","name":"Jean-Luc Mélenchon","shortName":"Mélenchon","votes":13111,"share":36.15132213858329},{"id":"LE_PEN","name":"Marine Le Pen","shortName":"Le Pen","votes":11028,"share":30.4078087517578},{"id":"MACRON","name":"Emmanuel Macron","shortName":"Macron","votes":5793,"share":15.973198775746548}]},"2":{"code":"97422","name":"Le Tampon","departmentCode":"974","registered":64267,"voters":41715,"expressed":37848,"blank":2208,"invalid":1659,"turnout":64.90889570074843,"abstention":35.091104299251555,"winnerId":"LE_PEN","runnerUpId":"MACRON","margin":34.86577890509406,"top":[{"id":"LE_PEN","name":"Marine Le Pen","shortName":"Le Pen","votes":25522,"share":67.43288945254703},{"id":"MACRON","name":"Emmanuel Macron","shortName":"Macron","votes":12326,"share":32.56711054745297}]}}},"geometry":{"type":"Polygon","coordinates":[[[818.7,98.44],[817.93,97.56],[815.74,99.43],[813.65,97.78],[812.12,93.72],[812.23,90.87],[808.72,88.13],[804.88,86.05],[798.74,92.85],[802.35,96.03],[802.68,100.3],[804.55,101.62],[804,105.9],[809.05,106.12],[811.02,101.84],[814.64,100.96],[816.17,102.5],[818.7,98.44]]]}},{"type":"Feature","id":"97423","properties":{"code":"97423","name":"Les Trois-Bassins","departmentCode":"974","rounds":{"1":{"code":"97423","name":"Les Trois-Bassins","departmentCode":"974","registered":6580,"voters":3353,"expressed":3170,"blank":67,"invalid":116,"turnout":50.95744680851064,"abstention":49.04255319148936,"winnerId":"MELENCHON","runnerUpId":"LE_PEN","margin":19.621451104100945,"top":[{"id":"MELENCHON","name":"Jean-Luc Mélenchon","shortName":"Mélenchon","votes":1356,"share":42.776025236593064},{"id":"LE_PEN","name":"Marine Le Pen","shortName":"Le Pen","votes":734,"share":23.154574132492115},{"id":"MACRON","name":"Emmanuel Macron","shortName":"Macron","votes":580,"share":18.29652996845426}]},"2":{"code":"97423","name":"Les Trois-Bassins","departmentCode":"974","registered":6584,"voters":3954,"expressed":3531,"blank":203,"invalid":220,"turnout":60.0546780072904,"abstention":39.9453219927096,"winnerId":"LE_PEN","runnerUpId":"MACRON","margin":23.477768337581423,"top":[{"id":"LE_PEN","name":"Marine Le Pen","shortName":"Le Pen","votes":2180,"share":61.73888416879071},{"id":"MACRON","name":"Emmanuel Macron","shortName":"Macron","votes":1351,"share":38.26111583120929}]}}},"geometry":{"type":"Polygon","coordinates":[[[792.59,108.09],[791.83,107.32],[784.7,108.31],[780.75,107.65],[775.92,105.9],[774.06,108.75],[780.09,110.72],[789.63,110.06],[792.59,108.09]]]}},{"type":"Feature","id":"97424","properties":{"code":"97424","name":"Cilaos","departmentCode":"974","rounds":{"1":{"code":"97424","name":"Cilaos","departmentCode":"974","registered":4980,"voters":2215,"expressed":2142,"blank":36,"invalid":37,"turnout":44.47791164658634,"abstention":55.52208835341366,"winnerId":"MELENCHON","runnerUpId":"LE_PEN","margin":24.463118580765638,"top":[{"id":"MELENCHON","name":"Jean-Luc Mélenchon","shortName":"Mélenchon","votes":1061,"share":49.53314659197012},{"id":"LE_PEN","name":"Marine Le Pen","shortName":"Le Pen","votes":537,"share":25.07002801120448},{"id":"MACRON","name":"Emmanuel Macron","shortName":"Macron","votes":308,"share":14.37908496732026}]},"2":{"code":"97424","name":"Cilaos","departmentCode":"974","registered":4982,"voters":2747,"expressed":2545,"blank":85,"invalid":117,"turnout":55.13849859494179,"abstention":44.861501405058206,"winnerId":"LE_PEN","runnerUpId":"MACRON","margin":39.56777996070727,"top":[{"id":"LE_PEN","name":"Marine Le Pen","shortName":"Le Pen","votes":1776,"share":69.78388998035363},{"id":"MACRON","name":"Emmanuel Macron","shortName":"Macron","votes":769,"share":30.216110019646365}]}}},"geometry":{"type":"Polygon","coordinates":[[[797.09,111.38],[797.2,111.38],[800.49,108.64],[801.81,105.46],[800.49,101.4],[796.87,99.43],[794.24,99.97],[790.73,104.69],[790.62,104.91],[791.83,107.32],[792.59,108.09],[796.1,109.85],[797.09,111.38]]]}}]}