{"type":"FeatureCollection","features":[{"type":"Feature","id":"97501","properties":{"code":"97501","name":"Miquelon-Langlade","departmentCode":"975","rounds":{"1":{"code":"97501","name":"Miquelon-Langlade","departmentCode":"975","registered":504,"voters":236,"expressed":232,"blank":3,"invalid":1,"turnout":46.82539682539682,"abstention":53.17460317460318,"winnerId":"MELENCHON","runnerUpId":"LE_PEN","margin":7.327586206896551,"top":[{"id":"MELENCHON","name":"Jean-Luc Mélenchon","shortName":"Mélenchon","votes":79,"share":34.05172413793103},{"id":"LE_PEN","name":"Marine Le Pen","shortName":"Le Pen","votes":62,"share":26.72413793103448},{"id":"MACRON","name":"Emmanuel Macron","shortName":"Macron","votes":42,"share":18.103448275862068}]},"2":{"code":"97501","name":"Miquelon-Langlade","departmentCode":"975","registered":505,"voters":289,"expressed":267,"blank":14,"invalid":8,"turnout":57.227722772277225,"abstention":42.772277227722775,"winnerId":"LE_PEN","runnerUpId":"MACRON","margin":7.116104868913857,"top":[{"id":"LE_PEN","name":"Marine Le Pen","shortName":"Le Pen","votes":143,"share":53.558052434456926},{"id":"MACRON","name":"Emmanuel Macron","shortName":"Macron","votes":124,"share":46.441947565543074}]}}},"geometry":{"type":"Polygon","coordinates":[[[201.67,55.55],[201.87,58.59],[198.22,59.71],[200.75,62.04],[203.19,62.65],[205.93,66.1],[206.03,69.96],[202.99,77.06],[200.55,78.68],[199.94,82.03],[201.06,87],[205.83,85.78],[209.17,83.96],[213.64,82.54],[214.04,80.61],[212.01,76.45],[208.57,74.32],[206.33,69.14],[207.04,67.12],[210.09,65.49],[212.01,65.9],[215.16,63.46],[214.75,60.72],[207.04,56.57],[201.67,55.55]]]}},{"type":"Feature","id":"97502","properties":{"code":"97502","name":"Saint-Pierre","departmentCode":"975","rounds":{"1":{"code":"97502","name":"Saint-Pierre","departmentCode":"975","registered":4541,"voters":2537,"expressed":2469,"blank":44,"invalid":24,"turnout":55.868751376348825,"abstention":44.131248623651175,"winnerId":"MELENCHON","runnerUpId":"MACRON","margin":21.628189550425272,"top":[{"id":"MELENCHON","name":"Jean-Luc Mélenchon","shortName":"Mélenchon","votes":1026,"share":41.55528554070474},{"id":"MACRON","name":"Emmanuel Macron","shortName":"Macron","votes":492,"share":19.927095990279465},{"id":"LE_PEN","name":"Marine Le Pen","shortName":"Le Pen","votes":397,"share":16.079384366140136}]},"2":{"code":"97502","name":"Saint-Pierre","departmentCode":"975","registered":4538,"voters":2590,"expressed":2254,"blank":205,"invalid":131,"turnout":57.07360070515646,"abstention":42.92639929484354,"winnerId":"LE_PEN","runnerUpId":"MACRON","margin":0.709849157054126,"top":[{"id":"LE_PEN","name":"Marine Le Pen","shortName":"Le Pen","votes":1135,"share":50.35492457852706},{"id":"MACRON","name":"Emmanuel Macron","shortName":"Macron","votes":1119,"share":49.64507542147294}]}}},"geometry":{"type":"Polygon","coordinates":[[[222.06,54.13],[219.93,52],[215.67,52.91],[219.93,57.38],[222.57,57.88],[223.78,55.96],[222.06,54.13]]]}}]}