{"type":"FeatureCollection","features":[{"type":"Feature","id":"97601","properties":{"code":"97601","name":"Acoua","departmentCode":"976","rounds":{"1":{"code":"97601","name":"Acoua","departmentCode":"976","registered":3169,"voters":1378,"expressed":1243,"blank":70,"invalid":65,"turnout":43.483748816661404,"abstention":56.516251183338596,"winnerId":"LE_PEN","runnerUpId":"MELENCHON","margin":33.6283185840708,"top":[{"id":"LE_PEN","name":"Marine Le Pen","shortName":"Le Pen","votes":661,"share":53.177795655671765},{"id":"MELENCHON","name":"Jean-Luc Mélenchon","shortName":"Mélenchon","votes":243,"share":19.549477071600965},{"id":"PECRESSE","name":"Valérie Pécresse","shortName":"Pécresse","votes":140,"share":11.263073209975865}]},"2":{"code":"97601","name":"Acoua","departmentCode":"976","registered":3170,"voters":1542,"expressed":1332,"blank":122,"invalid":88,"turnout":48.64353312302839,"abstention":51.35646687697161,"winnerId":"LE_PEN","runnerUpId":"MACRON","margin":49.849849849849846,"top":[{"id":"LE_PEN","name":"Marine Le Pen","shortName":"Le Pen","votes":998,"share":74.92492492492492},{"id":"MACRON","name":"Emmanuel Macron","shortName":"Macron","votes":334,"share":25.075075075075077}]}}},"geometry":{"type":"Polygon","coordinates":[[[789.05,223.37],[788.87,220.54],[783.55,220.18],[779.65,217.7],[779.47,222.31],[781.25,225.86],[782.49,224.08],[789.05,223.37]]]}},{"type":"Feature","id":"97602","properties":{"code":"97602","name":"Bandraboua","departmentCode":"976","rounds":{"1":{"code":"97602","name":"Bandraboua","departmentCode":"976","registered":5251,"voters":1700,"expressed":1610,"blank":22,"invalid":68,"turnout":32.374785755094265,"abstention":67.62521424490573,"winnerId":"LE_PEN","runnerUpId":"MELENCHON","margin":35.962732919254655,"top":[{"id":"LE_PEN","name":"Marine Le Pen","shortName":"Le Pen","votes":890,"share":55.27950310559007},{"id":"MELENCHON","name":"Jean-Luc Mélenchon","shortName":"Mélenchon","votes":311,"share":19.316770186335404},{"id":"MACRON","name":"Emmanuel Macron","shortName":"Macron","votes":185,"share":11.490683229813664}]},"2":{"code":"97602","name":"Bandraboua","departmentCode":"976","registered":5265,"voters":2077,"expressed":1912,"blank":61,"invalid":104,"turnout":39.44919278252612,"abstention":60.55080721747388,"winnerId":"LE_PEN","runnerUpId":"MACRON","margin":32.74058577405858,"top":[{"id":"LE_PEN","name":"Marine Le Pen","shortName":"Le Pen","votes":1269,"share":66.3702928870293},{"id":"MACRON","name":"Emmanuel Macron","shortName":"Macron","votes":643,"share":33.62970711297071}]}}},"geometry":{"type":"Polygon","coordinates":[[[788.87,220.54],[789.05,223.37],[787.81,227.81],[789.05,231],[794.37,226.03],[795.26,220.71],[797.92,221.24],[800.23,215.21],[794.37,216.63],[788.87,220.54]]]}},{"type":"Feature","id":"97603","properties":{"code":"97603","name":"Bandrele","departmentCode":"976","rounds":{"1":{"code":"97603","name":"Bandrele","departmentCode":"976","registered":4227,"voters":1770,"expressed":1695,"blank":33,"invalid":42,"turnout":41.8736692689851,"abstention":58.12633073101491,"winnerId":"LE_PEN","runnerUpId":"MELENCHON","margin":31.68141592920354,"top":[{"id":"LE_PEN","name":"Marine Le Pen","shortName":"Le Pen","votes":836,"share":49.32153392330383},{"id":"MELENCHON","name":"Jean-Luc Mélenchon","shortName":"Mélenchon","votes":299,"share":17.640117994100297},{"id":"MACRON","name":"Emmanuel Macron","shortName":"Macron","votes":244,"share":14.395280235988201}]},"2":{"code":"97603","name":"Bandrele","departmentCode":"976","registered":4230,"voters":2044,"expressed":1882,"blank":68,"invalid":94,"turnout":48.321513002364064,"abstention":51.67848699763593,"winnerId":"LE_PEN","runnerUpId":"MACRON","margin":34.962805526036135,"top":[{"id":"LE_PEN","name":"Marine Le Pen","shortName":"Le Pen","votes":1270,"share":67.48140276301807},{"id":"MACRON","name":"Emmanuel Macron","shortName":"Macron","votes":612,"share":32.51859723698193}]}}},"geometry":{"type":"Polygon","coordinates":[[[800.94,194.28],[806.43,193.22],[811.4,195.7],[807.14,191.45],[802,182.05],[806.08,175.31],[799.87,176.72],[797.03,179.03],[799.69,179.74],[801.65,188.43],[800.94,194.28]]]}},{"type":"Feature","id":"97604","properties":{"code":"97604","name":"Bouéni","departmentCode":"976","rounds":{"1":{"code":"97604","name":"Bouéni","departmentCode":"976","registered":4271,"voters":2181,"expressed":2092,"blank":34,"invalid":55,"turnout":51.0653242800281,"abstention":48.93467571997191,"winnerId":"LE_PEN","runnerUpId":"MELENCHON","margin":46.08030592734226,"top":[{"id":"LE_PEN","name":"Marine Le Pen","shortName":"Le Pen","votes":1307,"share":62.476099426386234},{"id":"MELENCHON","name":"Jean-Luc Mélenchon","shortName":"Mélenchon","votes":343,"share":16.395793499043975},{"id":"MACRON","name":"Emmanuel Macron","shortName":"Macron","votes":196,"share":9.369024856596559}]},"2":{"code":"97604","name":"Bouéni","departmentCode":"976","registered":4274,"voters":2430,"expressed":2276,"blank":75,"invalid":79,"turnout":56.855404773046324,"abstention":43.144595226953676,"winnerId":"LE_PEN","runnerUpId":"MACRON","margin":55.18453427065027,"top":[{"id":"LE_PEN","name":"Marine Le Pen","shortName":"Le Pen","votes":1766,"share":77.59226713532513},{"id":"MACRON","name":"Emmanuel Macron","shortName":"Macron","votes":510,"share":22.407732864674866}]}}},"geometry":{"type":"Polygon","coordinates":[[[793.13,182.93],[786.92,179.92],[790.47,185.24],[786.75,186.83],[785.86,191.09],[789.58,190.91],[790.83,186.66],[794.37,184.71],[793.13,182.93]]]}},{"type":"Feature","id":"97605","properties":{"code":"97605","name":"Chiconi","departmentCode":"976","rounds":{"1":{"code":"97605","name":"Chiconi","departmentCode":"976","registered":4966,"voters":2428,"expressed":2204,"blank":166,"invalid":58,"turnout":48.89246878775674,"abstention":51.10753121224325,"winnerId":"LE_PEN","runnerUpId":"MACRON","margin":30.762250453720508,"top":[{"id":"LE_PEN","name":"Marine Le Pen","shortName":"Le Pen","votes":1074,"share":48.72958257713248},{"id":"MACRON","name":"Emmanuel Macron","shortName":"Macron","votes":396,"share":17.96733212341198},{"id":"MELENCHON","name":"Jean-Luc Mélenchon","shortName":"Mélenchon","votes":380,"share":17.24137931034483}]},"2":{"code":"97605","name":"Chiconi","departmentCode":"976","registered":4966,"voters":2767,"expressed":2491,"blank":109,"invalid":167,"turnout":55.718888441401525,"abstention":44.28111155859847,"winnerId":"MACRON","runnerUpId":"LE_PEN","margin":3.091128061019671,"top":[{"id":"MACRON","name":"Emmanuel Macron","shortName":"Macron","votes":1284,"share":51.54556403050984},{"id":"LE_PEN","name":"Marine Le Pen","shortName":"Le Pen","votes":1207,"share":48.45443596949017}]}}},"geometry":{"type":"Polygon","coordinates":[[[793.66,201.38],[793.49,201.38],[789.94,202.44],[789.76,208.12],[793.66,207.06],[793.66,201.38]]]}},{"type":"Feature","id":"97606","properties":{"code":"97606","name":"Chirongui","departmentCode":"976","rounds":{"1":{"code":"97606","name":"Chirongui","departmentCode":"976","registered":4727,"voters":1867,"expressed":1776,"blank":29,"invalid":62,"turnout":39.496509414004656,"abstention":60.503490585995344,"winnerId":"LE_PEN","runnerUpId":"MACRON","margin":26.238738738738736,"top":[{"id":"LE_PEN","name":"Marine Le Pen","shortName":"Le Pen","votes":784,"share":44.14414414414414},{"id":"MACRON","name":"Emmanuel Macron","shortName":"Macron","votes":318,"share":17.905405405405407},{"id":"MELENCHON","name":"Jean-Luc Mélenchon","shortName":"Mélenchon","votes":309,"share":17.39864864864865}]},"2":{"code":"97606","name":"Chirongui","departmentCode":"976","registered":4738,"voters":2346,"expressed":2196,"blank":53,"invalid":97,"turnout":49.51456310679612,"abstention":50.48543689320388,"winnerId":"LE_PEN","runnerUpId":"MACRON","margin":18.48816029143898,"top":[{"id":"LE_PEN","name":"Marine Le Pen","shortName":"Le Pen","votes":1301,"share":59.244080145719494},{"id":"MACRON","name":"Emmanuel Macron","shortName":"Macron","votes":895,"share":40.755919854280506}]}}},"geometry":{"type":"Polygon","coordinates":[[[795.44,192.69],[796.5,196.24],[799.34,195.35],[800.94,194.28],[801.65,188.43],[799.69,179.74],[797.03,179.03],[793.13,182.93],[794.37,184.71],[799.34,186.3],[795.44,192.69]]]}},{"type":"Feature","id":"97607","properties":{"code":"97607","name":"Dembeni","departmentCode":"976","rounds":{"1":{"code":"97607","name":"Dembeni","departmentCode":"976","registered":4376,"voters":1604,"expressed":1520,"blank":26,"invalid":58,"turnout":36.654478976234,"abstention":63.345521023766,"winnerId":"LE_PEN","runnerUpId":"MACRON","margin":8.75,"top":[{"id":"LE_PEN","name":"Marine Le Pen","shortName":"Le Pen","votes":525,"share":34.53947368421053},{"id":"MACRON","name":"Emmanuel Macron","shortName":"Macron","votes":392,"share":25.789473684210527},{"id":"MELENCHON","name":"Jean-Luc Mélenchon","shortName":"Mélenchon","votes":373,"share":24.539473684210527}]},"2":{"code":"97607","name":"Dembeni","departmentCode":"976","registered":4378,"voters":1839,"expressed":1692,"blank":63,"invalid":84,"turnout":42.0054819552307,"abstention":57.99451804476931,"winnerId":"MACRON","runnerUpId":"LE_PEN","margin":0.4728132387706856,"top":[{"id":"MACRON","name":"Emmanuel Macron","shortName":"Macron","votes":850,"share":50.23640661938534},{"id":"LE_PEN","name":"Marine Le Pen","shortName":"Le Pen","votes":842,"share":49.76359338061466}]}}},"geometry":{"type":"Polygon","coordinates":[[[800.94,194.28],[799.34,195.35],[797.74,202.09],[799.52,204.93],[807.14,204.57],[805.55,201.56],[807.68,197.48],[811.4,195.7],[806.43,193.22],[800.94,194.28]]]}},{"type":"Feature","id":"97608","properties":{"code":"97608","name":"Dzaoudzi","departmentCode":"976","rounds":{"1":{"code":"97608","name":"Dzaoudzi","departmentCode":"976","registered":6252,"voters":2835,"expressed":2646,"blank":72,"invalid":117,"turnout":45.34548944337812,"abstention":54.65451055662188,"winnerId":"MACRON","runnerUpId":"LE_PEN","margin":1.436130007558579,"top":[{"id":"MACRON","name":"Emmanuel Macron","shortName":"Macron","votes":819,"share":30.952380952380953},{"id":"LE_PEN","name":"Marine Le Pen","shortName":"Le Pen","votes":781,"share":29.516250944822374},{"id":"MELENCHON","name":"Jean-Luc Mélenchon","shortName":"Mélenchon","votes":749,"share":28.306878306878307}]},"2":{"code":"97608","name":"Dzaoudzi","departmentCode":"976","registered":6252,"voters":2956,"expressed":2696,"blank":120,"invalid":140,"turnout":47.2808701215611,"abstention":52.7191298784389,"winnerId":"MACRON","runnerUpId":"LE_PEN","margin":10.459940652818991,"top":[{"id":"MACRON","name":"Emmanuel Macron","shortName":"Macron","votes":1489,"share":55.22997032640949},{"id":"LE_PEN","name":"Marine Le Pen","shortName":"Le Pen","votes":1207,"share":44.77002967359051}]}}},"geometry":{"type":"Polygon","coordinates":[[[824.53,211.31],[820.09,209.72],[820.8,213.62],[824.53,211.31]]]}},{"type":"Feature","id":"97609","properties":{"code":"97609","name":"Kani-Kéli","departmentCode":"976","rounds":{"1":{"code":"97609","name":"Kani-Kéli","departmentCode":"976","registered":3809,"voters":1781,"expressed":1709,"blank":25,"invalid":47,"turnout":46.75767918088737,"abstention":53.242320819112635,"winnerId":"LE_PEN","runnerUpId":"MELENCHON","margin":44.52896430661205,"top":[{"id":"LE_PEN","name":"Marine Le Pen","shortName":"Le Pen","votes":1048,"share":61.32241076653013},{"id":"MELENCHON","name":"Jean-Luc Mélenchon","shortName":"Mélenchon","votes":287,"share":16.79344645991808},{"id":"MACRON","name":"Emmanuel Macron","shortName":"Macron","votes":152,"share":8.894090111176126}]},"2":{"code":"97609","name":"Kani-Kéli","departmentCode":"976","registered":3811,"voters":2032,"expressed":1929,"blank":56,"invalid":47,"turnout":53.31933875623196,"abstention":46.68066124376804,"winnerId":"LE_PEN","runnerUpId":"MACRON","margin":53.240020736132706,"top":[{"id":"LE_PEN","name":"Marine Le Pen","shortName":"Le Pen","votes":1478,"share":76.62001036806636},{"id":"MACRON","name":"Emmanuel Macron","shortName":"Macron","votes":451,"share":23.379989631933647}]}}},"geometry":{"type":"Polygon","coordinates":[[[786.92,179.92],[793.13,182.93],[797.03,179.03],[799.87,176.72],[798.28,173],[786.92,179.92]]]}},{"type":"Feature","id":"97610","properties":{"code":"97610","name":"Koungou","departmentCode":"976","rounds":{"1":{"code":"97610","name":"Koungou","departmentCode":"976","registered":6569,"voters":2398,"expressed":2277,"blank":64,"invalid":57,"turnout":36.50479525041863,"abstention":63.49520474958137,"winnerId":"LE_PEN","runnerUpId":"MELENCHON","margin":4.699165568730787,"top":[{"id":"LE_PEN","name":"Marine Le Pen","shortName":"Le Pen","votes":801,"share":35.177865612648226},{"id":"MELENCHON","name":"Jean-Luc Mélenchon","shortName":"Mélenchon","votes":694,"share":30.478700043917435},{"id":"MACRON","name":"Emmanuel Macron","shortName":"Macron","votes":408,"share":17.918313570487484}]},"2":{"code":"97610","name":"Koungou","departmentCode":"976","registered":6569,"voters":2651,"expressed":2425,"blank":114,"invalid":112,"turnout":40.35621860252702,"abstention":59.643781397472985,"winnerId":"MACRON","runnerUpId":"LE_PEN","margin":1.1958762886597938,"top":[{"id":"MACRON","name":"Emmanuel Macron","shortName":"Macron","votes":1227,"share":50.5979381443299},{"id":"LE_PEN","name":"Marine Le Pen","shortName":"Le Pen","votes":1198,"share":49.402061855670105}]}}},"geometry":{"type":"Polygon","coordinates":[[[802.71,214.86],[800.23,215.21],[797.92,221.24],[808.21,220.89],[813.88,216.81],[807.32,214.5],[802.71,214.86]]]}},{"type":"Feature","id":"97611","properties":{"code":"97611","name":"Mamoudzou","departmentCode":"976","rounds":{"1":{"code":"97611","name":"Mamoudzou","departmentCode":"976","registered":16515,"voters":6240,"expressed":5846,"blank":159,"invalid":235,"turnout":37.78383287920072,"abstention":62.21616712079927,"winnerId":"MELENCHON","runnerUpId":"LE_PEN","margin":3.5579883681149505,"top":[{"id":"MELENCHON","name":"Jean-Luc Mélenchon","shortName":"Mélenchon","votes":1879,"share":32.14163530619227},{"id":"LE_PEN","name":"Marine Le Pen","shortName":"Le Pen","votes":1671,"share":28.58364693807732},{"id":"MACRON","name":"Emmanuel Macron","shortName":"Macron","votes":1271,"share":21.741361614779336}]},"2":{"code":"97611","name":"Mamoudzou","departmentCode":"976","registered":16528,"voters":6921,"expressed":6247,"blank":299,"invalid":375,"turnout":41.8743949661181,"abstention":58.1256050338819,"winnerId":"MACRON","runnerUpId":"LE_PEN","margin":12.021770449815913,"top":[{"id":"MACRON","name":"Emmanuel Macron","shortName":"Macron","votes":3499,"share":56.01088522490796},{"id":"LE_PEN","name":"Marine Le Pen","shortName":"Le Pen","votes":2748,"share":43.98911477509204}]}}},"geometry":{"type":"Polygon","coordinates":[[[802.71,214.86],[807.32,214.5],[813.88,216.81],[813.71,211.67],[808.21,206.88],[807.14,204.57],[799.52,204.93],[799.16,207.76],[802.71,214.86]]]}},{"type":"Feature","id":"97612","properties":{"code":"97612","name":"Mtsamboro","departmentCode":"976","rounds":{"1":{"code":"97612","name":"Mtsamboro","departmentCode":"976","registered":5655,"voters":1991,"expressed":1880,"blank":53,"invalid":58,"turnout":35.207780725022104,"abstention":64.7922192749779,"winnerId":"LE_PEN","runnerUpId":"MELENCHON","margin":27.97872340425532,"top":[{"id":"LE_PEN","name":"Marine Le Pen","shortName":"Le Pen","votes":923,"share":49.09574468085106},{"id":"MELENCHON","name":"Jean-Luc Mélenchon","shortName":"Mélenchon","votes":397,"share":21.117021276595747},{"id":"PECRESSE","name":"Valérie Pécresse","shortName":"Pécresse","votes":233,"share":12.393617021276595}]},"2":{"code":"97612","name":"Mtsamboro","departmentCode":"976","registered":5653,"voters":2409,"expressed":2173,"blank":97,"invalid":139,"turnout":42.614540951707056,"abstention":57.385459048292944,"winnerId":"LE_PEN","runnerUpId":"MACRON","margin":48.09019788311091,"top":[{"id":"LE_PEN","name":"Marine Le Pen","shortName":"Le Pen","votes":1609,"share":74.04509894155545},{"id":"MACRON","name":"Emmanuel Macron","shortName":"Macron","votes":564,"share":25.954901058444545}]}}},"geometry":{"type":"Polygon","coordinates":[[[789.05,231],[787.81,227.81],[789.05,223.37],[782.49,224.08],[781.25,225.86],[789.05,231]]]}},{"type":"Feature","id":"97613","properties":{"code":"97613","name":"M'Tsangamouji","departmentCode":"976","rounds":{"1":{"code":"97613","name":"M'Tsangamouji","departmentCode":"976","registered":4152,"voters":1557,"expressed":1463,"blank":31,"invalid":63,"turnout":37.5,"abstention":62.5,"winnerId":"LE_PEN","runnerUpId":"PECRESSE","margin":30.963773069036225,"top":[{"id":"LE_PEN","name":"Marine Le Pen","shortName":"Le Pen","votes":713,"share":48.73547505126453},{"id":"PECRESSE","name":"Valérie Pécresse","shortName":"Pécresse","votes":260,"share":17.771701982228297},{"id":"MELENCHON","name":"Jean-Luc Mélenchon","shortName":"Mélenchon","votes":240,"share":16.404647983595353}]},"2":{"code":"97613","name":"M'Tsangamouji","departmentCode":"976","registered":4152,"voters":1747,"expressed":1574,"blank":80,"invalid":93,"turnout":42.07610789980732,"abstention":57.923892100192674,"winnerId":"LE_PEN","runnerUpId":"MACRON","margin":51.715374841168995,"top":[{"id":"LE_PEN","name":"Marine Le Pen","shortName":"Le Pen","votes":1194,"share":75.8576874205845},{"id":"MACRON","name":"Emmanuel Macron","shortName":"Macron","votes":380,"share":24.1423125794155}]}}},"geometry":{"type":"Polygon","coordinates":[[[779.65,217.7],[783.55,220.18],[788.87,220.54],[794.37,216.63],[790.12,212.38],[779.65,217.7]]]}},{"type":"Feature","id":"97614","properties":{"code":"97614","name":"Ouangani","departmentCode":"976","rounds":{"1":{"code":"97614","name":"Ouangani","departmentCode":"976","registered":3992,"voters":1253,"expressed":1180,"blank":24,"invalid":49,"turnout":31.387775551102205,"abstention":68.61222444889779,"winnerId":"LE_PEN","runnerUpId":"MELENCHON","margin":26.610169491525426,"top":[{"id":"LE_PEN","name":"Marine Le Pen","shortName":"Le Pen","votes":563,"share":47.71186440677966},{"id":"MELENCHON","name":"Jean-Luc Mélenchon","shortName":"Mélenchon","votes":249,"share":21.10169491525424},{"id":"MACRON","name":"Emmanuel Macron","shortName":"Macron","votes":158,"share":13.389830508474576}]},"2":{"code":"97614","name":"Ouangani","departmentCode":"976","registered":3973,"voters":1508,"expressed":1364,"blank":52,"invalid":92,"turnout":37.95620437956204,"abstention":62.04379562043796,"winnerId":"LE_PEN","runnerUpId":"MACRON","margin":25.219941348973606,"top":[{"id":"LE_PEN","name":"Marine Le Pen","shortName":"Le Pen","votes":854,"share":62.6099706744868},{"id":"MACRON","name":"Emmanuel Macron","shortName":"Macron","votes":510,"share":37.3900293255132}]}}},"geometry":{"type":"Polygon","coordinates":[[[799.34,195.35],[796.5,196.24],[793.66,201.38],[793.66,207.06],[799.16,207.76],[799.52,204.93],[797.74,202.09],[799.34,195.35]]]}},{"type":"Feature","id":"97615","properties":{"code":"97615","name":"Pamandzi","departmentCode":"976","rounds":{"1":{"code":"97615","name":"Pamandzi","departmentCode":"976","registered":4160,"voters":1995,"expressed":1911,"blank":38,"invalid":46,"turnout":47.956730769230774,"abstention":52.043269230769226,"winnerId":"LE_PEN","runnerUpId":"MELENCHON","margin":6.750392464678178,"top":[{"id":"LE_PEN","name":"Marine Le Pen","shortName":"Le Pen","votes":712,"share":37.257980115122976},{"id":"MELENCHON","name":"Jean-Luc Mélenchon","shortName":"Mélenchon","votes":583,"share":30.507587650444794},{"id":"MACRON","name":"Emmanuel Macron","shortName":"Macron","votes":374,"share":19.570905285191}]},"2":{"code":"97615","name":"Pamandzi","departmentCode":"976","registered":4339,"voters":2190,"expressed":1998,"blank":99,"invalid":93,"turnout":50.472459091956665,"abstention":49.52754090804333,"winnerId":"LE_PEN","runnerUpId":"MACRON","margin":9.30930930930931,"top":[{"id":"LE_PEN","name":"Marine Le Pen","shortName":"Le Pen","votes":1092,"share":54.65465465465466},{"id":"MACRON","name":"Emmanuel Macron","shortName":"Macron","votes":906,"share":45.34534534534534}]}}},"geometry":{"type":"Polygon","coordinates":[[[820.09,209.72],[824.53,211.31],[821.51,207.59],[820.09,209.72]]]}},{"type":"Feature","id":"97616","properties":{"code":"97616","name":"Sada","departmentCode":"976","rounds":{"1":{"code":"97616","name":"Sada","departmentCode":"976","registered":5713,"voters":2410,"expressed":2307,"blank":38,"invalid":65,"turnout":42.184491510589886,"abstention":57.815508489410114,"winnerId":"LE_PEN","runnerUpId":"MELENCHON","margin":19.07238838318162,"top":[{"id":"LE_PEN","name":"Marine Le Pen","shortName":"Le Pen","votes":982,"share":42.56610316428262},{"id":"MELENCHON","name":"Jean-Luc Mélenchon","shortName":"Mélenchon","votes":542,"share":23.493714781100998},{"id":"MACRON","name":"Emmanuel Macron","shortName":"Macron","votes":379,"share":16.428261811876897}]},"2":{"code":"97616","name":"Sada","departmentCode":"976","registered":5719,"voters":2656,"expressed":2432,"blank":111,"invalid":113,"turnout":46.44168560937227,"abstention":53.558314390627736,"winnerId":"LE_PEN","runnerUpId":"MACRON","margin":26.069078947368425,"top":[{"id":"LE_PEN","name":"Marine Le Pen","shortName":"Le Pen","votes":1533,"share":63.03453947368421},{"id":"MACRON","name":"Emmanuel Macron","shortName":"Macron","votes":899,"share":36.96546052631579}]}}},"geometry":{"type":"Polygon","coordinates":[[[796.5,196.24],[795.44,192.69],[790.29,200.67],[793.49,201.38],[793.66,201.38],[796.5,196.24]]]}},{"type":"Feature","id":"97617","properties":{"code":"97617","name":"Tsingoni","departmentCode":"976","rounds":{"1":{"code":"97617","name":"Tsingoni","departmentCode":"976","registered":4383,"voters":1775,"expressed":1691,"blank":38,"invalid":46,"turnout":40.497376226328996,"abstention":59.502623773671004,"winnerId":"LE_PEN","runnerUpId":"MELENCHON","margin":9.875813128326435,"top":[{"id":"LE_PEN","name":"Marine Le Pen","shortName":"Le Pen","votes":687,"share":40.62684801892371},{"id":"MELENCHON","name":"Jean-Luc Mélenchon","shortName":"Mélenchon","votes":520,"share":30.75103489059728},{"id":"MACRON","name":"Emmanuel Macron","shortName":"Macron","votes":200,"share":11.827321111768184}]},"2":{"code":"97617","name":"Tsingoni","departmentCode":"976","registered":4404,"voters":1929,"expressed":1783,"blank":66,"invalid":80,"turnout":43.80108991825613,"abstention":56.19891008174387,"winnerId":"LE_PEN","runnerUpId":"MACRON","margin":26.528323051037578,"top":[{"id":"LE_PEN","name":"Marine Le Pen","shortName":"Le Pen","votes":1128,"share":63.264161525518794},{"id":"MACRON","name":"Emmanuel Macron","shortName":"Macron","votes":655,"share":36.73583847448121}]}}},"geometry":{"type":"Polygon","coordinates":[[[800.23,215.21],[802.71,214.86],[799.16,207.76],[793.66,207.06],[789.76,208.12],[790.12,212.38],[794.37,216.63],[800.23,215.21]]]}}]}