{"type":"FeatureCollection","features":[{"type":"Feature","id":"97701","properties":{"code":"97701","name":"Saint-Barthélemy","departmentCode":"978","rounds":{"1":{"code":"97701","name":"Saint-Barthélémy","departmentCode":"978","registered":5267,"voters":2704,"expressed":2642,"blank":50,"invalid":12,"turnout":51.33852287829884,"abstention":48.66147712170116,"winnerId":"MACRON","runnerUpId":"LE_PEN","margin":1.4004542013626042,"top":[{"id":"MACRON","name":"Emmanuel Macron","shortName":"Macron","votes":629,"share":23.807721423164267},{"id":"LE_PEN","name":"Marine Le Pen","shortName":"Le Pen","votes":592,"share":22.407267221801668},{"id":"ZEMMOUR","name":"Éric Zemmour","shortName":"Zemmour","votes":469,"share":17.751703255109767}]},"2":{"code":"97701","name":"Saint-Barthélémy","departmentCode":"978","registered":5270,"voters":2981,"expressed":2781,"blank":156,"invalid":44,"turnout":56.56546489563568,"abstention":43.43453510436432,"winnerId":"LE_PEN","runnerUpId":"MACRON","margin":9.45702984537936,"top":[{"id":"LE_PEN","name":"Marine Le Pen","shortName":"Le Pen","votes":1522,"share":54.728514922689676},{"id":"MACRON","name":"Emmanuel Macron","shortName":"Macron","votes":1259,"share":45.27148507731032}]}}},"geometry":{"type":"Polygon","coordinates":[[[150.17,56.98],[153.87,55.7],[158.28,57.41],[159.84,54.7],[154.29,52],[150.17,56.98]]]}},{"type":"Feature","id":"97801","properties":{"code":"97801","name":"Saint-Martin","departmentCode":"978","rounds":{"1":{"code":"97801","name":"Saint-Martin","departmentCode":"978","registered":19147,"voters":5898,"expressed":5726,"blank":100,"invalid":72,"turnout":30.803781271217424,"abstention":69.19621872878258,"winnerId":"MELENCHON","runnerUpId":"MACRON","margin":9.867272092210968,"top":[{"id":"MELENCHON","name":"Jean-Luc Mélenchon","shortName":"Mélenchon","votes":2006,"share":35.03318197694726},{"id":"MACRON","name":"Emmanuel Macron","shortName":"Macron","votes":1441,"share":25.165909884736294},{"id":"LE_PEN","name":"Marine Le Pen","shortName":"Le Pen","votes":853,"share":14.896961229479565}]},"2":{"code":"97801","name":"Saint-Martin","departmentCode":"978","registered":19165,"voters":6347,"expressed":5856,"blank":315,"invalid":176,"turnout":33.11766240542656,"abstention":66.88233759457344,"winnerId":"LE_PEN","runnerUpId":"MACRON","margin":11.509562841530055,"top":[{"id":"LE_PEN","name":"Marine Le Pen","shortName":"Le Pen","votes":3265,"share":55.754781420765035},{"id":"MACRON","name":"Emmanuel Macron","shortName":"Macron","votes":2591,"share":44.24521857923497}]}}},"geometry":{"type":"Polygon","coordinates":[[[128.4,77.33],[122.14,78.46],[118.16,76.33],[119.01,81.31],[123.85,86.29],[127.55,87],[128.4,77.33]]]}}]}