{"type":"FeatureCollection","features":[{"type":"Feature","id":"986001","properties":{"code":"986001","name":"Wallis-Et-Futuna","departmentCode":"986","rounds":{"1":{"code":"986001","name":"Wallis-Et-Futuna","departmentCode":"986","registered":9528,"voters":5403,"expressed":5359,"blank":27,"invalid":17,"turnout":56.706549118387905,"abstention":43.29345088161209,"winnerId":"MACRON","runnerUpId":"PECRESSE","margin":14.20041052435156,"top":[{"id":"MACRON","name":"Emmanuel Macron","shortName":"Macron","votes":2115,"share":39.46631834297444},{"id":"PECRESSE","name":"Valérie Pécresse","shortName":"Pécresse","votes":1354,"share":25.26590781862288},{"id":"LE_PEN","name":"Marine Le Pen","shortName":"Le Pen","votes":579,"share":10.804254525097965}]},"2":{"code":"986001","name":"Wallis-Et-Futuna","departmentCode":"986","registered":9514,"voters":5840,"expressed":5680,"blank":100,"invalid":60,"turnout":61.3832247214631,"abstention":38.61677527853689,"winnerId":"MACRON","runnerUpId":"LE_PEN","margin":34.894366197183096,"top":[{"id":"MACRON","name":"Emmanuel Macron","shortName":"Macron","votes":3831,"share":67.44718309859155},{"id":"LE_PEN","name":"Marine Le Pen","shortName":"Le Pen","votes":1849,"share":32.55281690140845}]}}},"geometry":{"type":"MultiPolygon","coordinates":[[[[767.97,270.17],[767.33,270.92],[768.72,271.26],[769.1,270.47],[767.97,270.17]]],[[[764.02,274.19],[764.88,273.7],[767.36,271.67],[764.47,271.86],[764.77,272.99],[764.02,274.19]]],[[[764.02,274.19],[764.77,272.99],[764.47,271.86],[763.53,272.61],[763,273.89],[764.02,274.19]]],[[[838.66,310.42],[838.21,309.86],[837.57,308.13],[835.8,309.3],[835.65,310.12],[836.63,310.61],[836.89,312.42],[837.61,312.83],[839,311.1],[838.66,310.42]]]]}}]}