{"type":"FeatureCollection","features":[{"type":"Feature","id":"98711","properties":{"code":"98711","name":"Anaa","departmentCode":"987","rounds":{"1":{"code":"98711","name":"Anaa","departmentCode":"987","registered":711,"voters":291,"expressed":275,"blank":15,"invalid":1,"turnout":40.92827004219409,"abstention":59.07172995780591,"winnerId":"MACRON","runnerUpId":"LE_PEN","margin":44.72727272727273,"top":[{"id":"MACRON","name":"Emmanuel Macron","shortName":"Macron","votes":162,"share":58.909090909090914},{"id":"LE_PEN","name":"Marine Le Pen","shortName":"Le Pen","votes":39,"share":14.181818181818182},{"id":"ZEMMOUR","name":"Éric Zemmour","shortName":"Zemmour","votes":34,"share":12.363636363636363}]},"2":{"code":"98711","name":"Anaa","departmentCode":"987","registered":714,"voters":360,"expressed":342,"blank":11,"invalid":7,"turnout":50.42016806722689,"abstention":49.57983193277311,"winnerId":"MACRON","runnerUpId":"LE_PEN","margin":32.16374269005848,"top":[{"id":"MACRON","name":"Emmanuel Macron","shortName":"Macron","votes":226,"share":66.08187134502924},{"id":"LE_PEN","name":"Marine Le Pen","shortName":"Le Pen","votes":116,"share":33.91812865497076}]}}},"geometry":{"type":"Polygon","coordinates":[[[800.37,366.44],[800.37,366.33],[800.42,366.31],[800.4,366.26],[800.33,366.37],[800.37,366.44]]]}},{"type":"Feature","id":"98712","properties":{"code":"98712","name":"Arue","departmentCode":"987","rounds":{"1":{"code":"98712","name":"Arue","departmentCode":"987","registered":7064,"voters":2577,"expressed":2485,"blank":62,"invalid":30,"turnout":36.48074745186863,"abstention":63.51925254813137,"winnerId":"MACRON","runnerUpId":"LE_PEN","margin":12.555331991951709,"top":[{"id":"MACRON","name":"Emmanuel Macron","shortName":"Macron","votes":831,"share":33.440643863179076},{"id":"LE_PEN","name":"Marine Le Pen","shortName":"Le Pen","votes":519,"share":20.885311871227362},{"id":"MELENCHON","name":"Jean-Luc Mélenchon","shortName":"Mélenchon","votes":382,"share":15.372233400402417}]},"2":{"code":"98712","name":"Arue","departmentCode":"987","registered":7070,"voters":3212,"expressed":3040,"blank":122,"invalid":50,"turnout":45.431400282885434,"abstention":54.568599717114566,"winnerId":"LE_PEN","runnerUpId":"MACRON","margin":0.4605263157894736,"top":[{"id":"LE_PEN","name":"Marine Le Pen","shortName":"Le Pen","votes":1527,"share":50.23026315789474},{"id":"MACRON","name":"Emmanuel Macron","shortName":"Macron","votes":1513,"share":49.76973684210526}]}}},"geometry":{"type":"Polygon","coordinates":[[[788.06,365.89],[788.1,365.79],[788.1,365.69],[788.01,365.8],[787.94,365.85],[788.06,365.89]]]}},{"type":"Feature","id":"98713","properties":{"code":"98713","name":"Arutua","departmentCode":"987","rounds":{"1":{"code":"98713","name":"Arutua","departmentCode":"987","registered":1563,"voters":456,"expressed":435,"blank":7,"invalid":14,"turnout":29.174664107485604,"abstention":70.8253358925144,"winnerId":"MACRON","runnerUpId":"PECRESSE","margin":9.885057471264368,"top":[{"id":"MACRON","name":"Emmanuel Macron","shortName":"Macron","votes":193,"share":44.36781609195402},{"id":"PECRESSE","name":"Valérie Pécresse","shortName":"Pécresse","votes":150,"share":34.48275862068966},{"id":"MELENCHON","name":"Jean-Luc Mélenchon","shortName":"Mélenchon","votes":36,"share":8.275862068965518}]},"2":{"code":"98713","name":"Arutua","departmentCode":"987","registered":1534,"voters":680,"expressed":657,"blank":6,"invalid":17,"turnout":44.32855280312907,"abstention":55.67144719687093,"winnerId":"MACRON","runnerUpId":"LE_PEN","margin":22.67884322678843,"top":[{"id":"MACRON","name":"Emmanuel Macron","shortName":"Macron","votes":403,"share":61.339421613394215},{"id":"LE_PEN","name":"Marine Le Pen","shortName":"Le Pen","votes":254,"share":38.660578386605785}]}}},"geometry":{"type":"Polygon","coordinates":[[[797.13,373.02],[797.16,373.02],[797.18,373],[797.2,372.96],[797.2,372.91],[797.2,372.89],[797.2,372.85],[797.19,372.77],[797.18,372.76],[797.19,372.93],[797.19,372.98],[797.17,373],[797.13,373.02]]]}},{"type":"Feature","id":"98714","properties":{"code":"98714","name":"Bora-Bora","departmentCode":"987","rounds":{"1":{"code":"98714","name":"Bora-Bora","departmentCode":"987","registered":7307,"voters":1755,"expressed":1709,"blank":29,"invalid":17,"turnout":24.01806486930341,"abstention":75.98193513069658,"winnerId":"MACRON","runnerUpId":"LE_PEN","margin":21.650087770626097,"top":[{"id":"MACRON","name":"Emmanuel Macron","shortName":"Macron","votes":636,"share":37.214745465184315},{"id":"LE_PEN","name":"Marine Le Pen","shortName":"Le Pen","votes":266,"share":15.564657694558221},{"id":"PECRESSE","name":"Valérie Pécresse","shortName":"Pécresse","votes":239,"share":13.984786424809831}]},"2":{"code":"98714","name":"Bora-Bora","departmentCode":"987","registered":7308,"voters":3105,"expressed":2997,"blank":57,"invalid":51,"turnout":42.48768472906404,"abstention":57.512315270935964,"winnerId":"LE_PEN","runnerUpId":"MACRON","margin":13.179846513179847,"top":[{"id":"LE_PEN","name":"Marine Le Pen","shortName":"Le Pen","votes":1696,"share":56.58992325658993},{"id":"MACRON","name":"Emmanuel Macron","shortName":"Macron","votes":1301,"share":43.41007674341007}]}}},"geometry":{"type":"Polygon","coordinates":[[[780.96,369.12],[780.99,369.19],[781.06,369.14],[781.07,369.02],[781,369.03],[780.96,369.12]]]}},{"type":"Feature","id":"98715","properties":{"code":"98715","name":"Faaa","departmentCode":"987","rounds":{"1":{"code":"98715","name":"Faa a","departmentCode":"987","registered":18852,"voters":4047,"expressed":3809,"blank":160,"invalid":78,"turnout":21.467218332272438,"abstention":78.53278166772756,"winnerId":"MACRON","runnerUpId":"LE_PEN","margin":13.86190601207666,"top":[{"id":"MACRON","name":"Emmanuel Macron","shortName":"Macron","votes":1357,"share":35.62614859543187},{"id":"LE_PEN","name":"Marine Le Pen","shortName":"Le Pen","votes":829,"share":21.764242583355212},{"id":"MELENCHON","name":"Jean-Luc Mélenchon","shortName":"Mélenchon","votes":569,"share":14.93830401680231}]},"2":{"code":"98715","name":"Faa a","departmentCode":"987","registered":18871,"voters":5503,"expressed":5195,"blank":211,"invalid":97,"turnout":29.16114673308251,"abstention":70.8388532669175,"winnerId":"LE_PEN","runnerUpId":"MACRON","margin":3.8691049085659293,"top":[{"id":"LE_PEN","name":"Marine Le Pen","shortName":"Le Pen","votes":2698,"share":51.934552454282965},{"id":"MACRON","name":"Emmanuel Macron","shortName":"Macron","votes":2497,"share":48.065447545717035}]}}},"geometry":{"type":"Polygon","coordinates":[[[787.81,365.78],[787.81,365.75],[787.98,365.63],[788.07,365.55],[788.02,365.53],[787.97,365.58],[787.91,365.58],[787.85,365.63],[787.69,365.69],[787.69,365.73],[787.81,365.78]]]}},{"type":"Feature","id":"98716","properties":{"code":"98716","name":"Fakarava","departmentCode":"987","rounds":{"1":{"code":"98716","name":"Fakarava","departmentCode":"987","registered":1382,"voters":670,"expressed":0,"blank":0,"invalid":670,"turnout":48.480463096960925,"abstention":51.519536903039075,"winnerId":"ARTHAUD","runnerUpId":"ROUSSEL","margin":0,"top":[{"id":"ARTHAUD","name":"Nathalie Arthaud","shortName":"Arthaud","votes":0,"share":0},{"id":"ROUSSEL","name":"Fabien Roussel","shortName":"Roussel","votes":0,"share":0},{"id":"MACRON","name":"Emmanuel Macron","shortName":"Macron","votes":0,"share":0}]},"2":{"code":"98716","name":"Fakarava","departmentCode":"987","registered":1383,"voters":751,"expressed":716,"blank":12,"invalid":23,"turnout":54.302241503976866,"abstention":45.69775849602314,"winnerId":"MACRON","runnerUpId":"LE_PEN","margin":21.22905027932961,"top":[{"id":"MACRON","name":"Emmanuel Macron","shortName":"Macron","votes":434,"share":60.614525139664806},{"id":"LE_PEN","name":"Marine Le Pen","shortName":"Le Pen","votes":282,"share":39.385474860335194}]}}},"geometry":{"type":"MultiPolygon","coordinates":[[[[797.95,370.29],[798.03,370.26],[798.1,370.18],[798.09,370.07],[797.92,370.06],[797.88,370.11],[797.84,370.21],[797.95,370.29]],[[797.95,370.26],[797.89,370.23],[797.87,370.16],[797.93,370.08],[798.03,370.09],[798.07,370.15],[798.05,370.2],[797.95,370.26]]],[[[800.55,369.81],[800.53,369.83],[800.52,369.86],[800.49,369.91],[800.49,369.96],[800.45,370.08],[800.43,370.15],[800.36,370.24],[800.34,370.29],[800.31,370.38],[800.31,370.42],[800.29,370.48],[800.23,370.49],[800.09,370.44],[800.08,370.45],[800.23,370.5],[800.29,370.5],[800.31,370.45],[800.32,370.35],[800.36,370.26],[800.4,370.2],[800.44,370.16],[800.45,370.11],[800.5,369.95],[800.51,369.9],[800.55,369.81]]]]}},{"type":"Feature","id":"98717","properties":{"code":"98717","name":"Fangatau","departmentCode":"987","rounds":{"1":{"code":"98717","name":"Fangatau","departmentCode":"987","registered":223,"voters":101,"expressed":94,"blank":4,"invalid":3,"turnout":45.2914798206278,"abstention":54.7085201793722,"winnerId":"MACRON","runnerUpId":"LE_PEN","margin":29.78723404255319,"top":[{"id":"MACRON","name":"Emmanuel Macron","shortName":"Macron","votes":50,"share":53.191489361702125},{"id":"LE_PEN","name":"Marine Le Pen","shortName":"Le Pen","votes":22,"share":23.404255319148938},{"id":"MELENCHON","name":"Jean-Luc Mélenchon","shortName":"Mélenchon","votes":8,"share":8.51063829787234}]},"2":{"code":"98717","name":"Fangatau","departmentCode":"987","registered":223,"voters":121,"expressed":114,"blank":6,"invalid":1,"turnout":54.26008968609865,"abstention":45.73991031390135,"winnerId":"MACRON","runnerUpId":"LE_PEN","margin":3.508771929824561,"top":[{"id":"MACRON","name":"Emmanuel Macron","shortName":"Macron","votes":59,"share":51.75438596491229},{"id":"LE_PEN","name":"Marine Le Pen","shortName":"Le Pen","votes":55,"share":48.24561403508772}]}}},"geometry":{"type":"Polygon","coordinates":[[[817.63,370.76],[817.68,370.76],[817.7,370.74],[817.69,370.72],[817.67,370.75],[817.63,370.76]]]}},{"type":"Feature","id":"98718","properties":{"code":"98718","name":"Fatu-Hiva","departmentCode":"987","rounds":{"1":{"code":"98718","name":"Fatu-Hiva","departmentCode":"987","registered":512,"voters":205,"expressed":200,"blank":1,"invalid":4,"turnout":40.0390625,"abstention":59.9609375,"winnerId":"MACRON","runnerUpId":"LE_PEN","margin":45,"top":[{"id":"MACRON","name":"Emmanuel Macron","shortName":"Macron","votes":126,"share":63},{"id":"LE_PEN","name":"Marine Le Pen","shortName":"Le Pen","votes":36,"share":18},{"id":"MELENCHON","name":"Jean-Luc Mélenchon","shortName":"Mélenchon","votes":19,"share":9.5}]},"2":{"code":"98718","name":"Fatu-Hiva","departmentCode":"987","registered":513,"voters":269,"expressed":263,"blank":0,"invalid":6,"turnout":52.436647173489284,"abstention":47.563352826510716,"winnerId":"MACRON","runnerUpId":"LE_PEN","margin":58.174904942965775,"top":[{"id":"MACRON","name":"Emmanuel Macron","shortName":"Macron","votes":208,"share":79.08745247148289},{"id":"LE_PEN","name":"Marine Le Pen","shortName":"Le Pen","votes":55,"share":20.912547528517113}]}}},"geometry":{"type":"Polygon","coordinates":[[[822.18,388.24],[822.23,388.23],[822.37,388.11],[822.38,388.02],[822.34,387.91],[822.23,387.81],[822.13,387.9],[822.18,388.01],[822.19,388.12],[822.13,388.21],[822.18,388.24]]]}},{"type":"Feature","id":"98719","properties":{"code":"98719","name":"Gambier","departmentCode":"987","rounds":{"1":{"code":"98719","name":"Gambier","departmentCode":"987","registered":1065,"voters":484,"expressed":480,"blank":2,"invalid":2,"turnout":45.44600938967136,"abstention":54.55399061032864,"winnerId":"MACRON","runnerUpId":"LE_PEN","margin":61.875,"top":[{"id":"MACRON","name":"Emmanuel Macron","shortName":"Macron","votes":357,"share":74.375},{"id":"LE_PEN","name":"Marine Le Pen","shortName":"Le Pen","votes":60,"share":12.5},{"id":"MELENCHON","name":"Jean-Luc Mélenchon","shortName":"Mélenchon","votes":21,"share":4.375}]},"2":{"code":"98719","name":"Gambier","departmentCode":"987","registered":1065,"voters":583,"expressed":575,"blank":2,"invalid":6,"turnout":54.74178403755868,"abstention":45.25821596244132,"winnerId":"MACRON","runnerUpId":"LE_PEN","margin":54.086956521739125,"top":[{"id":"MACRON","name":"Emmanuel Macron","shortName":"Macron","votes":443,"share":77.04347826086956},{"id":"LE_PEN","name":"Marine Le Pen","shortName":"Le Pen","votes":132,"share":22.956521739130434}]}}},"geometry":{"type":"MultiPolygon","coordinates":[[[[828.96,353.85],[828.92,353.77],[828.86,353.77],[828.87,353.85],[828.96,353.85]]],[[[833.96,348.36],[833.93,348.3],[833.85,348.24],[833.84,348.17],[833.77,348.18],[833.76,348.22],[833.83,348.23],[833.85,348.31],[833.89,348.29],[833.96,348.36]]]]}},{"type":"Feature","id":"98720","properties":{"code":"98720","name":"Hao","departmentCode":"987","rounds":{"1":{"code":"98720","name":"Hao","departmentCode":"987","registered":1134,"voters":570,"expressed":535,"blank":13,"invalid":22,"turnout":50.264550264550266,"abstention":49.735449735449734,"winnerId":"MACRON","runnerUpId":"LE_PEN","margin":44.11214953271028,"top":[{"id":"MACRON","name":"Emmanuel Macron","shortName":"Macron","votes":331,"share":61.86915887850467},{"id":"LE_PEN","name":"Marine Le Pen","shortName":"Le Pen","votes":95,"share":17.75700934579439},{"id":"MELENCHON","name":"Jean-Luc Mélenchon","shortName":"Mélenchon","votes":40,"share":7.476635514018691}]},"2":{"code":"98720","name":"Hao","departmentCode":"987","registered":1134,"voters":697,"expressed":659,"blank":11,"invalid":27,"turnout":61.46384479717813,"abstention":38.53615520282187,"winnerId":"MACRON","runnerUpId":"LE_PEN","margin":29.286798179059183,"top":[{"id":"MACRON","name":"Emmanuel Macron","shortName":"Macron","votes":426,"share":64.64339908952958},{"id":"LE_PEN","name":"Marine Le Pen","shortName":"Le Pen","votes":233,"share":35.35660091047041}]}}},"geometry":{"type":"Polygon","coordinates":[[[814.97,364.15],[815,364.14],[815.05,364.09],[815.08,364.07],[815.13,364.05],[815.15,364.03],[815.17,363.96],[815.22,363.9],[815.21,363.9],[815.18,363.94],[815.16,363.98],[815.14,364.02],[815.12,364.04],[815.05,364.08],[815.03,364.1],[814.97,364.15]]]}},{"type":"Feature","id":"98721","properties":{"code":"98721","name":"Hikueru","departmentCode":"987","rounds":{"1":{"code":"98721","name":"Hikueru","departmentCode":"987","registered":196,"voters":104,"expressed":100,"blank":2,"invalid":2,"turnout":53.06122448979592,"abstention":46.93877551020408,"winnerId":"MACRON","runnerUpId":"LE_PEN","margin":76,"top":[{"id":"MACRON","name":"Emmanuel Macron","shortName":"Macron","votes":84,"share":84},{"id":"LE_PEN","name":"Marine Le Pen","shortName":"Le Pen","votes":8,"share":8},{"id":"ARTHAUD","name":"Nathalie Arthaud","shortName":"Arthaud","votes":2,"share":2}]},"2":{"code":"98721","name":"Hikueru","departmentCode":"987","registered":195,"voters":121,"expressed":119,"blank":1,"invalid":1,"turnout":62.05128205128205,"abstention":37.94871794871795,"winnerId":"MACRON","runnerUpId":"LE_PEN","margin":71.42857142857143,"top":[{"id":"MACRON","name":"Emmanuel Macron","shortName":"Macron","votes":102,"share":85.71428571428571},{"id":"LE_PEN","name":"Marine Le Pen","shortName":"Le Pen","votes":17,"share":14.285714285714285}]}}},"geometry":{"type":"Polygon","coordinates":[[[811.19,363.78],[811.21,363.76],[811.26,363.65],[811.32,363.58],[811.32,363.57],[811.26,363.64],[811.21,363.74],[811.19,363.78]]]}},{"type":"Feature","id":"98722","properties":{"code":"98722","name":"Hitiaa O Te Ra","departmentCode":"987","rounds":{"1":{"code":"98722","name":"Hitiaa O Te Ra","departmentCode":"987","registered":7881,"voters":2128,"expressed":2014,"blank":56,"invalid":58,"turnout":27.001649536860807,"abstention":72.99835046313919,"winnerId":"MACRON","runnerUpId":"LE_PEN","margin":19.563058589870906,"top":[{"id":"MACRON","name":"Emmanuel Macron","shortName":"Macron","votes":887,"share":44.041708043694136},{"id":"LE_PEN","name":"Marine Le Pen","shortName":"Le Pen","votes":493,"share":24.478649453823238},{"id":"MELENCHON","name":"Jean-Luc Mélenchon","shortName":"Mélenchon","votes":253,"share":12.56206554121152}]},"2":{"code":"98722","name":"Hitiaa O Te Ra","departmentCode":"987","registered":7887,"voters":2962,"expressed":2847,"blank":61,"invalid":54,"turnout":37.555471028274376,"abstention":62.444528971725624,"winnerId":"LE_PEN","runnerUpId":"MACRON","margin":0.10537407797681769,"top":[{"id":"LE_PEN","name":"Marine Le Pen","shortName":"Le Pen","votes":1425,"share":50.05268703898841},{"id":"MACRON","name":"Emmanuel Macron","shortName":"Macron","votes":1422,"share":49.94731296101159}]}}},"geometry":{"type":"Polygon","coordinates":[[[788.66,365.44],[788.46,365.51],[788.37,365.51],[788.34,365.4],[788.19,365.37],[788.12,365.47],[788.14,365.54],[788.18,365.57],[788.23,365.77],[788.21,365.9],[788.37,365.87],[788.46,365.81],[788.57,365.79],[788.67,365.68],[788.7,365.58],[788.66,365.44]]]}},{"type":"Feature","id":"98723","properties":{"code":"98723","name":"Hiva-Oa","departmentCode":"987","rounds":{"1":{"code":"98723","name":"Hiva-Oa","departmentCode":"987","registered":1997,"voters":1009,"expressed":993,"blank":4,"invalid":12,"turnout":50.525788683024544,"abstention":49.47421131697546,"winnerId":"MACRON","runnerUpId":"LE_PEN","margin":56.59617321248741,"top":[{"id":"MACRON","name":"Emmanuel Macron","shortName":"Macron","votes":673,"share":67.77442094662638},{"id":"LE_PEN","name":"Marine Le Pen","shortName":"Le Pen","votes":111,"share":11.178247734138973},{"id":"MELENCHON","name":"Jean-Luc Mélenchon","shortName":"Mélenchon","votes":84,"share":8.459214501510575}]},"2":{"code":"98723","name":"Hiva-Oa","departmentCode":"987","registered":1997,"voters":1245,"expressed":1211,"blank":15,"invalid":19,"turnout":62.343515272909364,"abstention":37.656484727090636,"winnerId":"MACRON","runnerUpId":"LE_PEN","margin":47.15111478117259,"top":[{"id":"MACRON","name":"Emmanuel Macron","shortName":"Macron","votes":891,"share":73.57555739058628},{"id":"LE_PEN","name":"Marine Le Pen","shortName":"Le Pen","votes":320,"share":26.424442609413706}]}}},"geometry":{"type":"MultiPolygon","coordinates":[[[[821.59,390.32],[821.63,390.28],[821.52,390.19],[821.43,390.16],[821.23,390.18],[821.18,390.15],[821.03,390.17],[820.93,390.03],[820.85,390.03],[820.72,390.1],[820.64,390.27],[820.69,390.32],[820.88,390.38],[821.03,390.48],[821.09,390.46],[821.13,390.51],[821.24,390.48],[821.27,390.38],[821.37,390.39],[821.48,390.38],[821.59,390.32]]],[[[821.7,389.7],[821.73,389.51],[821.65,389.6],[821.7,389.7]]]]}},{"type":"Feature","id":"98724","properties":{"code":"98724","name":"Huahine","departmentCode":"987","rounds":{"1":{"code":"98724","name":"Huahine","departmentCode":"987","registered":5228,"voters":1262,"expressed":1216,"blank":9,"invalid":37,"turnout":24.139250191277736,"abstention":75.86074980872226,"winnerId":"MACRON","runnerUpId":"LE_PEN","margin":16.611842105263158,"top":[{"id":"MACRON","name":"Emmanuel Macron","shortName":"Macron","votes":477,"share":39.22697368421053},{"id":"LE_PEN","name":"Marine Le Pen","shortName":"Le Pen","votes":275,"share":22.615131578947366},{"id":"MELENCHON","name":"Jean-Luc Mélenchon","shortName":"Mélenchon","votes":189,"share":15.542763157894738}]},"2":{"code":"98724","name":"Huahine","departmentCode":"987","registered":5228,"voters":1766,"expressed":1678,"blank":40,"invalid":48,"turnout":33.7796480489671,"abstention":66.2203519510329,"winnerId":"LE_PEN","runnerUpId":"MACRON","margin":1.907032181168057,"top":[{"id":"LE_PEN","name":"Marine Le Pen","shortName":"Le Pen","votes":855,"share":50.95351609058403},{"id":"MACRON","name":"Emmanuel Macron","shortName":"Macron","votes":823,"share":49.04648390941597}]}}},"geometry":{"type":"MultiPolygon","coordinates":[[[[783.39,368.06],[783.27,368.17],[783.29,368.22],[783.4,368.27],[783.45,368.25],[783.47,368.17],[783.39,368.06]]],[[[783.42,368.3],[783.34,368.29],[783.27,368.22],[783.19,368.26],[783.23,368.4],[783.22,368.44],[783.37,368.45],[783.42,368.3]]]]}},{"type":"Feature","id":"98725","properties":{"code":"98725","name":"Mahina","departmentCode":"987","rounds":{"1":{"code":"98725","name":"Mahina","departmentCode":"987","registered":10755,"voters":3089,"expressed":2952,"blank":84,"invalid":53,"turnout":28.721524872152486,"abstention":71.27847512784751,"winnerId":"MACRON","runnerUpId":"LE_PEN","margin":8.875338753387533,"top":[{"id":"MACRON","name":"Emmanuel Macron","shortName":"Macron","votes":966,"share":32.72357723577235},{"id":"LE_PEN","name":"Marine Le Pen","shortName":"Le Pen","votes":704,"share":23.848238482384822},{"id":"MELENCHON","name":"Jean-Luc Mélenchon","shortName":"Mélenchon","votes":474,"share":16.056910569105693}]},"2":{"code":"98725","name":"Mahina","departmentCode":"987","registered":10761,"voters":4320,"expressed":4113,"blank":133,"invalid":74,"turnout":40.144967939782546,"abstention":59.855032060217454,"winnerId":"LE_PEN","runnerUpId":"MACRON","margin":4.449307075127644,"top":[{"id":"LE_PEN","name":"Marine Le Pen","shortName":"Le Pen","votes":2148,"share":52.224653537563825},{"id":"MACRON","name":"Emmanuel Macron","shortName":"Macron","votes":1965,"share":47.77534646243618}]}}},"geometry":{"type":"Polygon","coordinates":[[[788.21,365.9],[788.23,365.77],[788.18,365.57],[788.14,365.54],[788.08,365.57],[788.1,365.69],[788.1,365.79],[788.06,365.89],[788.09,365.92],[788.21,365.9]]]}},{"type":"Feature","id":"98726","properties":{"code":"98726","name":"Makemo","departmentCode":"987","rounds":{"1":{"code":"98726","name":"Makemo","departmentCode":"987","registered":1308,"voters":621,"expressed":605,"blank":9,"invalid":7,"turnout":47.477064220183486,"abstention":52.522935779816514,"winnerId":"MACRON","runnerUpId":"ZEMMOUR","margin":29.91735537190083,"top":[{"id":"MACRON","name":"Emmanuel Macron","shortName":"Macron","votes":314,"share":51.90082644628099},{"id":"ZEMMOUR","name":"Éric Zemmour","shortName":"Zemmour","votes":133,"share":21.983471074380166},{"id":"LE_PEN","name":"Marine Le Pen","shortName":"Le Pen","votes":58,"share":9.586776859504132}]},"2":{"code":"98726","name":"Makemo","departmentCode":"987","registered":1309,"voters":760,"expressed":739,"blank":15,"invalid":6,"turnout":58.05958747135218,"abstention":41.940412528647826,"winnerId":"MACRON","runnerUpId":"LE_PEN","margin":28.822733423545333,"top":[{"id":"MACRON","name":"Emmanuel Macron","shortName":"Macron","votes":476,"share":64.41136671177267},{"id":"LE_PEN","name":"Marine Le Pen","shortName":"Le Pen","votes":263,"share":35.588633288227335}]}}},"geometry":{"type":"Polygon","coordinates":[[[806.74,368.68],[806.7,368.68],[806.67,368.68],[806.61,368.7],[806.57,368.73],[806.55,368.73],[806.52,368.75],[806.47,368.81],[806.4,368.85],[806.4,368.86],[806.46,368.83],[806.5,368.8],[806.52,368.77],[806.55,368.74],[806.67,368.69],[806.74,368.68]]]}},{"type":"Feature","id":"98727","properties":{"code":"98727","name":"Manihi","departmentCode":"987","rounds":{"1":{"code":"98727","name":"Manihi","departmentCode":"987","registered":1011,"voters":421,"expressed":411,"blank":5,"invalid":5,"turnout":41.64193867457963,"abstention":58.35806132542037,"winnerId":"MACRON","runnerUpId":"MELENCHON","margin":53.52798053527981,"top":[{"id":"MACRON","name":"Emmanuel Macron","shortName":"Macron","votes":278,"share":67.63990267639902},{"id":"MELENCHON","name":"Jean-Luc Mélenchon","shortName":"Mélenchon","votes":58,"share":14.111922141119221},{"id":"LE_PEN","name":"Marine Le Pen","shortName":"Le Pen","votes":36,"share":8.75912408759124}]},"2":{"code":"98727","name":"Manihi","departmentCode":"987","registered":1011,"voters":574,"expressed":571,"blank":1,"invalid":2,"turnout":56.775469831849655,"abstention":43.224530168150345,"winnerId":"MACRON","runnerUpId":"LE_PEN","margin":45.008756567425564,"top":[{"id":"MACRON","name":"Emmanuel Macron","shortName":"Macron","votes":414,"share":72.50437828371278},{"id":"LE_PEN","name":"Marine Le Pen","shortName":"Le Pen","votes":157,"share":27.495621716287218}]}}},"geometry":{"type":"Polygon","coordinates":[[[798.9,375.59],[798.87,375.55],[798.86,375.57],[798.9,375.59]]]}},{"type":"Feature","id":"98728","properties":{"code":"98728","name":"Maupiti","departmentCode":"987","rounds":{"1":{"code":"98728","name":"Maupiti","departmentCode":"987","registered":1099,"voters":570,"expressed":548,"blank":16,"invalid":6,"turnout":51.86533212010919,"abstention":48.134667879890806,"winnerId":"ZEMMOUR","runnerUpId":"MACRON","margin":51.45985401459854,"top":[{"id":"ZEMMOUR","name":"Éric Zemmour","shortName":"Zemmour","votes":343,"share":62.59124087591241},{"id":"MACRON","name":"Emmanuel Macron","shortName":"Macron","votes":61,"share":11.13138686131387},{"id":"MELENCHON","name":"Jean-Luc Mélenchon","shortName":"Mélenchon","votes":47,"share":8.576642335766424}]},"2":{"code":"98728","name":"Maupiti","departmentCode":"987","registered":1099,"voters":699,"expressed":671,"blank":19,"invalid":9,"turnout":63.60327570518653,"abstention":36.39672429481347,"winnerId":"LE_PEN","runnerUpId":"MACRON","margin":46.944858420268254,"top":[{"id":"LE_PEN","name":"Marine Le Pen","shortName":"Le Pen","votes":493,"share":73.47242921013412},{"id":"MACRON","name":"Emmanuel Macron","shortName":"Macron","votes":178,"share":26.527570789865873}]}}},"geometry":{"type":"Polygon","coordinates":[[[774.04,368.22],[774.08,368.19],[774.08,368.15],[774.12,368.09],[774.11,368.09],[774.08,368.14],[774.07,368.18],[774.04,368.22]]]}},{"type":"Feature","id":"98729","properties":{"code":"98729","name":"Moorea-Maiao","departmentCode":"987","rounds":{"1":{"code":"98729","name":"Moorea-Maiao","departmentCode":"987","registered":13635,"voters":3540,"expressed":3379,"blank":61,"invalid":100,"turnout":25.962596259625965,"abstention":74.03740374037405,"winnerId":"MACRON","runnerUpId":"LE_PEN","margin":22.72861793430009,"top":[{"id":"MACRON","name":"Emmanuel Macron","shortName":"Macron","votes":1407,"share":41.63953832494821},{"id":"LE_PEN","name":"Marine Le Pen","shortName":"Le Pen","votes":639,"share":18.91092039064812},{"id":"MELENCHON","name":"Jean-Luc Mélenchon","shortName":"Mélenchon","votes":555,"share":16.424977804084048}]},"2":{"code":"98729","name":"Moorea-Maiao","departmentCode":"987","registered":13638,"voters":5296,"expressed":5002,"blank":173,"invalid":121,"turnout":38.83267341252383,"abstention":61.16732658747617,"winnerId":"MACRON","runnerUpId":"LE_PEN","margin":4.798080767692923,"top":[{"id":"MACRON","name":"Emmanuel Macron","shortName":"Macron","votes":2621,"share":52.39904038384646},{"id":"LE_PEN","name":"Marine Le Pen","shortName":"Le Pen","votes":2381,"share":47.60095961615354}]}}},"geometry":{"type":"MultiPolygon","coordinates":[[[[784.51,365.51],[784.57,365.43],[784.53,365.36],[784.47,365.47],[784.51,365.51]]],[[[787.2,366.01],[787.24,365.97],[787.19,365.85],[787.2,365.79],[787.15,365.75],[787.13,365.67],[787.05,365.63],[786.95,365.68],[786.8,365.81],[786.76,365.89],[786.76,365.95],[786.9,365.95],[786.98,365.97],[787.07,365.96],[787.2,366.01]]]]}},{"type":"Feature","id":"98730","properties":{"code":"98730","name":"Napuka","departmentCode":"987","rounds":{"1":{"code":"98730","name":"Napuka","departmentCode":"987","registered":244,"voters":104,"expressed":93,"blank":4,"invalid":7,"turnout":42.62295081967213,"abstention":57.377049180327866,"winnerId":"MACRON","runnerUpId":"LE_PEN","margin":20.43010752688172,"top":[{"id":"MACRON","name":"Emmanuel Macron","shortName":"Macron","votes":39,"share":41.935483870967744},{"id":"LE_PEN","name":"Marine Le Pen","shortName":"Le Pen","votes":20,"share":21.50537634408602},{"id":"ZEMMOUR","name":"Éric Zemmour","shortName":"Zemmour","votes":14,"share":15.053763440860216}]},"2":{"code":"98730","name":"Napuka","departmentCode":"987","registered":244,"voters":135,"expressed":133,"blank":1,"invalid":1,"turnout":55.32786885245902,"abstention":44.67213114754098,"winnerId":"LE_PEN","runnerUpId":"MACRON","margin":14.285714285714285,"top":[{"id":"LE_PEN","name":"Marine Le Pen","shortName":"Le Pen","votes":76,"share":57.14285714285714},{"id":"MACRON","name":"Emmanuel Macron","shortName":"Macron","votes":57,"share":42.857142857142854}]}}},"geometry":{"type":"Polygon","coordinates":[[[814.13,376.47],[814.18,376.46],[814.23,376.4],[814.28,376.38],[814.29,376.34],[814.27,376.33],[814.25,376.35],[814.28,376.37],[814.22,376.4],[814.17,376.45],[814.13,376.47]]]}},{"type":"Feature","id":"98731","properties":{"code":"98731","name":"Nuku-Hiva","departmentCode":"987","rounds":{"1":{"code":"98731","name":"Nuku-Hiva","departmentCode":"987","registered":2308,"voters":834,"expressed":807,"blank":18,"invalid":9,"turnout":36.13518197573657,"abstention":63.864818024263435,"winnerId":"MACRON","runnerUpId":"LE_PEN","margin":41.38785625774473,"top":[{"id":"MACRON","name":"Emmanuel Macron","shortName":"Macron","votes":456,"share":56.50557620817844},{"id":"LE_PEN","name":"Marine Le Pen","shortName":"Le Pen","votes":122,"share":15.117719950433706},{"id":"MELENCHON","name":"Jean-Luc Mélenchon","shortName":"Mélenchon","votes":81,"share":10.037174721189592}]},"2":{"code":"98731","name":"Nuku-Hiva","departmentCode":"987","registered":2291,"voters":1114,"expressed":1075,"blank":17,"invalid":22,"turnout":48.625054561326934,"abstention":51.374945438673066,"winnerId":"MACRON","runnerUpId":"LE_PEN","margin":23.348837209302324,"top":[{"id":"MACRON","name":"Emmanuel Macron","shortName":"Macron","votes":663,"share":61.67441860465116},{"id":"LE_PEN","name":"Marine Le Pen","shortName":"Le Pen","votes":412,"share":38.325581395348834}]}}},"geometry":{"type":"MultiPolygon","coordinates":[[[[815.95,396],[815.98,395.94],[815.86,395.87],[815.81,395.77],[815.73,395.78],[815.74,395.88],[815.8,395.95],[815.9,395.96],[815.95,396]]],[[[817.79,392.96],[817.76,392.93],[817.61,392.92],[817.42,392.83],[817.3,392.93],[817.28,393.09],[817.22,393.2],[817.22,393.33],[817.31,393.38],[817.49,393.36],[817.6,393.29],[817.65,393.31],[817.75,393.26],[817.83,393.25],[817.95,393.13],[817.97,393.05],[817.87,392.98],[817.79,392.96]]]]}},{"type":"Feature","id":"98732","properties":{"code":"98732","name":"Nukutavake","departmentCode":"987","rounds":{"1":{"code":"98732","name":"Nukutavake","departmentCode":"987","registered":261,"voters":174,"expressed":166,"blank":7,"invalid":1,"turnout":66.66666666666666,"abstention":33.33333333333333,"winnerId":"MACRON","runnerUpId":"LE_PEN","margin":19.879518072289155,"top":[{"id":"MACRON","name":"Emmanuel Macron","shortName":"Macron","votes":83,"share":50},{"id":"LE_PEN","name":"Marine Le Pen","shortName":"Le Pen","votes":50,"share":30.120481927710845},{"id":"MELENCHON","name":"Jean-Luc Mélenchon","shortName":"Mélenchon","votes":14,"share":8.433734939759036}]},"2":{"code":"98732","name":"Nukutavake","departmentCode":"987","registered":261,"voters":168,"expressed":165,"blank":3,"invalid":0,"turnout":64.36781609195403,"abstention":35.63218390804598,"winnerId":"MACRON","runnerUpId":"LE_PEN","margin":15.151515151515152,"top":[{"id":"MACRON","name":"Emmanuel Macron","shortName":"Macron","votes":95,"share":57.57575757575758},{"id":"LE_PEN","name":"Marine Le Pen","shortName":"Le Pen","votes":70,"share":42.42424242424242}]}}},"geometry":{"type":"Polygon","coordinates":[[[820.48,360.16],[820.51,360.16],[820.53,360.14],[820.53,360.12],[820.51,360.06],[820.5,360.05],[820.49,360.05],[820.51,360.07],[820.53,360.12],[820.52,360.14],[820.48,360.16]]]}},{"type":"Feature","id":"98733","properties":{"code":"98733","name":"Paea","departmentCode":"987","rounds":{"1":{"code":"98733","name":"Paea","departmentCode":"987","registered":9378,"voters":2907,"expressed":2724,"blank":91,"invalid":92,"turnout":30.998080614203456,"abstention":69.00191938579654,"winnerId":"MACRON","runnerUpId":"LE_PEN","margin":16.519823788546255,"top":[{"id":"MACRON","name":"Emmanuel Macron","shortName":"Macron","votes":1016,"share":37.29809104258444},{"id":"LE_PEN","name":"Marine Le Pen","shortName":"Le Pen","votes":566,"share":20.77826725403818},{"id":"MELENCHON","name":"Jean-Luc Mélenchon","shortName":"Mélenchon","votes":410,"share":15.051395007342144}]},"2":{"code":"98733","name":"Paea","departmentCode":"987","registered":9379,"voters":3859,"expressed":3609,"blank":140,"invalid":110,"turnout":41.145111419127836,"abstention":58.854888580872164,"winnerId":"LE_PEN","runnerUpId":"MACRON","margin":5.901911886949293,"top":[{"id":"LE_PEN","name":"Marine Le Pen","shortName":"Le Pen","votes":1911,"share":52.95095594347464},{"id":"MACRON","name":"Emmanuel Macron","shortName":"Macron","votes":1698,"share":47.049044056525354}]}}},"geometry":{"type":"Polygon","coordinates":[[[788.06,365.42],[788.05,365.35],[787.89,365.2],[787.87,365.15],[787.82,365.17],[787.8,365.34],[787.77,365.41],[787.89,365.46],[788.06,365.42]]]}},{"type":"Feature","id":"98734","properties":{"code":"98734","name":"Papara","departmentCode":"987","rounds":{"1":{"code":"98734","name":"Papara","departmentCode":"987","registered":8744,"voters":1627,"expressed":1530,"blank":36,"invalid":61,"turnout":18.607044830741078,"abstention":81.39295516925891,"winnerId":"MACRON","runnerUpId":"LE_PEN","margin":12.418300653594772,"top":[{"id":"MACRON","name":"Emmanuel Macron","shortName":"Macron","votes":530,"share":34.64052287581699},{"id":"LE_PEN","name":"Marine Le Pen","shortName":"Le Pen","votes":340,"share":22.22222222222222},{"id":"MELENCHON","name":"Jean-Luc Mélenchon","shortName":"Mélenchon","votes":285,"share":18.627450980392158}]},"2":{"code":"98734","name":"Papara","departmentCode":"987","registered":8764,"voters":2766,"expressed":2645,"blank":51,"invalid":70,"turnout":31.560931081697856,"abstention":68.43906891830215,"winnerId":"LE_PEN","runnerUpId":"MACRON","margin":5.406427221172023,"top":[{"id":"LE_PEN","name":"Marine Le Pen","shortName":"Le Pen","votes":1394,"share":52.703213610586005},{"id":"MACRON","name":"Emmanuel Macron","shortName":"Macron","votes":1251,"share":47.29678638941399}]}}},"geometry":{"type":"Polygon","coordinates":[[[788.19,365.37],[788.18,365.25],[788.22,365.14],[788.21,365.05],[787.99,365.12],[787.87,365.15],[787.89,365.2],[788.05,365.35],[788.06,365.42],[788.12,365.47],[788.19,365.37]]]}},{"type":"Feature","id":"98735","properties":{"code":"98735","name":"Papeete","departmentCode":"987","rounds":{"1":{"code":"98735","name":"Papeete","departmentCode":"987","registered":18539,"voters":6322,"expressed":6015,"blank":169,"invalid":138,"turnout":34.101084200873835,"abstention":65.89891579912617,"winnerId":"MACRON","runnerUpId":"LE_PEN","margin":15.39484621778886,"top":[{"id":"MACRON","name":"Emmanuel Macron","shortName":"Macron","votes":2157,"share":35.86034912718205},{"id":"LE_PEN","name":"Marine Le Pen","shortName":"Le Pen","votes":1231,"share":20.465502909393184},{"id":"MELENCHON","name":"Jean-Luc Mélenchon","shortName":"Mélenchon","votes":779,"share":12.950955943474646}]},"2":{"code":"98735","name":"Papeete","departmentCode":"987","registered":18552,"voters":8180,"expressed":7777,"blank":244,"invalid":159,"turnout":44.09228115567055,"abstention":55.90771884432946,"winnerId":"MACRON","runnerUpId":"LE_PEN","margin":1.272984441301273,"top":[{"id":"MACRON","name":"Emmanuel Macron","shortName":"Macron","votes":3938,"share":50.636492220650645},{"id":"LE_PEN","name":"Marine Le Pen","shortName":"Le Pen","votes":3839,"share":49.36350777934936}]}}},"geometry":{"type":"Polygon","coordinates":[[[787.9,365.85],[787.91,365.77],[787.95,365.73],[787.98,365.63],[787.81,365.75],[787.81,365.78],[787.9,365.85]]]}},{"type":"Feature","id":"98736","properties":{"code":"98736","name":"Pirae","departmentCode":"987","rounds":{"1":{"code":"98736","name":"Pirae","departmentCode":"987","registered":10541,"voters":4148,"expressed":3947,"blank":120,"invalid":81,"turnout":39.35110520823451,"abstention":60.648894791765485,"winnerId":"MACRON","runnerUpId":"LE_PEN","margin":23.51152774258931,"top":[{"id":"MACRON","name":"Emmanuel Macron","shortName":"Macron","votes":1686,"share":42.71598682543704},{"id":"LE_PEN","name":"Marine Le Pen","shortName":"Le Pen","votes":758,"share":19.204459082847734},{"id":"MELENCHON","name":"Jean-Luc Mélenchon","shortName":"Mélenchon","votes":518,"share":13.123891563212567}]},"2":{"code":"98736","name":"Pirae","departmentCode":"987","registered":10549,"voters":5179,"expressed":4882,"blank":183,"invalid":114,"turnout":49.09470091951844,"abstention":50.905299080481555,"winnerId":"MACRON","runnerUpId":"LE_PEN","margin":16.304793117574764,"top":[{"id":"MACRON","name":"Emmanuel Macron","shortName":"Macron","votes":2839,"share":58.15239655878738},{"id":"LE_PEN","name":"Marine Le Pen","shortName":"Le Pen","votes":2043,"share":41.84760344121262}]}}},"geometry":{"type":"Polygon","coordinates":[[[787.94,365.85],[788.01,365.8],[788.1,365.69],[788.08,365.57],[788.07,365.55],[787.98,365.63],[787.95,365.73],[787.91,365.77],[787.9,365.85],[787.94,365.85]]]}},{"type":"Feature","id":"98737","properties":{"code":"98737","name":"Pukapuka","departmentCode":"987","rounds":{"1":{"code":"98737","name":"Puka Puka","departmentCode":"987","registered":144,"voters":69,"expressed":69,"blank":0,"invalid":0,"turnout":47.91666666666667,"abstention":52.083333333333336,"winnerId":"LE_PEN","runnerUpId":"MACRON","margin":55.072463768115945,"top":[{"id":"LE_PEN","name":"Marine Le Pen","shortName":"Le Pen","votes":49,"share":71.01449275362319},{"id":"MACRON","name":"Emmanuel Macron","shortName":"Macron","votes":11,"share":15.942028985507244},{"id":"ZEMMOUR","name":"Éric Zemmour","shortName":"Zemmour","votes":2,"share":2.898550724637681}]},"2":{"code":"98737","name":"Puka Puka","departmentCode":"987","registered":144,"voters":78,"expressed":78,"blank":0,"invalid":0,"turnout":54.166666666666664,"abstention":45.83333333333333,"winnerId":"MACRON","runnerUpId":"LE_PEN","margin":15.384615384615385,"top":[{"id":"MACRON","name":"Emmanuel Macron","shortName":"Macron","votes":45,"share":57.692307692307686},{"id":"LE_PEN","name":"Marine Le Pen","shortName":"Le Pen","votes":33,"share":42.30769230769231}]}}},"geometry":{"type":"Polygon","coordinates":[[[821.73,374.44],[821.73,374.41],[821.68,374.43],[821.73,374.44]]]}},{"type":"Feature","id":"98738","properties":{"code":"98738","name":"Punaauia","departmentCode":"987","rounds":{"1":{"code":"98738","name":"Punaauia","departmentCode":"987","registered":18863,"voters":7238,"expressed":7013,"blank":146,"invalid":79,"turnout":38.37141493929916,"abstention":61.62858506070085,"winnerId":"MACRON","runnerUpId":"LE_PEN","margin":15.27163838585484,"top":[{"id":"MACRON","name":"Emmanuel Macron","shortName":"Macron","votes":2433,"share":34.69271353201198},{"id":"LE_PEN","name":"Marine Le Pen","shortName":"Le Pen","votes":1362,"share":19.421075146157136},{"id":"MELENCHON","name":"Jean-Luc Mélenchon","shortName":"Mélenchon","votes":1084,"share":15.457008412947385}]},"2":{"code":"98738","name":"Punaauia","departmentCode":"987","registered":18875,"voters":8778,"expressed":8258,"blank":361,"invalid":159,"turnout":46.505960264900665,"abstention":53.49403973509934,"winnerId":"MACRON","runnerUpId":"LE_PEN","margin":7.41099539840155,"top":[{"id":"MACRON","name":"Emmanuel Macron","shortName":"Macron","votes":4435,"share":53.70549769920078},{"id":"LE_PEN","name":"Marine Le Pen","shortName":"Le Pen","votes":3823,"share":46.29450230079922}]}}},"geometry":{"type":"Polygon","coordinates":[[[788.07,365.55],[788.08,365.57],[788.14,365.54],[788.12,365.47],[788.06,365.42],[787.89,365.46],[787.77,365.41],[787.7,365.5],[787.71,365.61],[787.69,365.69],[787.85,365.63],[787.91,365.58],[787.97,365.58],[788.02,365.53],[788.07,365.55]]]}},{"type":"Feature","id":"98739","properties":{"code":"98739","name":"Raivavae","departmentCode":"987","rounds":{"1":{"code":"98739","name":"Raivavae","departmentCode":"987","registered":840,"voters":320,"expressed":260,"blank":32,"invalid":28,"turnout":38.095238095238095,"abstention":61.904761904761905,"winnerId":"MACRON","runnerUpId":"LE_PEN","margin":14.615384615384617,"top":[{"id":"MACRON","name":"Emmanuel Macron","shortName":"Macron","votes":97,"share":37.30769230769231},{"id":"LE_PEN","name":"Marine Le Pen","shortName":"Le Pen","votes":59,"share":22.692307692307693},{"id":"MELENCHON","name":"Jean-Luc Mélenchon","shortName":"Mélenchon","votes":22,"share":8.461538461538462}]},"2":{"code":"98739","name":"Raivavae","departmentCode":"987","registered":840,"voters":356,"expressed":317,"blank":21,"invalid":18,"turnout":42.38095238095238,"abstention":57.61904761904761,"winnerId":"LE_PEN","runnerUpId":"MACRON","margin":9.14826498422713,"top":[{"id":"LE_PEN","name":"Marine Le Pen","shortName":"Le Pen","votes":173,"share":54.57413249211357},{"id":"MACRON","name":"Emmanuel Macron","shortName":"Macron","votes":144,"share":45.42586750788644}]}}},"geometry":{"type":"Polygon","coordinates":[[[793.88,345.83],[793.84,345.8],[793.77,345.83],[793.82,345.88],[793.88,345.83]]]}},{"type":"Feature","id":"98740","properties":{"code":"98740","name":"Rangiroa","departmentCode":"987","rounds":{"1":{"code":"98740","name":"Rangiroa","departmentCode":"987","registered":3115,"voters":1342,"expressed":1301,"blank":17,"invalid":24,"turnout":43.08186195826645,"abstention":56.91813804173355,"winnerId":"PECRESSE","runnerUpId":"MACRON","margin":6.22598001537279,"top":[{"id":"PECRESSE","name":"Valérie Pécresse","shortName":"Pécresse","votes":515,"share":39.58493466564181},{"id":"MACRON","name":"Emmanuel Macron","shortName":"Macron","votes":434,"share":33.35895465026903},{"id":"LE_PEN","name":"Marine Le Pen","shortName":"Le Pen","votes":141,"share":10.837817063797079}]},"2":{"code":"98740","name":"Rangiroa","departmentCode":"987","registered":3114,"voters":1775,"expressed":1724,"blank":26,"invalid":25,"turnout":57.00064226075787,"abstention":42.999357739242136,"winnerId":"LE_PEN","runnerUpId":"MACRON","margin":16.937354988399072,"top":[{"id":"LE_PEN","name":"Marine Le Pen","shortName":"Le Pen","votes":1008,"share":58.46867749419954},{"id":"MACRON","name":"Emmanuel Macron","shortName":"Macron","votes":716,"share":41.53132250580047}]}}},"geometry":{"type":"MultiPolygon","coordinates":[[[[791.98,371.26],[792.02,371.17],[792.1,371.14],[792.08,371.09],[792.02,371.05],[791.91,371.12],[791.92,371.23],[791.98,371.26]]],[[[794.09,373.82],[794.16,373.72],[794.25,373.63],[794.29,373.58],[794.41,373.48],[794.47,373.46],[794.55,373.4],[794.6,373.34],[794.65,373.3],[794.7,373.24],[794.84,373.17],[794.84,373.15],[794.7,373.23],[794.64,373.3],[794.62,373.3],[794.56,373.38],[794.46,373.45],[794.44,373.45],[794.27,373.58],[794.24,373.64],[794.15,373.71],[794.09,373.82]]]]}},{"type":"Feature","id":"98741","properties":{"code":"98741","name":"Rapa","departmentCode":"987","rounds":{"1":{"code":"98741","name":"Rapa","departmentCode":"987","registered":422,"voters":148,"expressed":145,"blank":0,"invalid":3,"turnout":35.07109004739337,"abstention":64.92890995260665,"winnerId":"PECRESSE","runnerUpId":"MACRON","margin":15.172413793103448,"top":[{"id":"PECRESSE","name":"Valérie Pécresse","shortName":"Pécresse","votes":68,"share":46.89655172413793},{"id":"MACRON","name":"Emmanuel Macron","shortName":"Macron","votes":46,"share":31.724137931034484},{"id":"LE_PEN","name":"Marine Le Pen","shortName":"Le Pen","votes":12,"share":8.275862068965518}]},"2":{"code":"98741","name":"Rapa","departmentCode":"987","registered":421,"voters":279,"expressed":278,"blank":0,"invalid":1,"turnout":66.270783847981,"abstention":33.729216152019006,"winnerId":"LE_PEN","runnerUpId":"MACRON","margin":46.043165467625904,"top":[{"id":"LE_PEN","name":"Marine Le Pen","shortName":"Le Pen","votes":203,"share":73.02158273381295},{"id":"MACRON","name":"Emmanuel Macron","shortName":"Macron","votes":75,"share":26.978417266187048}]}}},"geometry":{"type":"Polygon","coordinates":[[[804.22,334.17],[804.36,334.19],[804.41,334.1],[804.24,334],[804.2,334.06],[804.22,334.17]]]}},{"type":"Feature","id":"98742","properties":{"code":"98742","name":"Reao","departmentCode":"987","rounds":{"1":{"code":"98742","name":"Reao","departmentCode":"987","registered":475,"voters":277,"expressed":266,"blank":1,"invalid":10,"turnout":58.31578947368421,"abstention":41.68421052631579,"winnerId":"MACRON","runnerUpId":"LE_PEN","margin":60.526315789473685,"top":[{"id":"MACRON","name":"Emmanuel Macron","shortName":"Macron","votes":196,"share":73.68421052631578},{"id":"LE_PEN","name":"Marine Le Pen","shortName":"Le Pen","votes":35,"share":13.157894736842104},{"id":"HIDALGO","name":"Anne Hidalgo","shortName":"Hidalgo","votes":6,"share":2.2556390977443606}]},"2":{"code":"98742","name":"Reao","departmentCode":"987","registered":475,"voters":320,"expressed":308,"blank":8,"invalid":4,"turnout":67.36842105263158,"abstention":32.631578947368425,"winnerId":"MACRON","runnerUpId":"LE_PEN","margin":39.61038961038961,"top":[{"id":"MACRON","name":"Emmanuel Macron","shortName":"Macron","votes":215,"share":69.8051948051948},{"id":"LE_PEN","name":"Marine Le Pen","shortName":"Le Pen","votes":93,"share":30.1948051948052}]}}},"geometry":{"type":"Polygon","coordinates":[[[829.19,362.89],[829.22,362.88],[829.33,362.83],[829.4,362.8],[829.42,362.78],[829.46,362.74],[829.51,362.71],[829.57,362.68],[829.65,362.62],[829.68,362.59],[829.69,362.55],[829.65,362.53],[829.68,362.58],[829.63,362.63],[829.56,362.68],[829.48,362.72],[829.41,362.78],[829.34,362.81],[829.28,362.84],[829.19,362.89]]]}},{"type":"Feature","id":"98743","properties":{"code":"98743","name":"Rimatara","departmentCode":"987","rounds":{"1":{"code":"98743","name":"Rimatara","departmentCode":"987","registered":755,"voters":244,"expressed":229,"blank":4,"invalid":11,"turnout":32.317880794701985,"abstention":67.68211920529801,"winnerId":"MACRON","runnerUpId":"LE_PEN","margin":43.23144104803494,"top":[{"id":"MACRON","name":"Emmanuel Macron","shortName":"Macron","votes":130,"share":56.76855895196506},{"id":"LE_PEN","name":"Marine Le Pen","shortName":"Le Pen","votes":31,"share":13.537117903930133},{"id":"MELENCHON","name":"Jean-Luc Mélenchon","shortName":"Mélenchon","votes":25,"share":10.91703056768559}]},"2":{"code":"98743","name":"Rimatara","departmentCode":"987","registered":755,"voters":353,"expressed":338,"blank":4,"invalid":11,"turnout":46.75496688741722,"abstention":53.24503311258278,"winnerId":"MACRON","runnerUpId":"LE_PEN","margin":26.627218934911244,"top":[{"id":"MACRON","name":"Emmanuel Macron","shortName":"Macron","votes":214,"share":63.31360946745562},{"id":"LE_PEN","name":"Marine Le Pen","shortName":"Le Pen","votes":124,"share":36.68639053254438}]}}},"geometry":{"type":"Polygon","coordinates":[[[777.61,349.67],[777.64,349.74],[777.69,349.74],[777.67,349.66],[777.61,349.67]]]}},{"type":"Feature","id":"98744","properties":{"code":"98744","name":"Rurutu","departmentCode":"987","rounds":{"1":{"code":"98744","name":"Rurutu","departmentCode":"987","registered":2187,"voters":1081,"expressed":1052,"blank":11,"invalid":18,"turnout":49.42844078646548,"abstention":50.57155921353452,"winnerId":"MACRON","runnerUpId":"LE_PEN","margin":61.12167300380228,"top":[{"id":"MACRON","name":"Emmanuel Macron","shortName":"Macron","votes":734,"share":69.77186311787072},{"id":"LE_PEN","name":"Marine Le Pen","shortName":"Le Pen","votes":91,"share":8.650190114068442},{"id":"MELENCHON","name":"Jean-Luc Mélenchon","shortName":"Mélenchon","votes":85,"share":8.079847908745247}]},"2":{"code":"98744","name":"Rurutu","departmentCode":"987","registered":2188,"voters":1266,"expressed":1217,"blank":18,"invalid":31,"turnout":57.86106032906764,"abstention":42.13893967093236,"winnerId":"MACRON","runnerUpId":"LE_PEN","margin":39.68775677896467,"top":[{"id":"MACRON","name":"Emmanuel Macron","shortName":"Macron","votes":850,"share":69.84387838948234},{"id":"LE_PEN","name":"Marine Le Pen","shortName":"Le Pen","votes":367,"share":30.156121610517665}]}}},"geometry":{"type":"Polygon","coordinates":[[[782.27,350.09],[782.22,350.17],[782.23,350.25],[782.18,350.27],[782.15,350.35],[782.23,350.38],[782.32,350.31],[782.32,350.18],[782.27,350.09]]]}},{"type":"Feature","id":"98745","properties":{"code":"98745","name":"Tahaa","departmentCode":"987","rounds":{"1":{"code":"98745","name":"Tahaa","departmentCode":"987","registered":4694,"voters":1515,"expressed":1422,"blank":57,"invalid":36,"turnout":32.275244993608865,"abstention":67.72475500639113,"winnerId":"MACRON","runnerUpId":"PECRESSE","margin":5.344585091420535,"top":[{"id":"MACRON","name":"Emmanuel Macron","shortName":"Macron","votes":444,"share":31.223628691983123},{"id":"PECRESSE","name":"Valérie Pécresse","shortName":"Pécresse","votes":368,"share":25.87904360056259},{"id":"LE_PEN","name":"Marine Le Pen","shortName":"Le Pen","votes":274,"share":19.268635724331926}]},"2":{"code":"98745","name":"Tahaa","departmentCode":"987","registered":4694,"voters":2232,"expressed":2149,"blank":36,"invalid":47,"turnout":47.55006391137622,"abstention":52.44993608862377,"winnerId":"LE_PEN","runnerUpId":"MACRON","margin":24.988366682177755,"top":[{"id":"LE_PEN","name":"Marine Le Pen","shortName":"Le Pen","votes":1343,"share":62.494183341088885},{"id":"MACRON","name":"Emmanuel Macron","shortName":"Macron","votes":806,"share":37.50581665891112}]}}},"geometry":{"type":"Polygon","coordinates":[[[781.71,368.57],[781.62,368.63],[781.61,368.7],[781.66,368.8],[781.72,368.83],[781.88,368.8],[781.97,368.71],[781.9,368.61],[781.92,368.53],[781.88,368.5],[781.77,368.52],[781.71,368.57]]]}},{"type":"Feature","id":"98746","properties":{"code":"98746","name":"Tahuata","departmentCode":"987","rounds":{"1":{"code":"98746","name":"Tahuata","departmentCode":"987","registered":584,"voters":251,"expressed":247,"blank":0,"invalid":4,"turnout":42.97945205479452,"abstention":57.02054794520548,"winnerId":"MACRON","runnerUpId":"LE_PEN","margin":45.34412955465587,"top":[{"id":"MACRON","name":"Emmanuel Macron","shortName":"Macron","votes":151,"share":61.1336032388664},{"id":"LE_PEN","name":"Marine Le Pen","shortName":"Le Pen","votes":39,"share":15.789473684210526},{"id":"PECRESSE","name":"Valérie Pécresse","shortName":"Pécresse","votes":26,"share":10.526315789473683}]},"2":{"code":"98746","name":"Tahuata","departmentCode":"987","registered":584,"voters":300,"expressed":295,"blank":0,"invalid":5,"turnout":51.369863013698634,"abstention":48.63013698630137,"winnerId":"MACRON","runnerUpId":"LE_PEN","margin":33.559322033898304,"top":[{"id":"MACRON","name":"Emmanuel Macron","shortName":"Macron","votes":197,"share":66.77966101694915},{"id":"LE_PEN","name":"Marine Le Pen","shortName":"Le Pen","votes":98,"share":33.220338983050844}]}}},"geometry":{"type":"Polygon","coordinates":[[[820.84,389.88],[820.84,389.89],[820.93,389.87],[821.02,389.81],[821.03,389.72],[820.93,389.71],[820.83,389.61],[820.8,389.53],[820.74,389.56],[820.74,389.64],[820.78,389.67],[820.78,389.77],[820.84,389.88]]]}},{"type":"Feature","id":"98747","properties":{"code":"98747","name":"Taiarapu-Est","departmentCode":"987","rounds":{"1":{"code":"98747","name":"Taiarapu-Est","departmentCode":"987","registered":10132,"voters":2466,"expressed":2367,"blank":52,"invalid":47,"turnout":24.338728780102645,"abstention":75.66127121989736,"winnerId":"MACRON","runnerUpId":"LE_PEN","margin":11.702577101816646,"top":[{"id":"MACRON","name":"Emmanuel Macron","shortName":"Macron","votes":867,"share":36.628643852978456},{"id":"LE_PEN","name":"Marine Le Pen","shortName":"Le Pen","votes":590,"share":24.92606675116181},{"id":"MELENCHON","name":"Jean-Luc Mélenchon","shortName":"Mélenchon","votes":318,"share":13.434727503168567}]},"2":{"code":"98747","name":"Taiarapu-Est","departmentCode":"987","registered":10140,"voters":3857,"expressed":3693,"blank":87,"invalid":77,"turnout":38.03747534516766,"abstention":61.96252465483235,"winnerId":"LE_PEN","runnerUpId":"MACRON","margin":5.551042512862172,"top":[{"id":"LE_PEN","name":"Marine Le Pen","shortName":"Le Pen","votes":1949,"share":52.77552125643109},{"id":"MACRON","name":"Emmanuel Macron","shortName":"Macron","votes":1744,"share":47.224478743568916}]}}},"geometry":{"type":"Polygon","coordinates":[[[789.15,364.74],[789.09,364.88],[789.03,364.92],[788.9,364.95],[788.86,365.03],[788.74,365.12],[788.61,365.17],[788.62,365.19],[788.58,365.18],[788.54,365.2],[788.53,365.32],[788.44,365.37],[788.34,365.4],[788.37,365.51],[788.46,365.51],[788.66,365.44],[788.7,365.21],[788.83,365.17],[788.92,365.18],[788.97,365.15],[789.11,365.12],[789.24,365.04],[789.24,364.85],[789.15,364.74]]]}},{"type":"Feature","id":"98748","properties":{"code":"98748","name":"Taiarapu-Ouest","departmentCode":"987","rounds":{"1":{"code":"98748","name":"Taiarapu-Ouest","departmentCode":"987","registered":6383,"voters":1570,"expressed":1494,"blank":38,"invalid":38,"turnout":24.596584678051073,"abstention":75.40341532194893,"winnerId":"MACRON","runnerUpId":"LE_PEN","margin":10.575635876840696,"top":[{"id":"MACRON","name":"Emmanuel Macron","shortName":"Macron","votes":452,"share":30.254350736278447},{"id":"LE_PEN","name":"Marine Le Pen","shortName":"Le Pen","votes":294,"share":19.67871485943775},{"id":"PECRESSE","name":"Valérie Pécresse","shortName":"Pécresse","votes":253,"share":16.934404283801875}]},"2":{"code":"98748","name":"Taiarapu-Ouest","departmentCode":"987","registered":6383,"voters":2471,"expressed":2380,"blank":46,"invalid":45,"turnout":38.71220429265236,"abstention":61.28779570734765,"winnerId":"LE_PEN","runnerUpId":"MACRON","margin":14.537815126050422,"top":[{"id":"LE_PEN","name":"Marine Le Pen","shortName":"Le Pen","votes":1363,"share":57.26890756302521},{"id":"MACRON","name":"Emmanuel Macron","shortName":"Macron","votes":1017,"share":42.73109243697479}]}}},"geometry":{"type":"Polygon","coordinates":[[[789.15,364.74],[789.06,364.73],[788.95,364.78],[788.88,364.78],[788.8,364.82],[788.71,364.92],[788.72,364.95],[788.61,365.17],[788.74,365.12],[788.86,365.03],[788.9,364.95],[789.03,364.92],[789.09,364.88],[789.15,364.74]]]}},{"type":"Feature","id":"98749","properties":{"code":"98749","name":"Takaroa","departmentCode":"987","rounds":{"1":{"code":"98749","name":"Takaroa","departmentCode":"987","registered":1250,"voters":422,"expressed":404,"blank":16,"invalid":2,"turnout":33.76,"abstention":66.24,"winnerId":"MACRON","runnerUpId":"LE_PEN","margin":54.45544554455446,"top":[{"id":"MACRON","name":"Emmanuel Macron","shortName":"Macron","votes":285,"share":70.54455445544554},{"id":"LE_PEN","name":"Marine Le Pen","shortName":"Le Pen","votes":65,"share":16.08910891089109},{"id":"MELENCHON","name":"Jean-Luc Mélenchon","shortName":"Mélenchon","votes":27,"share":6.683168316831684}]},"2":{"code":"98749","name":"Takaroa","departmentCode":"987","registered":1250,"voters":567,"expressed":548,"blank":17,"invalid":2,"turnout":45.36,"abstention":54.64,"winnerId":"MACRON","runnerUpId":"LE_PEN","margin":40.87591240875913,"top":[{"id":"MACRON","name":"Emmanuel Macron","shortName":"Macron","votes":386,"share":70.43795620437956},{"id":"LE_PEN","name":"Marine Le Pen","shortName":"Le Pen","votes":162,"share":29.56204379562044}]}}},"geometry":{"type":"Polygon","coordinates":[[[801.57,375.07],[801.54,375.05],[801.51,375],[801.5,374.94],[801.49,374.88],[801.46,374.81],[801.45,374.79],[801.44,374.75],[801.46,374.73],[801.49,374.73],[801.47,374.71],[801.42,374.75],[801.43,374.8],[801.47,374.84],[801.49,374.95],[801.5,375.01],[801.53,375.06],[801.57,375.07]]]}},{"type":"Feature","id":"98750","properties":{"code":"98750","name":"Taputapuatea","departmentCode":"987","rounds":{"1":{"code":"98750","name":"Taputapuatea","departmentCode":"987","registered":3961,"voters":1210,"expressed":1161,"blank":34,"invalid":15,"turnout":30.547841454178236,"abstention":69.45215854582176,"winnerId":"MACRON","runnerUpId":"LE_PEN","margin":21.53316106804479,"top":[{"id":"MACRON","name":"Emmanuel Macron","shortName":"Macron","votes":478,"share":41.171403962101635},{"id":"LE_PEN","name":"Marine Le Pen","shortName":"Le Pen","votes":228,"share":19.638242894056848},{"id":"MELENCHON","name":"Jean-Luc Mélenchon","shortName":"Mélenchon","votes":212,"share":18.26012058570198}]},"2":{"code":"98750","name":"Taputapuatea","departmentCode":"987","registered":3959,"voters":1882,"expressed":1786,"blank":56,"invalid":40,"turnout":47.53725688305128,"abstention":52.46274311694873,"winnerId":"MACRON","runnerUpId":"LE_PEN","margin":3.3594624860022395,"top":[{"id":"MACRON","name":"Emmanuel Macron","shortName":"Macron","votes":923,"share":51.679731243001115},{"id":"LE_PEN","name":"Marine Le Pen","shortName":"Le Pen","votes":863,"share":48.32026875699888}]}}},"geometry":{"type":"Polygon","coordinates":[[[782.03,367.83],[782.01,367.93],[781.95,367.94],[781.91,368.02],[781.92,368.24],[781.97,368.3],[782.09,368.09],[782.22,368.02],[782.22,367.94],[782.19,367.9],[782.03,367.83]]]}},{"type":"Feature","id":"98751","properties":{"code":"98751","name":"Tatakoto","departmentCode":"987","rounds":{"1":{"code":"98751","name":"Tatakoto","departmentCode":"987","registered":161,"voters":98,"expressed":93,"blank":5,"invalid":0,"turnout":60.86956521739131,"abstention":39.130434782608695,"winnerId":"ZEMMOUR","runnerUpId":"LE_PEN","margin":64.51612903225806,"top":[{"id":"ZEMMOUR","name":"Éric Zemmour","shortName":"Zemmour","votes":69,"share":74.19354838709677},{"id":"LE_PEN","name":"Marine Le Pen","shortName":"Le Pen","votes":9,"share":9.67741935483871},{"id":"MACRON","name":"Emmanuel Macron","shortName":"Macron","votes":8,"share":8.60215053763441}]},"2":{"code":"98751","name":"Tatakoto","departmentCode":"987","registered":161,"voters":115,"expressed":113,"blank":2,"invalid":0,"turnout":71.42857142857143,"abstention":28.57142857142857,"winnerId":"LE_PEN","runnerUpId":"MACRON","margin":55.75221238938053,"top":[{"id":"LE_PEN","name":"Marine Le Pen","shortName":"Le Pen","votes":88,"share":77.87610619469027},{"id":"MACRON","name":"Emmanuel Macron","shortName":"Macron","votes":25,"share":22.123893805309734}]}}},"geometry":{"type":"Polygon","coordinates":[[[823.24,366.47],[823.18,366.46],[823.03,366.46],[822.94,366.44],[822.94,366.45],[823,366.47],[823.17,366.47],[823.24,366.47]]]}},{"type":"Feature","id":"98752","properties":{"code":"98752","name":"Teva I Uta","departmentCode":"987","rounds":{"1":{"code":"98752","name":"Teva I Uta","departmentCode":"987","registered":7673,"voters":1719,"expressed":1634,"blank":37,"invalid":48,"turnout":22.403232112602634,"abstention":77.59676788739736,"winnerId":"MACRON","runnerUpId":"LE_PEN","margin":19.52264381884945,"top":[{"id":"MACRON","name":"Emmanuel Macron","shortName":"Macron","votes":702,"share":42.96205630354957},{"id":"LE_PEN","name":"Marine Le Pen","shortName":"Le Pen","votes":383,"share":23.439412484700124},{"id":"MELENCHON","name":"Jean-Luc Mélenchon","shortName":"Mélenchon","votes":222,"share":13.586291309669523}]},"2":{"code":"98752","name":"Teva I Uta","departmentCode":"987","registered":7677,"voters":3102,"expressed":2970,"blank":69,"invalid":63,"turnout":40.406408753419306,"abstention":59.593591246580694,"winnerId":"MACRON","runnerUpId":"LE_PEN","margin":10.437710437710438,"top":[{"id":"MACRON","name":"Emmanuel Macron","shortName":"Macron","votes":1640,"share":55.218855218855225},{"id":"LE_PEN","name":"Marine Le Pen","shortName":"Le Pen","votes":1330,"share":44.78114478114478}]}}},"geometry":{"type":"Polygon","coordinates":[[[788.58,365.18],[788.52,365.11],[788.4,365.1],[788.34,365.06],[788.21,365.05],[788.22,365.14],[788.18,365.25],[788.19,365.37],[788.34,365.4],[788.44,365.37],[788.53,365.32],[788.54,365.2],[788.58,365.18]]]}},{"type":"Feature","id":"98753","properties":{"code":"98753","name":"Tubuai","departmentCode":"987","rounds":{"1":{"code":"98753","name":"Tubuai","departmentCode":"987","registered":1860,"voters":457,"expressed":422,"blank":16,"invalid":19,"turnout":24.56989247311828,"abstention":75.43010752688171,"winnerId":"MACRON","runnerUpId":"LE_PEN","margin":18.95734597156398,"top":[{"id":"MACRON","name":"Emmanuel Macron","shortName":"Macron","votes":178,"share":42.18009478672986},{"id":"LE_PEN","name":"Marine Le Pen","shortName":"Le Pen","votes":98,"share":23.22274881516588},{"id":"MELENCHON","name":"Jean-Luc Mélenchon","shortName":"Mélenchon","votes":52,"share":12.322274881516588}]},"2":{"code":"98753","name":"Tubuai","departmentCode":"987","registered":1861,"voters":689,"expressed":655,"blank":20,"invalid":14,"turnout":37.02310585706609,"abstention":62.9768941429339,"winnerId":"MACRON","runnerUpId":"LE_PEN","margin":0.15267175572519084,"top":[{"id":"MACRON","name":"Emmanuel Macron","shortName":"Macron","votes":328,"share":50.0763358778626},{"id":"LE_PEN","name":"Marine Le Pen","shortName":"Le Pen","votes":327,"share":49.92366412213741}]}}},"geometry":{"type":"Polygon","coordinates":[[[788.24,347.38],[788.05,347.33],[787.97,347.43],[788.02,347.48],[788.18,347.51],[788.26,347.47],[788.24,347.38]]]}},{"type":"Feature","id":"98754","properties":{"code":"98754","name":"Tumaraa","departmentCode":"987","rounds":{"1":{"code":"98754","name":"Tumaraa","departmentCode":"987","registered":3066,"voters":771,"expressed":743,"blank":10,"invalid":18,"turnout":25.146771037182,"abstention":74.85322896281801,"winnerId":"MACRON","runnerUpId":"LE_PEN","margin":12.516823687752353,"top":[{"id":"MACRON","name":"Emmanuel Macron","shortName":"Macron","votes":239,"share":32.16689098250337},{"id":"LE_PEN","name":"Marine Le Pen","shortName":"Le Pen","votes":146,"share":19.650067294751008},{"id":"PECRESSE","name":"Valérie Pécresse","shortName":"Pécresse","votes":140,"share":18.842530282637952}]},"2":{"code":"98754","name":"Tumaraa","departmentCode":"987","registered":3066,"voters":1158,"expressed":1102,"blank":24,"invalid":32,"turnout":37.76908023483366,"abstention":62.230919765166334,"winnerId":"MACRON","runnerUpId":"LE_PEN","margin":4.174228675136116,"top":[{"id":"MACRON","name":"Emmanuel Macron","shortName":"Macron","votes":574,"share":52.08711433756806},{"id":"LE_PEN","name":"Marine Le Pen","shortName":"Le Pen","votes":528,"share":47.91288566243194}]}}},"geometry":{"type":"Polygon","coordinates":[[[781.92,368.24],[781.91,368.02],[781.95,367.94],[782.01,367.93],[782.03,367.83],[781.97,367.83],[781.94,367.76],[781.86,367.8],[781.89,367.86],[781.82,368.01],[781.79,368.15],[781.81,368.32],[781.92,368.24]]]}},{"type":"Feature","id":"98755","properties":{"code":"98755","name":"Tureia","departmentCode":"987","rounds":{"1":{"code":"98755","name":"Tureia","departmentCode":"987","registered":244,"voters":99,"expressed":97,"blank":1,"invalid":1,"turnout":40.57377049180328,"abstention":59.42622950819673,"winnerId":"MACRON","runnerUpId":"LE_PEN","margin":42.2680412371134,"top":[{"id":"MACRON","name":"Emmanuel Macron","shortName":"Macron","votes":57,"share":58.76288659793815},{"id":"LE_PEN","name":"Marine Le Pen","shortName":"Le Pen","votes":16,"share":16.49484536082474},{"id":"DUPONT_AIGNAN","name":"Nicolas Dupont-Aignan","shortName":"Dupont-Aignan","votes":8,"share":8.24742268041237}]},"2":{"code":"98755","name":"Tureia","departmentCode":"987","registered":244,"voters":114,"expressed":108,"blank":3,"invalid":3,"turnout":46.72131147540984,"abstention":53.278688524590166,"winnerId":"MACRON","runnerUpId":"LE_PEN","margin":46.2962962962963,"top":[{"id":"MACRON","name":"Emmanuel Macron","shortName":"Macron","votes":79,"share":73.14814814814815},{"id":"LE_PEN","name":"Marine Le Pen","shortName":"Le Pen","votes":29,"share":26.851851851851855}]}}},"geometry":{"type":"MultiPolygon","coordinates":[[[[821.06,352.1],[821.06,352.1],[821.06,352.1],[821.06,352.1]]],[[[821.81,352.25],[821.77,352.34],[821.65,352.36],[821.79,352.34],[821.81,352.25]]],[[[822.52,355.62],[822.55,355.62],[822.52,355.61],[822.52,355.62]]]]}},{"type":"Feature","id":"98756","properties":{"code":"98756","name":"Ua-Huka","departmentCode":"987","rounds":{"1":{"code":"98756","name":"Ua-Huka","departmentCode":"987","registered":526,"voters":337,"expressed":334,"blank":2,"invalid":1,"turnout":64.06844106463878,"abstention":35.93155893536122,"winnerId":"MACRON","runnerUpId":"LE_PEN","margin":74.8502994011976,"top":[{"id":"MACRON","name":"Emmanuel Macron","shortName":"Macron","votes":275,"share":82.33532934131736},{"id":"LE_PEN","name":"Marine Le Pen","shortName":"Le Pen","votes":25,"share":7.48502994011976},{"id":"MELENCHON","name":"Jean-Luc Mélenchon","shortName":"Mélenchon","votes":8,"share":2.3952095808383236}]},"2":{"code":"98756","name":"Ua-Huka","departmentCode":"987","registered":526,"voters":368,"expressed":366,"blank":2,"invalid":0,"turnout":69.96197718631178,"abstention":30.038022813688215,"winnerId":"MACRON","runnerUpId":"LE_PEN","margin":57.377049180327866,"top":[{"id":"MACRON","name":"Emmanuel Macron","shortName":"Macron","votes":288,"share":78.68852459016394},{"id":"LE_PEN","name":"Marine Le Pen","shortName":"Le Pen","votes":78,"share":21.311475409836063}]}}},"geometry":{"type":"Polygon","coordinates":[[[819.42,393.13],[819.58,393.05],[819.62,392.98],[819.61,392.91],[819.54,392.93],[819.44,392.92],[819.29,392.86],[819.22,392.95],[819.24,393.04],[819.31,393.09],[819.42,393.13]]]}},{"type":"Feature","id":"98757","properties":{"code":"98757","name":"Ua-Pou","departmentCode":"987","rounds":{"1":{"code":"98757","name":"Ua-Pou","departmentCode":"987","registered":1764,"voters":738,"expressed":729,"blank":6,"invalid":3,"turnout":41.83673469387755,"abstention":58.16326530612245,"winnerId":"MACRON","runnerUpId":"LE_PEN","margin":24.55418381344307,"top":[{"id":"MACRON","name":"Emmanuel Macron","shortName":"Macron","votes":370,"share":50.75445816186557},{"id":"LE_PEN","name":"Marine Le Pen","shortName":"Le Pen","votes":191,"share":26.200274348422496},{"id":"MELENCHON","name":"Jean-Luc Mélenchon","shortName":"Mélenchon","votes":49,"share":6.721536351165981}]},"2":{"code":"98757","name":"Ua-Pou","departmentCode":"987","registered":1764,"voters":883,"expressed":869,"blank":9,"invalid":5,"turnout":50.05668934240363,"abstention":49.94331065759637,"winnerId":"MACRON","runnerUpId":"LE_PEN","margin":17.376294591484466,"top":[{"id":"MACRON","name":"Emmanuel Macron","shortName":"Macron","votes":510,"share":58.68814729574223},{"id":"LE_PEN","name":"Marine Le Pen","shortName":"Le Pen","votes":359,"share":41.31185270425777}]}}},"geometry":{"type":"Polygon","coordinates":[[[817.82,391.24],[817.76,391.25],[817.67,391.35],[817.59,391.46],[817.6,391.51],[817.76,391.64],[817.83,391.61],[817.93,391.53],[817.88,391.37],[817.88,391.3],[817.82,391.24]]]}},{"type":"Feature","id":"98758","properties":{"code":"98758","name":"Uturoa","departmentCode":"987","rounds":{"1":{"code":"98758","name":"Uturoa","departmentCode":"987","registered":3539,"voters":1067,"expressed":1026,"blank":21,"invalid":20,"turnout":30.149759819157957,"abstention":69.85024018084205,"winnerId":"MACRON","runnerUpId":"LE_PEN","margin":13.157894736842104,"top":[{"id":"MACRON","name":"Emmanuel Macron","shortName":"Macron","votes":362,"share":35.28265107212476},{"id":"LE_PEN","name":"Marine Le Pen","shortName":"Le Pen","votes":227,"share":22.12475633528265},{"id":"MELENCHON","name":"Jean-Luc Mélenchon","shortName":"Mélenchon","votes":190,"share":18.51851851851852}]},"2":{"code":"98758","name":"Uturoa","departmentCode":"987","registered":3532,"voters":1551,"expressed":1456,"blank":54,"invalid":41,"turnout":43.91279728199321,"abstention":56.08720271800679,"winnerId":"MACRON","runnerUpId":"LE_PEN","margin":1.098901098901099,"top":[{"id":"MACRON","name":"Emmanuel Macron","shortName":"Macron","votes":736,"share":50.54945054945055},{"id":"LE_PEN","name":"Marine Le Pen","shortName":"Le Pen","votes":720,"share":49.45054945054945}]}}},"geometry":{"type":"Polygon","coordinates":[[[781.97,368.3],[781.92,368.24],[781.81,368.32],[781.85,368.37],[781.91,368.38],[781.97,368.3]]]}}]}