{"type":"FeatureCollection","features":[{"type":"Feature","id":"98801","properties":{"code":"98801","name":"Belep","departmentCode":"988","rounds":{"1":{"code":"98801","name":"Belep","departmentCode":"988","registered":934,"voters":53,"expressed":52,"blank":0,"invalid":1,"turnout":5.674518201284797,"abstention":94.3254817987152,"winnerId":"MELENCHON","runnerUpId":"MACRON","margin":38.46153846153847,"top":[{"id":"MELENCHON","name":"Jean-Luc Mélenchon","shortName":"Mélenchon","votes":30,"share":57.692307692307686},{"id":"MACRON","name":"Emmanuel Macron","shortName":"Macron","votes":10,"share":19.230769230769234},{"id":"LE_PEN","name":"Marine Le Pen","shortName":"Le Pen","votes":3,"share":5.769230769230769}]},"2":{"code":"98801","name":"Belep","departmentCode":"988","registered":934,"voters":48,"expressed":45,"blank":1,"invalid":2,"turnout":5.139186295503212,"abstention":94.86081370449678,"winnerId":"MACRON","runnerUpId":"LE_PEN","margin":73.33333333333333,"top":[{"id":"MACRON","name":"Emmanuel Macron","shortName":"Macron","votes":39,"share":86.66666666666667},{"id":"LE_PEN","name":"Marine Le Pen","shortName":"Le Pen","votes":6,"share":13.333333333333334}]}}},"geometry":{"type":"MultiPolygon","coordinates":[[[[870.88,384.85],[870.45,384.82],[870.16,385.1],[869.81,386.02],[870.06,386.29],[870.44,386.07],[870.45,385.54],[870.85,385.21],[870.88,384.85]]],[[[869,387.87],[869.1,388.15],[869.57,387.37],[869.16,387.4],[869.24,387.71],[869,387.87]]]]}},{"type":"Feature","id":"98802","properties":{"code":"98802","name":"Bouloupari","departmentCode":"988","rounds":{"1":{"code":"98802","name":"Boulouparis","departmentCode":"988","registered":3280,"voters":1463,"expressed":1429,"blank":23,"invalid":11,"turnout":44.603658536585364,"abstention":55.396341463414636,"winnerId":"MACRON","runnerUpId":"LE_PEN","margin":17.28481455563331,"top":[{"id":"MACRON","name":"Emmanuel Macron","shortName":"Macron","votes":606,"share":42.407277816655004},{"id":"LE_PEN","name":"Marine Le Pen","shortName":"Le Pen","votes":359,"share":25.122463261021693},{"id":"ZEMMOUR","name":"Éric Zemmour","shortName":"Zemmour","votes":153,"share":10.706787963610918}]},"2":{"code":"98802","name":"Boulouparis","departmentCode":"988","registered":3280,"voters":1580,"expressed":1523,"blank":38,"invalid":19,"turnout":48.170731707317074,"abstention":51.829268292682926,"winnerId":"MACRON","runnerUpId":"LE_PEN","margin":7.682206172028891,"top":[{"id":"MACRON","name":"Emmanuel Macron","shortName":"Macron","votes":820,"share":53.84110308601444},{"id":"LE_PEN","name":"Marine Le Pen","shortName":"Le Pen","votes":703,"share":46.15889691398555}]}}},"geometry":{"type":"MultiPolygon","coordinates":[[[[905.55,351.99],[905.11,351.66],[904.96,352.3],[905.67,352.13],[905.55,351.99]]],[[[902.76,354.09],[903.12,354.6],[903.36,354.68],[903.42,355.06],[903.9,355.31],[904.12,355.62],[903.99,355.93],[904.51,356.25],[904.64,356.62],[904.87,356.67],[904.96,356.5],[905.46,356.16],[905.92,356.31],[905.93,355.93],[905.56,355.25],[905.93,355.07],[906.77,355.03],[907.24,355.43],[908.37,354.9],[908.58,354.63],[909.12,354.59],[909.61,354.15],[910.03,354.25],[910.5,353.81],[909.75,353.74],[909.5,353.47],[909.59,353.28],[908.94,352.82],[908.42,352.57],[907.81,352.56],[907.49,352.46],[907.03,352.15],[907.14,352.49],[905.61,353.37],[905.65,353.78],[905.14,353.81],[905.05,353.63],[905.17,352.96],[904.81,353.04],[904.71,352.82],[904.34,353.1],[903.92,353.21],[903.49,353.82],[903.2,354.01],[902.76,354.09]]]]}},{"type":"Feature","id":"98803","properties":{"code":"98803","name":"Bourail","departmentCode":"988","rounds":{"1":{"code":"98803","name":"Bourail","departmentCode":"988","registered":4659,"voters":1840,"expressed":1792,"blank":36,"invalid":12,"turnout":39.4934535308006,"abstention":60.50654646919939,"winnerId":"MACRON","runnerUpId":"LE_PEN","margin":22.544642857142858,"top":[{"id":"MACRON","name":"Emmanuel Macron","shortName":"Macron","votes":808,"share":45.089285714285715},{"id":"LE_PEN","name":"Marine Le Pen","shortName":"Le Pen","votes":404,"share":22.544642857142858},{"id":"MELENCHON","name":"Jean-Luc Mélenchon","shortName":"Mélenchon","votes":162,"share":9.040178571428571}]},"2":{"code":"98803","name":"Bourail","departmentCode":"988","registered":4657,"voters":2073,"expressed":1975,"blank":63,"invalid":35,"turnout":44.51363538758857,"abstention":55.48636461241142,"winnerId":"MACRON","runnerUpId":"LE_PEN","margin":18.48101265822785,"top":[{"id":"MACRON","name":"Emmanuel Macron","shortName":"Macron","votes":1170,"share":59.24050632911393},{"id":"LE_PEN","name":"Marine Le Pen","shortName":"Le Pen","votes":805,"share":40.75949367088608}]}}},"geometry":{"type":"Polygon","coordinates":[[[897.92,356.57],[897.58,356.67],[896.86,357.19],[897.32,357.51],[896.39,357.86],[896.26,357.64],[895.73,357.76],[894.89,358.1],[894.16,358.34],[893.88,358.57],[893.78,358.92],[894.01,359.22],[893.37,359.28],[893.48,359.53],[894.2,359.73],[894.73,360.53],[895,360.69],[895.47,360.7],[896.06,360.48],[896.25,360.28],[896.66,360.42],[897.01,360.77],[897.3,360.69],[897.51,360.44],[897.8,360.58],[898.11,360.48],[898.64,359.85],[899.17,359.41],[899.42,358.36],[899.49,357.72],[898.98,357.53],[898.51,357.53],[898.66,356.95],[897.92,356.57]]]}},{"type":"Feature","id":"98804","properties":{"code":"98804","name":"Canala","departmentCode":"988","rounds":{"1":{"code":"98804","name":"Canala","departmentCode":"988","registered":3588,"voters":264,"expressed":236,"blank":9,"invalid":19,"turnout":7.357859531772576,"abstention":92.64214046822742,"winnerId":"MELENCHON","runnerUpId":"MACRON","margin":25,"top":[{"id":"MELENCHON","name":"Jean-Luc Mélenchon","shortName":"Mélenchon","votes":106,"share":44.91525423728814},{"id":"MACRON","name":"Emmanuel Macron","shortName":"Macron","votes":47,"share":19.915254237288135},{"id":"PECRESSE","name":"Valérie Pécresse","shortName":"Pécresse","votes":20,"share":8.47457627118644}]},"2":{"code":"98804","name":"Canala","departmentCode":"988","registered":3588,"voters":164,"expressed":146,"blank":7,"invalid":11,"turnout":4.570791527313267,"abstention":95.42920847268674,"winnerId":"MACRON","runnerUpId":"LE_PEN","margin":68.4931506849315,"top":[{"id":"MACRON","name":"Emmanuel Macron","shortName":"Macron","votes":123,"share":84.24657534246576},{"id":"LE_PEN","name":"Marine Le Pen","shortName":"Le Pen","votes":23,"share":15.753424657534246}]}}},"geometry":{"type":"Polygon","coordinates":[[[906.83,358.79],[906.25,358.6],[906.11,358.32],[905.55,358.17],[905.46,357.57],[904.98,357.35],[904.54,357.57],[904.02,357.98],[903.76,358.01],[903.49,357.75],[902.79,357.76],[902.35,357.85],[902.2,358.29],[902.54,358.47],[902.52,358.83],[902.35,359.17],[902.76,359.6],[902.8,360.03],[903.15,360.04],[903.1,360.5],[903.2,360.79],[902.92,361.49],[902.77,361.54],[902.92,361.54],[903.51,360.66],[903.84,360.32],[903.49,359.91],[904.01,359.67],[904.08,359.17],[904.58,359.42],[904.48,359.89],[904.12,360.07],[904.18,360.28],[903.98,360.75],[904.29,360.72],[904.62,360.28],[905.49,359.6],[905.68,359.19],[906.42,359.19],[906.83,358.79]]]}},{"type":"Feature","id":"98805","properties":{"code":"98805","name":"Dumbéa","departmentCode":"988","rounds":{"1":{"code":"98805","name":"Dumbéa","departmentCode":"988","registered":22741,"voters":9691,"expressed":9318,"blank":288,"invalid":85,"turnout":42.614660744910076,"abstention":57.38533925508993,"winnerId":"MACRON","runnerUpId":"LE_PEN","margin":18.25499034127495,"top":[{"id":"MACRON","name":"Emmanuel Macron","shortName":"Macron","votes":3729,"share":40.01931745009659},{"id":"LE_PEN","name":"Marine Le Pen","shortName":"Le Pen","votes":2028,"share":21.764327108821636},{"id":"MELENCHON","name":"Jean-Luc Mélenchon","shortName":"Mélenchon","votes":1067,"share":11.450955140588109}]},"2":{"code":"98805","name":"Dumbéa","departmentCode":"988","registered":22727,"voters":10381,"expressed":9793,"blank":427,"invalid":161,"turnout":45.67694812337748,"abstention":54.32305187662252,"winnerId":"MACRON","runnerUpId":"LE_PEN","margin":16.12376187072399,"top":[{"id":"MACRON","name":"Emmanuel Macron","shortName":"Macron","votes":5686,"share":58.061880935362},{"id":"LE_PEN","name":"Marine Le Pen","shortName":"Le Pen","votes":4107,"share":41.93811906463801}]}}},"geometry":{"type":"Polygon","coordinates":[[[910.36,349.52],[910.85,350.06],[910.66,350.44],[910.85,351.03],[911.15,350.94],[911.3,351.37],[911.5,351.47],[911.97,351.38],[912.66,351.02],[912.81,350.78],[913.26,350.72],[913.53,350.52],[913.54,350.11],[913.43,349.83],[912.97,349.58],[912.6,349.66],[912.25,349.59],[911.85,349.28],[911.77,348.87],[911.4,348.77],[911.13,348.99],[911.19,349.53],[910.36,349.52]]]}},{"type":"Feature","id":"98806","properties":{"code":"98806","name":"Farino","departmentCode":"988","rounds":{"1":{"code":"98806","name":"Farino","departmentCode":"988","registered":667,"voters":409,"expressed":393,"blank":10,"invalid":6,"turnout":61.31934032983508,"abstention":38.68065967016492,"winnerId":"MACRON","runnerUpId":"LE_PEN","margin":17.302798982188293,"top":[{"id":"MACRON","name":"Emmanuel Macron","shortName":"Macron","votes":178,"share":45.29262086513995},{"id":"LE_PEN","name":"Marine Le Pen","shortName":"Le Pen","votes":110,"share":27.989821882951656},{"id":"ZEMMOUR","name":"Éric Zemmour","shortName":"Zemmour","votes":26,"share":6.615776081424936}]},"2":{"code":"98806","name":"Farino","departmentCode":"988","registered":667,"voters":432,"expressed":420,"blank":9,"invalid":3,"turnout":64.76761619190404,"abstention":35.23238380809595,"winnerId":"MACRON","runnerUpId":"LE_PEN","margin":9.047619047619047,"top":[{"id":"MACRON","name":"Emmanuel Macron","shortName":"Macron","votes":229,"share":54.52380952380952},{"id":"LE_PEN","name":"Marine Le Pen","shortName":"Le Pen","votes":191,"share":45.476190476190474}]}}},"geometry":{"type":"Polygon","coordinates":[[[901.35,357.92],[901.71,357.67],[901.51,357.47],[901.43,357],[901.61,356.7],[901.3,356.54],[901.11,356.91],[900.55,356.78],[900.48,357.37],[900.8,357.5],[901.35,357.92]]]}},{"type":"Feature","id":"98807","properties":{"code":"98807","name":"Hienghène","departmentCode":"988","rounds":{"1":{"code":"98807","name":"Hienghène","departmentCode":"988","registered":2503,"voters":354,"expressed":339,"blank":14,"invalid":1,"turnout":14.143028365960847,"abstention":85.85697163403914,"winnerId":"MELENCHON","runnerUpId":"MACRON","margin":48.67256637168141,"top":[{"id":"MELENCHON","name":"Jean-Luc Mélenchon","shortName":"Mélenchon","votes":210,"share":61.94690265486725},{"id":"MACRON","name":"Emmanuel Macron","shortName":"Macron","votes":45,"share":13.274336283185843},{"id":"LE_PEN","name":"Marine Le Pen","shortName":"Le Pen","votes":20,"share":5.899705014749262}]},"2":{"code":"98807","name":"Hienghène","departmentCode":"988","registered":2503,"voters":193,"expressed":170,"blank":10,"invalid":13,"turnout":7.710747103475829,"abstention":92.28925289652418,"winnerId":"MACRON","runnerUpId":"LE_PEN","margin":67.05882352941175,"top":[{"id":"MACRON","name":"Emmanuel Macron","shortName":"Macron","votes":142,"share":83.52941176470588},{"id":"LE_PEN","name":"Marine Le Pen","shortName":"Le Pen","votes":28,"share":16.470588235294116}]}}},"geometry":{"type":"Polygon","coordinates":[[[886.66,373.75],[887.02,373.34],[887.28,373.19],[887.84,372.28],[888.18,372.22],[888.83,371.84],[889.18,371.33],[889.46,371.46],[889.74,371.36],[890.32,370.89],[890.53,370.61],[890.34,370.42],[890.77,370.18],[890.63,369.43],[890.49,369.27],[889.85,369.12],[890.02,368.61],[889.94,368.3],[889.63,368.17],[889.52,367.87],[889.63,367.42],[889,367.36],[888.77,367.81],[888.08,368.33],[888,368.64],[887.75,368.73],[887.77,369.05],[888,369.31],[887.86,369.58],[887.9,369.96],[887.5,370.12],[887.34,370.37],[886.22,370.74],[885.86,370.78],[885.64,370.99],[885.05,371.12],[884.45,371.34],[884.24,371.72],[884.61,372.33],[885.21,372.65],[884.97,373],[885,373.4],[884.97,373.66],[885.49,374],[885.92,373.81],[886.4,373.44],[886.66,373.75]]]}},{"type":"Feature","id":"98808","properties":{"code":"98808","name":"Houaïlou","departmentCode":"988","rounds":{"1":{"code":"98808","name":"Houailou","departmentCode":"988","registered":3748,"voters":344,"expressed":310,"blank":21,"invalid":13,"turnout":9.178228388473853,"abstention":90.82177161152615,"winnerId":"MELENCHON","runnerUpId":"MACRON","margin":15.483870967741936,"top":[{"id":"MELENCHON","name":"Jean-Luc Mélenchon","shortName":"Mélenchon","votes":140,"share":45.16129032258064},{"id":"MACRON","name":"Emmanuel Macron","shortName":"Macron","votes":92,"share":29.677419354838708},{"id":"LE_PEN","name":"Marine Le Pen","shortName":"Le Pen","votes":21,"share":6.774193548387098}]},"2":{"code":"98808","name":"Houailou","departmentCode":"988","registered":3746,"voters":290,"expressed":245,"blank":31,"invalid":14,"turnout":7.7415910304324616,"abstention":92.25840896956754,"winnerId":"MACRON","runnerUpId":"LE_PEN","margin":56.734693877551024,"top":[{"id":"MACRON","name":"Emmanuel Macron","shortName":"Macron","votes":192,"share":78.36734693877551},{"id":"LE_PEN","name":"Marine Le Pen","shortName":"Le Pen","votes":53,"share":21.63265306122449}]}}},"geometry":{"type":"Polygon","coordinates":[[[898.01,364.71],[898.55,364.24],[898.92,364.1],[898.77,363.71],[898.82,363.33],[899.17,362.83],[899.85,362.55],[900.13,362.57],[900.42,362.32],[901.13,362.36],[901.55,361.74],[901.3,361.52],[900.8,361.41],[900.93,361.19],[900.29,360.55],[900.14,360.04],[899.64,359.97],[899.32,359.7],[899.24,359.41],[899.17,359.41],[898.64,359.85],[898.11,360.48],[897.8,360.58],[897.51,360.44],[897.3,360.69],[897.01,360.77],[896.66,360.42],[896.25,360.28],[896.06,360.48],[895.47,360.7],[895.39,361.13],[895.19,361.49],[895.36,361.74],[895,361.94],[895.35,362.17],[895.2,362.67],[895.22,363.43],[895.42,363.51],[895.76,363.29],[896.25,363.14],[896.73,363.19],[897.06,363.42],[897.08,363.95],[897.45,364.02],[897.64,364.29],[897.61,364.6],[898.01,364.71]]]}},{"type":"Feature","id":"98809","properties":{"code":"98809","name":"L'Île-des-Pins","departmentCode":"988","rounds":{"1":{"code":"98809","name":"Ile des Pins","departmentCode":"988","registered":1842,"voters":261,"expressed":250,"blank":7,"invalid":4,"turnout":14.169381107491857,"abstention":85.83061889250814,"winnerId":"MELENCHON","runnerUpId":"MACRON","margin":2.4,"top":[{"id":"MELENCHON","name":"Jean-Luc Mélenchon","shortName":"Mélenchon","votes":83,"share":33.2},{"id":"MACRON","name":"Emmanuel Macron","shortName":"Macron","votes":77,"share":30.8},{"id":"PECRESSE","name":"Valérie Pécresse","shortName":"Pécresse","votes":46,"share":18.4}]},"2":{"code":"98809","name":"Ile des Pins","departmentCode":"988","registered":1842,"voters":302,"expressed":277,"blank":7,"invalid":18,"turnout":16.395222584147664,"abstention":83.60477741585234,"winnerId":"MACRON","runnerUpId":"LE_PEN","margin":61.73285198555957,"top":[{"id":"MACRON","name":"Emmanuel Macron","shortName":"Macron","votes":224,"share":80.86642599277978},{"id":"LE_PEN","name":"Marine Le Pen","shortName":"Le Pen","votes":53,"share":19.133574007220215}]}}},"geometry":{"type":"MultiPolygon","coordinates":[[[[926.77,341.93],[927.11,342.61],[927.53,342.26],[927.37,341.85],[926.77,341.93]]],[[[925.52,342.65],[925.6,343.42],[925.48,343.89],[925.86,344.15],[926.2,344.09],[926.62,343.83],[926.86,343.87],[926.96,343.52],[927.39,343.3],[927.55,343.02],[927.34,342.82],[926.96,343.05],[927.04,342.49],[926.59,342.14],[925.99,342.27],[925.52,342.65]]]]}},{"type":"Feature","id":"98810","properties":{"code":"98810","name":"Kaala-Gomen","departmentCode":"988","rounds":{"1":{"code":"98810","name":"Kaala-Gomen","departmentCode":"988","registered":1753,"voters":278,"expressed":266,"blank":7,"invalid":5,"turnout":15.858528237307473,"abstention":84.14147176269253,"winnerId":"MACRON","runnerUpId":"MELENCHON","margin":10.526315789473683,"top":[{"id":"MACRON","name":"Emmanuel Macron","shortName":"Macron","votes":88,"share":33.08270676691729},{"id":"MELENCHON","name":"Jean-Luc Mélenchon","shortName":"Mélenchon","votes":60,"share":22.55639097744361},{"id":"LE_PEN","name":"Marine Le Pen","shortName":"Le Pen","votes":58,"share":21.804511278195488}]},"2":{"code":"98810","name":"Kaala-Gomen","departmentCode":"988","registered":1753,"voters":254,"expressed":242,"blank":6,"invalid":6,"turnout":14.489446662863662,"abstention":85.51055333713634,"winnerId":"MACRON","runnerUpId":"LE_PEN","margin":21.487603305785125,"top":[{"id":"MACRON","name":"Emmanuel Macron","shortName":"Macron","votes":147,"share":60.74380165289256},{"id":"LE_PEN","name":"Marine Le Pen","shortName":"Le Pen","votes":95,"share":39.25619834710744}]}}},"geometry":{"type":"Polygon","coordinates":[[[883.27,368.28],[882.95,368.43],[882.3,368.98],[882.06,369.3],[881.74,369.39],[881.34,369.97],[881.32,370.36],[881.48,370.8],[880.48,371.55],[879.95,372.16],[880.62,372.19],[880.93,372.44],[881.07,373.08],[881.61,372.86],[881.89,372.96],[882.29,372.68],[882.92,372.84],[882.83,373.1],[883.37,373.08],[883.98,372.99],[884.4,372.83],[884.67,373.35],[885,373.4],[884.97,373],[885.21,372.65],[884.61,372.33],[884.24,371.72],[884.45,371.34],[885.05,371.12],[885.11,370.61],[884.86,370.28],[884.14,370.34],[883.86,369.95],[883.92,369.46],[883.83,369.24],[883.42,368.99],[883.27,368.28]]]}},{"type":"Feature","id":"98811","properties":{"code":"98811","name":"Koné","departmentCode":"988","rounds":{"1":{"code":"98811","name":"Koné","departmentCode":"988","registered":5089,"voters":1172,"expressed":1102,"blank":43,"invalid":27,"turnout":23.030064845745727,"abstention":76.96993515425427,"winnerId":"MACRON","runnerUpId":"MELENCHON","margin":13.520871143375683,"top":[{"id":"MACRON","name":"Emmanuel Macron","shortName":"Macron","votes":411,"share":37.295825771324864},{"id":"MELENCHON","name":"Jean-Luc Mélenchon","shortName":"Mélenchon","votes":262,"share":23.77495462794918},{"id":"LE_PEN","name":"Marine Le Pen","shortName":"Le Pen","votes":215,"share":19.509981851179674}]},"2":{"code":"98811","name":"Koné","departmentCode":"988","registered":5090,"voters":1172,"expressed":1091,"blank":51,"invalid":30,"turnout":23.025540275049117,"abstention":76.97445972495089,"winnerId":"MACRON","runnerUpId":"LE_PEN","margin":27.039413382218147,"top":[{"id":"MACRON","name":"Emmanuel Macron","shortName":"Macron","votes":693,"share":63.51970669110908},{"id":"LE_PEN","name":"Marine Le Pen","shortName":"Le Pen","votes":398,"share":36.48029330889093}]}}},"geometry":{"type":"Polygon","coordinates":[[[889,367.36],[889.63,367.42],[890.04,367.27],[890.06,366.95],[890.5,367.04],[891.03,367.02],[891.24,366.87],[891.26,366.45],[891.1,366.27],[890.9,366.4],[890.5,366.3],[890.09,365.99],[889.87,366.05],[889.66,365.62],[889.08,365.61],[888.97,365.3],[888.15,365.12],[887.99,365.21],[887.55,365.14],[887.46,365.77],[887.12,366.01],[886.89,365.96],[886.56,365.51],[886.33,365.6],[886.24,366.01],[885.75,365.96],[885.75,365.96],[885.75,365.96],[886.27,366.49],[886.8,366.71],[886.99,366.92],[887.4,366.8],[887.63,367.01],[888.65,367.59],[889,367.36]]]}},{"type":"Feature","id":"98812","properties":{"code":"98812","name":"Koumac","departmentCode":"988","rounds":{"1":{"code":"98812","name":"Koumac","departmentCode":"988","registered":3120,"voters":931,"expressed":902,"blank":18,"invalid":11,"turnout":29.839743589743588,"abstention":70.16025641025641,"winnerId":"MACRON","runnerUpId":"LE_PEN","margin":10.310421286031042,"top":[{"id":"MACRON","name":"Emmanuel Macron","shortName":"Macron","votes":347,"share":38.470066518847005},{"id":"LE_PEN","name":"Marine Le Pen","shortName":"Le Pen","votes":254,"share":28.159645232815965},{"id":"MELENCHON","name":"Jean-Luc Mélenchon","shortName":"Mélenchon","votes":98,"share":10.864745011086473}]},"2":{"code":"98812","name":"Koumac","departmentCode":"988","registered":3120,"voters":1183,"expressed":1116,"blank":40,"invalid":27,"turnout":37.916666666666664,"abstention":62.083333333333336,"winnerId":"MACRON","runnerUpId":"LE_PEN","margin":6.989247311827956,"top":[{"id":"MACRON","name":"Emmanuel Macron","shortName":"Macron","votes":597,"share":53.494623655913976},{"id":"LE_PEN","name":"Marine Le Pen","shortName":"Le Pen","votes":519,"share":46.50537634408602}]}}},"geometry":{"type":"Polygon","coordinates":[[[877.96,375.76],[878.58,375.27],[879.18,375.09],[879.45,375.38],[879.27,375.81],[879.45,375.93],[879.85,375.82],[880.29,375.57],[880.58,375.15],[880.92,375.02],[881.21,374.66],[881.46,374.15],[881.83,374.31],[882.79,373.44],[883.2,373.35],[883.37,373.08],[882.83,373.1],[882.92,372.84],[882.29,372.68],[881.89,372.96],[881.61,372.86],[881.07,373.08],[880.93,372.44],[880.62,372.19],[879.95,372.16],[879.92,372.52],[879.64,372.96],[878.77,373.4],[878.3,373.96],[877.94,374.28],[877.63,375.21],[877.11,375.54],[877.05,375.84],[877.61,375.62],[877.95,375.75],[877.96,375.75],[877.96,375.76]]]}},{"type":"Feature","id":"98813","properties":{"code":"98813","name":"La Foa","departmentCode":"988","rounds":{"1":{"code":"98813","name":"La Foa","departmentCode":"988","registered":3435,"voters":1465,"expressed":1413,"blank":33,"invalid":19,"turnout":42.64919941775837,"abstention":57.35080058224163,"winnerId":"MACRON","runnerUpId":"LE_PEN","margin":27.034677990092003,"top":[{"id":"MACRON","name":"Emmanuel Macron","shortName":"Macron","votes":653,"share":46.2137296532201},{"id":"LE_PEN","name":"Marine Le Pen","shortName":"Le Pen","votes":271,"share":19.179051663128096},{"id":"MELENCHON","name":"Jean-Luc Mélenchon","shortName":"Mélenchon","votes":167,"share":11.818825194621372}]},"2":{"code":"98813","name":"La Foa","departmentCode":"988","registered":3434,"voters":1711,"expressed":1640,"blank":37,"invalid":34,"turnout":49.82527664531159,"abstention":50.17472335468841,"winnerId":"MACRON","runnerUpId":"LE_PEN","margin":17.195121951219512,"top":[{"id":"MACRON","name":"Emmanuel Macron","shortName":"Macron","votes":961,"share":58.59756097560975},{"id":"LE_PEN","name":"Marine Le Pen","shortName":"Le Pen","votes":679,"share":41.40243902439024}]}}},"geometry":{"type":"Polygon","coordinates":[[[900.6,356.42],[900.55,356.78],[901.11,356.91],[901.3,356.54],[901.61,356.7],[902.24,356.63],[902.3,356.95],[902.92,357.44],[902.79,357.76],[903.49,357.75],[903.76,358.01],[904.02,357.98],[904.54,357.57],[904.98,357.35],[904.81,356.97],[904.87,356.67],[904.64,356.62],[904.51,356.25],[903.99,355.93],[904.12,355.62],[903.9,355.31],[903.42,355.06],[903.36,354.68],[903.12,354.6],[902.76,354.09],[902.27,354.22],[902.18,354.59],[901.73,354.94],[901.76,355.16],[901.16,355.01],[901.04,355.23],[901.33,355.43],[900.96,355.66],[901.23,355.93],[901.61,355.91],[901.64,356.15],[901.17,356.19],[900.6,356.42]]]}},{"type":"Feature","id":"98814","properties":{"code":"98814","name":"Lifou","departmentCode":"988","rounds":{"1":{"code":"98814","name":"Lifou","departmentCode":"988","registered":10986,"voters":1055,"expressed":1015,"blank":23,"invalid":17,"turnout":9.603131257964682,"abstention":90.39686874203532,"winnerId":"MELENCHON","runnerUpId":"MACRON","margin":40.88669950738916,"top":[{"id":"MELENCHON","name":"Jean-Luc Mélenchon","shortName":"Mélenchon","votes":602,"share":59.310344827586206},{"id":"MACRON","name":"Emmanuel Macron","shortName":"Macron","votes":187,"share":18.423645320197043},{"id":"PECRESSE","name":"Valérie Pécresse","shortName":"Pécresse","votes":54,"share":5.320197044334975}]},"2":{"code":"98814","name":"Lifou","departmentCode":"988","registered":10977,"voters":664,"expressed":590,"blank":51,"invalid":23,"turnout":6.049011569645623,"abstention":93.95098843035437,"winnerId":"MACRON","runnerUpId":"LE_PEN","margin":53.898305084745765,"top":[{"id":"MACRON","name":"Emmanuel Macron","shortName":"Macron","votes":454,"share":76.94915254237287},{"id":"LE_PEN","name":"Marine Le Pen","shortName":"Le Pen","votes":136,"share":23.050847457627118}]}}},"geometry":{"type":"MultiPolygon","coordinates":[[[[931.34,365.46],[931.58,365.11],[931.41,364.86],[931.02,365.42],[931.34,365.46]]],[[[921.42,365.6],[920.69,366.23],[920.66,366.48],[920.16,366.93],[920.29,367.21],[920.11,367.52],[919.75,367.62],[919.51,367.96],[920.03,368.05],[920.42,367.8],[921.17,368.12],[921.42,368.62],[921.76,368.86],[921.99,369.47],[921.86,369.8],[921.49,369.96],[921.11,369.92],[920.77,370.21],[919.92,369.97],[919.78,370.17],[919.92,370.68],[920.26,370.92],[920.89,371],[921.35,370.8],[921.74,370.99],[921.73,371.31],[922.42,371.46],[922.99,371.22],[923.41,370.77],[923.79,370.55],[923.42,370.24],[923.35,369.39],[923.61,368.58],[923.17,368.05],[923.6,368.02],[924.05,367.68],[924.49,367.65],[924.9,367.4],[925.01,367.05],[924.95,366.54],[925.4,366.24],[925.62,366.27],[926.11,365.86],[925.36,365.35],[925.43,364.35],[924.96,364.07],[924.33,364.07],[923.85,364.79],[923.26,364.99],[923.2,365.42],[922.52,365.42],[921.42,365.6]]]]}},{"type":"Feature","id":"98815","properties":{"code":"98815","name":"Maré","departmentCode":"988","rounds":{"1":{"code":"98815","name":"Maré","departmentCode":"988","registered":6939,"voters":342,"expressed":336,"blank":2,"invalid":4,"turnout":4.9286640726329445,"abstention":95.07133592736704,"winnerId":"MELENCHON","runnerUpId":"MACRON","margin":34.82142857142857,"top":[{"id":"MELENCHON","name":"Jean-Luc Mélenchon","shortName":"Mélenchon","votes":183,"share":54.46428571428571},{"id":"MACRON","name":"Emmanuel Macron","shortName":"Macron","votes":66,"share":19.642857142857142},{"id":"PECRESSE","name":"Valérie Pécresse","shortName":"Pécresse","votes":23,"share":6.845238095238096}]},"2":{"code":"98815","name":"Maré","departmentCode":"988","registered":6935,"voters":331,"expressed":312,"blank":11,"invalid":8,"turnout":4.772891131939438,"abstention":95.22710886806055,"winnerId":"MACRON","runnerUpId":"LE_PEN","margin":44.230769230769226,"top":[{"id":"MACRON","name":"Emmanuel Macron","shortName":"Macron","votes":225,"share":72.11538461538461},{"id":"LE_PEN","name":"Marine Le Pen","shortName":"Le Pen","votes":87,"share":27.884615384615387}]}}},"geometry":{"type":"Polygon","coordinates":[[[933.65,360.5],[934.03,360.03],[934.47,359.89],[934.82,360.07],[935.32,360.08],[935.76,360.36],[936,360.2],[935.76,359.63],[935.72,358.76],[935.62,358.1],[935.75,357.54],[934.84,357.35],[934.59,357.07],[933.8,357.09],[933.43,357.22],[933.24,357.48],[933.35,357.69],[932.69,357.98],[932.05,357.97],[932.05,358.31],[932.27,358.66],[931.9,359.01],[931.58,359.69],[931.68,360.07],[931.49,360.57],[931.21,360.79],[931.11,361.13],[931.71,361.23],[932.18,360.88],[932.46,360.83],[932.56,361.13],[933.44,361.36],[933.35,361.05],[933.65,360.5]]]}},{"type":"Feature","id":"98816","properties":{"code":"98816","name":"Moindou","departmentCode":"988","rounds":{"1":{"code":"98816","name":"Moindou","departmentCode":"988","registered":822,"voters":317,"expressed":308,"blank":6,"invalid":3,"turnout":38.564476885644766,"abstention":61.43552311435523,"winnerId":"MACRON","runnerUpId":"LE_PEN","margin":23.051948051948052,"top":[{"id":"MACRON","name":"Emmanuel Macron","shortName":"Macron","votes":144,"share":46.75324675324675},{"id":"LE_PEN","name":"Marine Le Pen","shortName":"Le Pen","votes":73,"share":23.7012987012987},{"id":"MELENCHON","name":"Jean-Luc Mélenchon","shortName":"Mélenchon","votes":45,"share":14.61038961038961}]},"2":{"code":"98816","name":"Moindou","departmentCode":"988","registered":821,"voters":343,"expressed":330,"blank":7,"invalid":6,"turnout":41.77831912302071,"abstention":58.2216808769793,"winnerId":"MACRON","runnerUpId":"LE_PEN","margin":30.909090909090907,"top":[{"id":"MACRON","name":"Emmanuel Macron","shortName":"Macron","votes":216,"share":65.45454545454545},{"id":"LE_PEN","name":"Marine Le Pen","shortName":"Le Pen","votes":114,"share":34.54545454545455}]}}},"geometry":{"type":"Polygon","coordinates":[[[900.6,356.42],[900.41,356.32],[900.51,355.97],[900.08,355.82],[899.92,355.95],[899.85,356.38],[899.32,356.09],[898.94,356.28],[898.54,356.25],[897.85,356.56],[897.85,356.56],[897.92,356.57],[898.66,356.95],[898.51,357.53],[898.98,357.53],[899.49,357.72],[899.42,358.36],[899.17,359.41],[899.24,359.41],[899.72,359.07],[900.26,359.17],[900.82,358.88],[901.14,358.91],[901.36,358.7],[901.35,357.92],[900.8,357.5],[900.48,357.37],[900.55,356.78],[900.6,356.42]]]}},{"type":"Feature","id":"98817","properties":{"code":"98817","name":"Le Mont-Dore","departmentCode":"988","rounds":{"1":{"code":"98817","name":"Mont-Dore","departmentCode":"988","registered":22089,"voters":9224,"expressed":8850,"blank":256,"invalid":118,"turnout":41.75834125582869,"abstention":58.24165874417131,"winnerId":"MACRON","runnerUpId":"LE_PEN","margin":19.480225988700564,"top":[{"id":"MACRON","name":"Emmanuel Macron","shortName":"Macron","votes":3549,"share":40.101694915254235},{"id":"LE_PEN","name":"Marine Le Pen","shortName":"Le Pen","votes":1825,"share":20.62146892655367},{"id":"MELENCHON","name":"Jean-Luc Mélenchon","shortName":"Mélenchon","votes":1041,"share":11.76271186440678}]},"2":{"code":"98817","name":"Mont-Dore","departmentCode":"988","registered":22078,"voters":9899,"expressed":9215,"blank":467,"invalid":217,"turnout":44.836488812392425,"abstention":55.163511187607575,"winnerId":"MACRON","runnerUpId":"LE_PEN","margin":14.769397721106891,"top":[{"id":"MACRON","name":"Emmanuel Macron","shortName":"Macron","votes":5288,"share":57.38469886055344},{"id":"LE_PEN","name":"Marine Le Pen","shortName":"Le Pen","votes":3927,"share":42.61530113944655}]}}},"geometry":{"type":"MultiPolygon","coordinates":[[[[916.1,345.3],[916.2,346.2],[916.98,346.21],[917.12,345.96],[916.54,345.48],[916.1,345.3]]],[[[911.85,348.8],[911.77,348.87],[911.85,349.28],[912.25,349.59],[912.6,349.66],[912.97,349.58],[913.43,349.83],[913.9,349.69],[914.4,349.21],[914.79,349.74],[915.26,349.62],[915.87,349.66],[916.07,349.44],[915.92,349],[916.31,348.43],[916.66,348.44],[917.04,348.06],[917.37,348.19],[917.84,347.99],[918.03,347.47],[918.61,347.53],[918.85,347.36],[918.97,346.87],[918.25,346.25],[917.79,346.7],[917.44,347.28],[916.82,347.14],[916.57,346.96],[916.53,346.58],[916.15,346.31],[915.37,346.58],[915.6,346.92],[914.96,347.14],[914.69,347.53],[914.25,347.71],[913.91,348.03],[913.47,347.75],[912.84,348.22],[913.04,348.56],[912.4,348.58],[911.85,348.8]]]]}},{"type":"Feature","id":"98818","properties":{"code":"98818","name":"Nouméa","departmentCode":"988","rounds":{"1":{"code":"98818","name":"Nouméa","departmentCode":"988","registered":72587,"voters":33123,"expressed":32202,"blank":730,"invalid":191,"turnout":45.63213798614077,"abstention":54.36786201385924,"winnerId":"MACRON","runnerUpId":"LE_PEN","margin":25.47667846717595,"top":[{"id":"MACRON","name":"Emmanuel Macron","shortName":"Macron","votes":13839,"share":42.97559157816285},{"id":"LE_PEN","name":"Marine Le Pen","shortName":"Le Pen","votes":5635,"share":17.498913110986894},{"id":"ZEMMOUR","name":"Éric Zemmour","shortName":"Zemmour","votes":3540,"share":10.993106018259734}]},"2":{"code":"98818","name":"Nouméa","departmentCode":"988","registered":72587,"voters":34291,"expressed":32500,"blank":1342,"invalid":449,"turnout":47.241241544629204,"abstention":52.75875845537079,"winnerId":"MACRON","runnerUpId":"LE_PEN","margin":26.695384615384615,"top":[{"id":"MACRON","name":"Emmanuel Macron","shortName":"Macron","votes":20588,"share":63.347692307692306},{"id":"LE_PEN","name":"Marine Le Pen","shortName":"Le Pen","votes":11912,"share":36.65230769230769}]}}},"geometry":{"type":"Polygon","coordinates":[[[911.85,348.8],[911.9,348.65],[911.38,347.92],[911.09,347.65],[911,348.46],[911.1,348.8],[911.4,348.77],[911.77,348.87],[911.85,348.8]]]}},{"type":"Feature","id":"98819","properties":{"code":"98819","name":"Ouégoa","departmentCode":"988","rounds":{"1":{"code":"98819","name":"Ouégoa","departmentCode":"988","registered":2222,"voters":340,"expressed":334,"blank":4,"invalid":2,"turnout":15.301530153015303,"abstention":84.69846984698471,"winnerId":"MACRON","runnerUpId":"MELENCHON","margin":12.275449101796406,"top":[{"id":"MACRON","name":"Emmanuel Macron","shortName":"Macron","votes":140,"share":41.91616766467065},{"id":"MELENCHON","name":"Jean-Luc Mélenchon","shortName":"Mélenchon","votes":99,"share":29.64071856287425},{"id":"LE_PEN","name":"Marine Le Pen","shortName":"Le Pen","votes":62,"share":18.562874251497004}]},"2":{"code":"98819","name":"Ouégoa","departmentCode":"988","registered":2222,"voters":347,"expressed":330,"blank":8,"invalid":9,"turnout":15.616561656165617,"abstention":84.38343834383438,"winnerId":"MACRON","runnerUpId":"LE_PEN","margin":27.27272727272727,"top":[{"id":"MACRON","name":"Emmanuel Macron","shortName":"Macron","votes":210,"share":63.63636363636363},{"id":"LE_PEN","name":"Marine Le Pen","shortName":"Le Pen","votes":120,"share":36.36363636363637}]}}},"geometry":{"type":"MultiPolygon","coordinates":[[[[881.45,377.38],[881.33,377.25],[882.04,376.78],[882.46,376.28],[882.8,376.34],[882.95,375.9],[883.28,375.46],[883.39,374.9],[883.67,374.96],[884.17,374.62],[885.09,374.37],[885.49,374],[884.97,373.66],[885,373.4],[884.67,373.35],[884.4,372.83],[883.98,372.99],[883.37,373.08],[883.2,373.35],[882.79,373.44],[881.83,374.31],[881.46,374.15],[881.21,374.66],[880.92,375.02],[880.58,375.15],[880.29,375.57],[879.85,375.82],[880.45,376.24],[880.51,376.28],[880.52,376.26],[880.52,376.51],[880.13,376.73],[880.15,376.97],[879.74,377.69],[879.77,377.98],[880.07,378.03],[880.64,377.69],[881.34,377.6],[881.45,377.38]]],[[[877.94,380.31],[878.36,379.94],[878.6,379.29],[877.92,379.63],[877.74,379.98],[877.94,380.31]]]]}},{"type":"Feature","id":"98820","properties":{"code":"98820","name":"Ouvéa","departmentCode":"988","rounds":{"1":{"code":"98820","name":"Ouvéa","departmentCode":"988","registered":4408,"voters":149,"expressed":144,"blank":2,"invalid":3,"turnout":3.3802177858439206,"abstention":96.61978221415607,"winnerId":"MELENCHON","runnerUpId":"ZEMMOUR","margin":31.25,"top":[{"id":"MELENCHON","name":"Jean-Luc Mélenchon","shortName":"Mélenchon","votes":71,"share":49.30555555555556},{"id":"ZEMMOUR","name":"Éric Zemmour","shortName":"Zemmour","votes":26,"share":18.055555555555554},{"id":"MACRON","name":"Emmanuel Macron","shortName":"Macron","votes":25,"share":17.36111111111111}]},"2":{"code":"98820","name":"Ouvéa","departmentCode":"988","registered":4407,"voters":128,"expressed":115,"blank":7,"invalid":6,"turnout":2.904470161107329,"abstention":97.09552983889267,"winnerId":"MACRON","runnerUpId":"LE_PEN","margin":46.08695652173913,"top":[{"id":"MACRON","name":"Emmanuel Macron","shortName":"Macron","votes":84,"share":73.04347826086956},{"id":"LE_PEN","name":"Marine Le Pen","shortName":"Le Pen","votes":31,"share":26.956521739130434}]}}},"geometry":{"type":"Polygon","coordinates":[[[914.44,374.59],[913.62,374.53],[913.19,373.94],[913.06,373.43],[913.02,372.81],[913.16,372.59],[913.74,372.68],[913.4,372.16],[913,371.34],[912.05,371.06],[911.84,371.28],[912.22,371.58],[912.62,372.02],[912.85,372.5],[912.9,373.25],[913.06,373.81],[913.35,374.28],[913.4,374.8],[913.13,375.19],[912.77,375.31],[912.84,375.54],[913.59,375.65],[913.84,375.15],[914.31,374.82],[914.44,374.59]]]}},{"type":"Feature","id":"98821","properties":{"code":"98821","name":"Païta","departmentCode":"988","rounds":{"1":{"code":"98821","name":"Païta","departmentCode":"988","registered":15854,"voters":6080,"expressed":5838,"blank":178,"invalid":64,"turnout":38.34994323199193,"abstention":61.65005676800808,"winnerId":"MACRON","runnerUpId":"LE_PEN","margin":18.27680712572799,"top":[{"id":"MACRON","name":"Emmanuel Macron","shortName":"Macron","votes":2398,"share":41.07571085988352},{"id":"LE_PEN","name":"Marine Le Pen","shortName":"Le Pen","votes":1331,"share":22.79890373415553},{"id":"MELENCHON","name":"Jean-Luc Mélenchon","shortName":"Mélenchon","votes":606,"share":10.38026721479959}]},"2":{"code":"98821","name":"Païta","departmentCode":"988","registered":15838,"voters":6886,"expressed":6544,"blank":229,"invalid":113,"turnout":43.477711832302056,"abstention":56.522288167697944,"winnerId":"MACRON","runnerUpId":"LE_PEN","margin":12.408312958435207,"top":[{"id":"MACRON","name":"Emmanuel Macron","shortName":"Macron","votes":3678,"share":56.2041564792176},{"id":"LE_PEN","name":"Marine Le Pen","shortName":"Le Pen","votes":2866,"share":43.7958435207824}]}}},"geometry":{"type":"Polygon","coordinates":[[[910.36,349.52],[909.84,349.05],[909.53,349.18],[909.41,349.81],[908.81,349.91],[908.61,349.56],[907.92,349.99],[907.61,350.41],[907.22,350.56],[906.87,350.84],[906.52,350.59],[906.34,350.77],[906.61,351],[907.06,350.93],[906.99,351.49],[907.58,351.47],[906.86,351.97],[907.03,352.15],[907.49,352.46],[907.81,352.56],[908.42,352.57],[908.94,352.82],[909.59,353.28],[909.5,353.47],[909.75,353.74],[910.5,353.81],[910.91,353.54],[910.94,352.79],[911.08,352.46],[911.59,351.82],[911.5,351.47],[911.3,351.37],[911.15,350.94],[910.85,351.03],[910.66,350.44],[910.85,350.06],[910.36,349.52]]]}},{"type":"Feature","id":"98822","properties":{"code":"98822","name":"Poindimié","departmentCode":"988","rounds":{"1":{"code":"98822","name":"Poindimié","departmentCode":"988","registered":4356,"voters":539,"expressed":519,"blank":7,"invalid":13,"turnout":12.373737373737374,"abstention":87.62626262626263,"winnerId":"MELENCHON","runnerUpId":"MACRON","margin":19.460500963391137,"top":[{"id":"MELENCHON","name":"Jean-Luc Mélenchon","shortName":"Mélenchon","votes":237,"share":45.664739884393065},{"id":"MACRON","name":"Emmanuel Macron","shortName":"Macron","votes":136,"share":26.204238921001927},{"id":"LE_PEN","name":"Marine Le Pen","shortName":"Le Pen","votes":47,"share":9.05587668593449}]},"2":{"code":"98822","name":"Poindimié","departmentCode":"988","registered":4358,"voters":558,"expressed":480,"blank":47,"invalid":31,"turnout":12.804038549793484,"abstention":87.19596145020651,"winnerId":"MACRON","runnerUpId":"LE_PEN","margin":40,"top":[{"id":"MACRON","name":"Emmanuel Macron","shortName":"Macron","votes":336,"share":70},{"id":"LE_PEN","name":"Marine Le Pen","shortName":"Le Pen","votes":144,"share":30}]}}},"geometry":{"type":"Polygon","coordinates":[[[893.57,368.48],[893.84,368.71],[894.89,367.68],[895.44,367.71],[896.04,367.55],[895.79,366.58],[895.29,366.49],[895.06,366.27],[894.47,366.14],[894.1,366.45],[893.38,366.27],[892.51,366.18],[892.15,366.08],[891.66,366.05],[891.38,366.27],[891.1,366.27],[891.26,366.45],[891.24,366.87],[891.03,367.02],[890.5,367.04],[890.06,366.95],[890.04,367.27],[889.63,367.42],[889.52,367.87],[889.63,368.17],[889.94,368.3],[890.02,368.61],[889.85,369.12],[890.49,369.27],[890.63,369.43],[891.34,369.17],[891.57,369.2],[891.78,368.55],[892.22,368.51],[892.29,368.21],[892.78,368.28],[893.13,368.02],[893.57,368.48]]]}},{"type":"Feature","id":"98823","properties":{"code":"98823","name":"Ponérihouen","departmentCode":"988","rounds":{"1":{"code":"98823","name":"Ponérihouen","departmentCode":"988","registered":2693,"voters":230,"expressed":215,"blank":6,"invalid":9,"turnout":8.540660972892685,"abstention":91.4593390271073,"winnerId":"MELENCHON","runnerUpId":"MACRON","margin":31.16279069767442,"top":[{"id":"MELENCHON","name":"Jean-Luc Mélenchon","shortName":"Mélenchon","votes":117,"share":54.418604651162795},{"id":"MACRON","name":"Emmanuel Macron","shortName":"Macron","votes":50,"share":23.25581395348837},{"id":"LE_PEN","name":"Marine Le Pen","shortName":"Le Pen","votes":18,"share":8.372093023255815}]},"2":{"code":"98823","name":"Ponérihouen","departmentCode":"988","registered":2693,"voters":152,"expressed":138,"blank":6,"invalid":8,"turnout":5.644262903824731,"abstention":94.35573709617528,"winnerId":"MACRON","runnerUpId":"LE_PEN","margin":47.82608695652174,"top":[{"id":"MACRON","name":"Emmanuel Macron","shortName":"Macron","votes":102,"share":73.91304347826086},{"id":"LE_PEN","name":"Marine Le Pen","shortName":"Le Pen","votes":36,"share":26.08695652173913}]}}},"geometry":{"type":"Polygon","coordinates":[[[898.01,364.71],[897.61,364.6],[897.64,364.29],[897.45,364.02],[897.08,363.95],[897.06,363.42],[896.73,363.19],[896.25,363.14],[895.76,363.29],[895.42,363.51],[895.22,363.43],[894.73,363.49],[894.42,363.73],[894.29,364.05],[893.82,364.17],[893.43,363.95],[893.38,363.68],[892.82,363.82],[892.44,363.43],[892.04,363.39],[891.97,363.58],[892.06,363.95],[891.85,364.52],[892.03,364.63],[891.87,365.1],[892.15,366.08],[892.51,366.18],[893.38,366.27],[894.1,366.45],[894.47,366.14],[895.06,366.27],[895.29,366.49],[895.72,366.54],[895.88,366.39],[895.95,365.86],[896.56,365.26],[897.04,365.1],[897.08,364.74],[897.7,364.85],[898.01,364.71]]]}},{"type":"Feature","id":"98824","properties":{"code":"98824","name":"Pouébo","departmentCode":"988","rounds":{"1":{"code":"98824","name":"Pouébo","departmentCode":"988","registered":2411,"voters":118,"expressed":114,"blank":0,"invalid":4,"turnout":4.89423475736209,"abstention":95.1057652426379,"winnerId":"MELENCHON","runnerUpId":"MACRON","margin":49.122807017543856,"top":[{"id":"MELENCHON","name":"Jean-Luc Mélenchon","shortName":"Mélenchon","votes":71,"share":62.28070175438597},{"id":"MACRON","name":"Emmanuel Macron","shortName":"Macron","votes":15,"share":13.157894736842104},{"id":"HIDALGO","name":"Anne Hidalgo","shortName":"Hidalgo","votes":7,"share":6.140350877192982}]},"2":{"code":"98824","name":"Pouébo","departmentCode":"988","registered":2411,"voters":48,"expressed":42,"blank":4,"invalid":2,"turnout":1.9908751555371216,"abstention":98.00912484446287,"winnerId":"MACRON","runnerUpId":"LE_PEN","margin":66.66666666666666,"top":[{"id":"MACRON","name":"Emmanuel Macron","shortName":"Macron","votes":35,"share":83.33333333333334},{"id":"LE_PEN","name":"Marine Le Pen","shortName":"Le Pen","votes":7,"share":16.666666666666664}]}}},"geometry":{"type":"Polygon","coordinates":[[[886.66,373.75],[886.4,373.44],[885.92,373.81],[885.49,374],[885.09,374.37],[884.17,374.62],[883.67,374.96],[883.39,374.9],[883.28,375.46],[882.95,375.9],[882.8,376.34],[882.46,376.28],[882.04,376.78],[881.33,377.25],[881.45,377.38],[881.92,377.34],[883.09,376.62],[883.74,376],[883.98,375.5],[884.77,375.18],[885.15,374.8],[885.53,374.57],[885.99,374.47],[886.43,374.13],[886.66,373.75]]]}},{"type":"Feature","id":"98825","properties":{"code":"98825","name":"Pouembout","departmentCode":"988","rounds":{"1":{"code":"98825","name":"Pouembout","departmentCode":"988","registered":1814,"voters":635,"expressed":621,"blank":9,"invalid":5,"turnout":35.005512679162074,"abstention":64.99448732083792,"winnerId":"MACRON","runnerUpId":"LE_PEN","margin":20.128824476650564,"top":[{"id":"MACRON","name":"Emmanuel Macron","shortName":"Macron","votes":241,"share":38.808373590982285},{"id":"LE_PEN","name":"Marine Le Pen","shortName":"Le Pen","votes":116,"share":18.679549114331724},{"id":"MELENCHON","name":"Jean-Luc Mélenchon","shortName":"Mélenchon","votes":116,"share":18.679549114331724}]},"2":{"code":"98825","name":"Pouembout","departmentCode":"988","registered":1812,"voters":702,"expressed":655,"blank":37,"invalid":10,"turnout":38.741721854304636,"abstention":61.258278145695364,"winnerId":"MACRON","runnerUpId":"LE_PEN","margin":20.916030534351147,"top":[{"id":"MACRON","name":"Emmanuel Macron","shortName":"Macron","votes":396,"share":60.45801526717557},{"id":"LE_PEN","name":"Marine Le Pen","shortName":"Le Pen","votes":259,"share":39.541984732824424}]}}},"geometry":{"type":"Polygon","coordinates":[[[889.63,362.24],[889.55,361.6],[889.25,361.49],[889.02,361.73],[889.21,362.45],[888.68,362.64],[888.4,363.17],[888.03,363.41],[887.91,363.77],[887.49,364.17],[887.62,364.58],[887.93,364.63],[887.86,365.11],[887.99,365.21],[888.15,365.12],[888.97,365.3],[889.08,365.61],[889.66,365.62],[889.87,366.05],[890.09,365.99],[890.5,366.3],[890.9,366.4],[891.1,366.27],[891.38,366.27],[891.66,366.05],[892.15,366.08],[891.87,365.1],[892.03,364.63],[891.85,364.52],[892.06,363.95],[891.97,363.58],[891.66,363.58],[891.22,363.21],[890.72,363.04],[890.22,362.46],[890.04,362.55],[889.63,362.24]]]}},{"type":"Feature","id":"98826","properties":{"code":"98826","name":"Poum","departmentCode":"988","rounds":{"1":{"code":"98826","name":"Poum","departmentCode":"988","registered":1487,"voters":167,"expressed":163,"blank":1,"invalid":3,"turnout":11.230665770006725,"abstention":88.76933422999328,"winnerId":"MELENCHON","runnerUpId":"MACRON","margin":21.472392638036812,"top":[{"id":"MELENCHON","name":"Jean-Luc Mélenchon","shortName":"Mélenchon","votes":76,"share":46.62576687116564},{"id":"MACRON","name":"Emmanuel Macron","shortName":"Macron","votes":41,"share":25.153374233128833},{"id":"LE_PEN","name":"Marine Le Pen","shortName":"Le Pen","votes":13,"share":7.975460122699387}]},"2":{"code":"98826","name":"Poum","departmentCode":"988","registered":1487,"voters":118,"expressed":111,"blank":6,"invalid":1,"turnout":7.935440484196368,"abstention":92.06455951580364,"winnerId":"MACRON","runnerUpId":"LE_PEN","margin":38.73873873873874,"top":[{"id":"MACRON","name":"Emmanuel Macron","shortName":"Macron","votes":77,"share":69.36936936936937},{"id":"LE_PEN","name":"Marine Le Pen","shortName":"Le Pen","votes":34,"share":30.630630630630627}]}}},"geometry":{"type":"MultiPolygon","coordinates":[[[[880.45,376.24],[879.85,375.82],[879.45,375.93],[879.27,375.81],[879.45,375.38],[879.18,375.09],[878.58,375.27],[877.96,375.76],[877.95,376.49],[877.61,376.87],[877.27,377.09],[876.48,377.18],[876.63,377.54],[875.85,377.03],[875.8,377.29],[875.26,377.81],[875.75,378.12],[876.33,378.04],[876.22,378.6],[876.26,379],[876.05,379.44],[875.89,379.48],[875.48,380.22],[875.72,380.29],[876.66,379.15],[877.14,378.88],[877.63,378.31],[877.77,378],[878.38,377.7],[878.51,377.51],[879.16,377.09],[879.3,377.28],[879.77,377],[879.63,376.69],[880.02,376.62],[880.45,376.24]]],[[[872.51,381.03],[872.73,380.89],[872.63,380.54],[872.16,380.73],[872.51,381.03]]],[[[874.73,381.45],[874.98,380.91],[875.22,380.73],[874.75,380.31],[874.57,380.41],[874.6,380.78],[874.83,381.19],[874.73,381.45]]]]}},{"type":"Feature","id":"98827","properties":{"code":"98827","name":"Poya","departmentCode":"988","rounds":{"1":{"code":"98827","name":"Poya","departmentCode":"988","registered":2546,"voters":628,"expressed":606,"blank":10,"invalid":12,"turnout":24.666142969363708,"abstention":75.3338570306363,"winnerId":"MACRON","runnerUpId":"LE_PEN","margin":22.277227722772277,"top":[{"id":"MACRON","name":"Emmanuel Macron","shortName":"Macron","votes":257,"share":42.40924092409241},{"id":"LE_PEN","name":"Marine Le Pen","shortName":"Le Pen","votes":122,"share":20.13201320132013},{"id":"MELENCHON","name":"Jean-Luc Mélenchon","shortName":"Mélenchon","votes":112,"share":18.48184818481848}]},"2":{"code":"98827","name":"Poya","departmentCode":"988","registered":2546,"voters":624,"expressed":578,"blank":24,"invalid":22,"turnout":24.50903377847604,"abstention":75.49096622152396,"winnerId":"MACRON","runnerUpId":"LE_PEN","margin":17.99307958477509,"top":[{"id":"MACRON","name":"Emmanuel Macron","shortName":"Macron","votes":341,"share":58.99653979238755},{"id":"LE_PEN","name":"Marine Le Pen","shortName":"Le Pen","votes":237,"share":41.003460207612456}]}}},"geometry":{"type":"Polygon","coordinates":[[[889.63,362.24],[890.04,362.55],[890.22,362.46],[890.72,363.04],[891.22,363.21],[891.66,363.58],[891.97,363.58],[892.04,363.39],[892.44,363.43],[892.82,363.82],[893.38,363.68],[893.43,363.95],[893.82,364.17],[894.29,364.05],[894.42,363.73],[894.73,363.49],[895.22,363.43],[895.2,362.67],[895.35,362.17],[895,361.94],[895.36,361.74],[895.19,361.49],[895.39,361.13],[895.47,360.7],[895,360.69],[894.73,360.53],[894.2,359.73],[893.48,359.53],[893.09,359.48],[892.66,359.63],[892.13,359.98],[891.78,360.6],[891.84,361.05],[892.06,361.25],[891.96,361.83],[891.57,361.73],[891.49,361.42],[891.18,361.02],[890.85,361.33],[890.77,361.69],[890.56,361.7],[890.34,362.1],[889.96,361.82],[889.63,362.24]]]}},{"type":"Feature","id":"98828","properties":{"code":"98828","name":"Sarraméa","departmentCode":"988","rounds":{"1":{"code":"98828","name":"Sarraméa","departmentCode":"988","registered":532,"voters":99,"expressed":94,"blank":0,"invalid":5,"turnout":18.60902255639098,"abstention":81.39097744360903,"winnerId":"MELENCHON","runnerUpId":"MACRON","margin":15.957446808510639,"top":[{"id":"MELENCHON","name":"Jean-Luc Mélenchon","shortName":"Mélenchon","votes":40,"share":42.5531914893617},{"id":"MACRON","name":"Emmanuel Macron","shortName":"Macron","votes":25,"share":26.595744680851062},{"id":"LE_PEN","name":"Marine Le Pen","shortName":"Le Pen","votes":19,"share":20.212765957446805}]},"2":{"code":"98828","name":"Sarraméa","departmentCode":"988","registered":532,"voters":102,"expressed":91,"blank":5,"invalid":6,"turnout":19.172932330827066,"abstention":80.82706766917293,"winnerId":"MACRON","runnerUpId":"LE_PEN","margin":14.285714285714285,"top":[{"id":"MACRON","name":"Emmanuel Macron","shortName":"Macron","votes":52,"share":57.14285714285714},{"id":"LE_PEN","name":"Marine Le Pen","shortName":"Le Pen","votes":39,"share":42.857142857142854}]}}},"geometry":{"type":"Polygon","coordinates":[[[901.35,357.92],[901.36,358.7],[901.86,358.57],[902.2,358.29],[902.35,357.85],[902.79,357.76],[902.92,357.44],[902.3,356.95],[902.24,356.63],[901.61,356.7],[901.43,357],[901.51,357.47],[901.71,357.67],[901.35,357.92]]]}},{"type":"Feature","id":"98829","properties":{"code":"98829","name":"Thio","departmentCode":"988","rounds":{"1":{"code":"98829","name":"Thio","departmentCode":"988","registered":2224,"voters":205,"expressed":195,"blank":9,"invalid":1,"turnout":9.217625899280575,"abstention":90.78237410071942,"winnerId":"MACRON","runnerUpId":"MELENCHON","margin":4.615384615384616,"top":[{"id":"MACRON","name":"Emmanuel Macron","shortName":"Macron","votes":70,"share":35.8974358974359},{"id":"MELENCHON","name":"Jean-Luc Mélenchon","shortName":"Mélenchon","votes":61,"share":31.28205128205128},{"id":"LE_PEN","name":"Marine Le Pen","shortName":"Le Pen","votes":25,"share":12.82051282051282}]},"2":{"code":"98829","name":"Thio","departmentCode":"988","registered":2224,"voters":176,"expressed":165,"blank":9,"invalid":2,"turnout":7.913669064748201,"abstention":92.08633093525181,"winnerId":"MACRON","runnerUpId":"LE_PEN","margin":16.363636363636363,"top":[{"id":"MACRON","name":"Emmanuel Macron","shortName":"Macron","votes":96,"share":58.18181818181818},{"id":"LE_PEN","name":"Marine Le Pen","shortName":"Le Pen","votes":69,"share":41.81818181818181}]}}},"geometry":{"type":"Polygon","coordinates":[[[906.83,358.79],[907.2,358.44],[907.55,358.29],[907.89,357.91],[908.84,357.41],[909.41,357.22],[909.72,356.72],[910.15,356.45],[910.68,356.47],[910.93,356.12],[911.49,355.75],[911.57,355.32],[912.35,354.72],[912.75,354.31],[912.3,354.29],[911.68,354.12],[911.44,353.63],[910.91,353.54],[910.5,353.81],[910.03,354.25],[909.61,354.15],[909.12,354.59],[908.58,354.63],[908.37,354.9],[907.24,355.43],[906.77,355.03],[905.93,355.07],[905.56,355.25],[905.93,355.93],[905.92,356.31],[905.46,356.16],[904.96,356.5],[904.87,356.67],[904.81,356.97],[904.98,357.35],[905.46,357.57],[905.55,358.17],[906.11,358.32],[906.25,358.6],[906.83,358.79]]]}},{"type":"Feature","id":"98830","properties":{"code":"98830","name":"Touho","departmentCode":"988","rounds":{"1":{"code":"98830","name":"Touho","departmentCode":"988","registered":2005,"voters":288,"expressed":279,"blank":4,"invalid":5,"turnout":14.364089775561098,"abstention":85.6359102244389,"winnerId":"MELENCHON","runnerUpId":"MACRON","margin":30.46594982078853,"top":[{"id":"MELENCHON","name":"Jean-Luc Mélenchon","shortName":"Mélenchon","votes":141,"share":50.53763440860215},{"id":"MACRON","name":"Emmanuel Macron","shortName":"Macron","votes":56,"share":20.07168458781362},{"id":"LE_PEN","name":"Marine Le Pen","shortName":"Le Pen","votes":31,"share":11.11111111111111}]},"2":{"code":"98830","name":"Touho","departmentCode":"988","registered":2005,"voters":205,"expressed":178,"blank":16,"invalid":11,"turnout":10.224438902743142,"abstention":89.77556109725685,"winnerId":"MACRON","runnerUpId":"LE_PEN","margin":46.06741573033708,"top":[{"id":"MACRON","name":"Emmanuel Macron","shortName":"Macron","votes":130,"share":73.03370786516854},{"id":"LE_PEN","name":"Marine Le Pen","shortName":"Le Pen","votes":48,"share":26.96629213483146}]}}},"geometry":{"type":"Polygon","coordinates":[[[893.57,368.48],[893.13,368.02],[892.78,368.28],[892.29,368.21],[892.22,368.51],[891.78,368.55],[891.57,369.2],[891.34,369.17],[890.63,369.43],[890.77,370.18],[890.34,370.42],[890.53,370.61],[890.32,370.89],[890.34,370.89],[890.4,370.89],[890.4,370.9],[890.4,370.92],[890.79,370.68],[891.68,370.36],[892.85,370.25],[893.82,369.78],[893.73,368.93],[893.57,368.48]]]}},{"type":"Feature","id":"98831","properties":{"code":"98831","name":"Voh","departmentCode":"988","rounds":{"1":{"code":"98831","name":"Voh","departmentCode":"988","registered":2447,"voters":545,"expressed":527,"blank":10,"invalid":8,"turnout":22.272170004086636,"abstention":77.72782999591337,"winnerId":"MELENCHON","runnerUpId":"MACRON","margin":13.66223908918406,"top":[{"id":"MELENCHON","name":"Jean-Luc Mélenchon","shortName":"Mélenchon","votes":208,"share":39.46869070208729},{"id":"MACRON","name":"Emmanuel Macron","shortName":"Macron","votes":136,"share":25.806451612903224},{"id":"LE_PEN","name":"Marine Le Pen","shortName":"Le Pen","votes":109,"share":20.683111954459203}]},"2":{"code":"98831","name":"Voh","departmentCode":"988","registered":2447,"voters":447,"expressed":426,"blank":9,"invalid":12,"turnout":18.26726604004904,"abstention":81.73273395995096,"winnerId":"MACRON","runnerUpId":"LE_PEN","margin":16.901408450704224,"top":[{"id":"MACRON","name":"Emmanuel Macron","shortName":"Macron","votes":249,"share":58.45070422535211},{"id":"LE_PEN","name":"Marine Le Pen","shortName":"Le Pen","votes":177,"share":41.54929577464789}]}}},"geometry":{"type":"Polygon","coordinates":[[[885.75,365.96],[885.43,366.2],[885.39,366.73],[885.64,366.99],[885.2,367.21],[885.28,367.54],[885.02,368.05],[884.78,368.18],[884.64,367.77],[884.39,367.98],[884,367.87],[883.62,368.36],[883.27,368.28],[883.42,368.99],[883.83,369.24],[883.92,369.46],[883.86,369.95],[884.14,370.34],[884.86,370.28],[885.11,370.61],[885.05,371.12],[885.64,370.99],[885.86,370.78],[886.22,370.74],[887.34,370.37],[887.5,370.12],[887.9,369.96],[887.86,369.58],[888,369.31],[887.77,369.05],[887.75,368.73],[888,368.64],[888.08,368.33],[888.77,367.81],[889,367.36],[888.65,367.59],[887.63,367.01],[887.4,366.8],[886.99,366.92],[886.8,366.71],[886.27,366.49],[885.75,365.96],[885.75,365.96],[885.75,365.96]]]}},{"type":"Feature","id":"98832","properties":{"code":"98832","name":"Yaté","departmentCode":"988","rounds":{"1":{"code":"98832","name":"Yaté","departmentCode":"988","registered":1800,"voters":136,"expressed":129,"blank":3,"invalid":4,"turnout":7.555555555555555,"abstention":92.44444444444444,"winnerId":"MELENCHON","runnerUpId":"MACRON","margin":20.155038759689923,"top":[{"id":"MELENCHON","name":"Jean-Luc Mélenchon","shortName":"Mélenchon","votes":58,"share":44.96124031007752},{"id":"MACRON","name":"Emmanuel Macron","shortName":"Macron","votes":32,"share":24.8062015503876},{"id":"PECRESSE","name":"Valérie Pécresse","shortName":"Pécresse","votes":12,"share":9.30232558139535}]},"2":{"code":"98832","name":"Yaté","departmentCode":"988","registered":1800,"voters":113,"expressed":92,"blank":7,"invalid":14,"turnout":6.277777777777778,"abstention":93.72222222222221,"winnerId":"MACRON","runnerUpId":"LE_PEN","margin":63.04347826086957,"top":[{"id":"MACRON","name":"Emmanuel Macron","shortName":"Macron","votes":75,"share":81.52173913043478},{"id":"LE_PEN","name":"Marine Le Pen","shortName":"Le Pen","votes":17,"share":18.478260869565215}]}}},"geometry":{"type":"Polygon","coordinates":[[[912.75,354.31],[912.94,353.87],[913.68,353.47],[913.78,353.22],[914.4,352.9],[914.57,353.18],[915.22,352.68],[915.32,352.34],[915.73,352.19],[915.81,351.85],[916.28,351.84],[917.26,351.59],[918.35,350.84],[918.58,350.59],[918.5,349.91],[919.51,348.62],[919.69,347.99],[919.31,347.03],[918.97,346.87],[918.85,347.36],[918.61,347.53],[918.03,347.47],[917.84,347.99],[917.37,348.19],[917.04,348.06],[916.66,348.44],[916.31,348.43],[915.92,349],[916.07,349.44],[915.87,349.66],[915.26,349.62],[914.79,349.74],[914.4,349.21],[913.9,349.69],[913.43,349.83],[913.54,350.11],[913.53,350.52],[913.26,350.72],[912.81,350.78],[912.66,351.02],[911.97,351.38],[911.5,351.47],[911.59,351.82],[911.08,352.46],[910.94,352.79],[910.91,353.54],[911.44,353.63],[911.68,354.12],[912.3,354.29],[912.75,354.31]]]}},{"type":"Feature","id":"98833","properties":{"code":"98833","name":"Kouaoua","departmentCode":"988","rounds":{"1":{"code":"98833","name":"Kouaoua","departmentCode":"988","registered":1192,"voters":221,"expressed":209,"blank":8,"invalid":4,"turnout":18.540268456375838,"abstention":81.45973154362416,"winnerId":"MELENCHON","runnerUpId":"MACRON","margin":4.784688995215311,"top":[{"id":"MELENCHON","name":"Jean-Luc Mélenchon","shortName":"Mélenchon","votes":73,"share":34.92822966507177},{"id":"MACRON","name":"Emmanuel Macron","shortName":"Macron","votes":63,"share":30.14354066985646},{"id":"PECRESSE","name":"Valérie Pécresse","shortName":"Pécresse","votes":33,"share":15.789473684210526}]},"2":{"code":"98833","name":"Kouaoua","departmentCode":"988","registered":1192,"voters":205,"expressed":180,"blank":11,"invalid":14,"turnout":17.197986577181208,"abstention":82.80201342281879,"winnerId":"MACRON","runnerUpId":"LE_PEN","margin":55.55555555555556,"top":[{"id":"MACRON","name":"Emmanuel Macron","shortName":"Macron","votes":140,"share":77.77777777777779},{"id":"LE_PEN","name":"Marine Le Pen","shortName":"Le Pen","votes":40,"share":22.22222222222222}]}}},"geometry":{"type":"Polygon","coordinates":[[[902.77,361.54],[902.92,361.49],[903.2,360.79],[903.1,360.5],[903.15,360.04],[902.8,360.03],[902.76,359.6],[902.35,359.17],[902.52,358.83],[902.54,358.47],[902.2,358.29],[901.86,358.57],[901.36,358.7],[901.14,358.91],[900.82,358.88],[900.26,359.17],[899.72,359.07],[899.24,359.41],[899.32,359.7],[899.64,359.97],[900.14,360.04],[900.29,360.55],[900.93,361.19],[900.8,361.41],[901.3,361.52],[901.55,361.74],[902.32,361.01],[902.77,361.54]]]}}]}