{"type":"FeatureCollection","features":[{"type":"Feature","geometry":{"type":"Polygon","coordinates":[[[-149.7666,61.1719],[-149.6717,61.1593],[-149.7184,61.1664],[-149.7183,61.2098],[-149.7625,61.2097],[-149.7666,61.1719]]]},"properties":{"GEOID":"02027","STATE":"02","BASENAME":"27","NAME":"State House District 27","SLDL":"027"}},{"type":"Feature","geometry":{"type":"Polygon","coordinates":[[[-135.2188,58.975],[-135.0709,58.5001],[-134.7242,58.294],[-134.5159,58.3561],[-134.5531,58.3759],[-134.3403,58.4235],[-134.4087,58.4169],[-134.3735,58.4433],[-134.4754,58.4627],[-134.5654,58.4234],[-134.5401,58.4712],[-134.6051,58.4858],[-134.5635,58.5423],[-134.6918,58.5318],[-134.6235,58.5795],[-134.7021,58.5981],[-134.6304,58.6525],[-134.6612,58.6937],[-134.6274,58.7227],[-134.2877,58.8254],[-134.2675,58.8685],[-134.3365,58.9234],[-134.3137,58.9622],[-135.2188,58.975]]]},"properties":{"GEOID":"02034","STATE":"02","BASENAME":"34","NAME":"State House District 34","SLDL":"034"}},{"type":"Feature","geometry":{"type":"Polygon","coordinates":[[[-149.8603,61.1808],[-149.7784,61.1862],[-149.8083,61.2061],[-149.8603,61.1808]]]},"properties":{"GEOID":"02017","STATE":"02","BASENAME":"17","NAME":"State House District 17","SLDL":"017"}},{"type":"Feature","geometry":{"type":"Polygon","coordinates":[[[-154.6128,63.9853],[-152.0474,64.0002],[-152.0551,63.824],[-152.2293,63.824],[-152.2284,63.6508],[-152.8734,63.6507],[-152.8734,63.4775],[-152.8109,63.4775],[-152.8109,63.3476],[-152.6195,63.3476],[-152.6195,63.3043],[-152.4281,63.3043],[-152.4281,63.1832],[-152.9996,62.7258],[-151.8938,62.7259],[-151.894,62.7981],[-149.4923,63.3332],[-148.0256,63.3332],[-148.0256,63.4776],[-147.0,63.4776],[-146.9999,64.2572],[-147.7795,64.259],[-148.1086,64.3622],[-148.2237,64.4353],[-148.2409,64.4849],[-148.4031,64.5313],[-148.4575,64.5898],[-148.5507,64.6172],[-148.6596,64.5881],[-148.6612,65.2099],[-148.1046,65.2099],[-148.0771,65.1772],[-147.9788,65.1851],[-147.6744,65.074],[-147.6244,64.9636],[-147.5213,64.9555],[-147.5412,64.9291],[-147.5029,64.924],[-147.5073,64.8923],[-147.4056,64.8924],[-147.4104,64.8468],[-147.1932,64.7983],[-147.2214,64.719],[-147.2916,64.6944],[-146.9982,64.5161],[-146.977,64.4087],[-146.9151,64.3933],[-146.8638,64.3372],[-146.7244,64.316],[-146.6773,64.2572],[-146.3447,64.2764],[-146.2323,64.3108],[-146.2429,64.3555],[-146.2187,64.3682],[-146.0038,64.3811],[-145.7424,64.4642],[-145.5289,64.4181],[-145.3741,64.4552],[-145.3782,64.4857],[-145.0828,64.5073],[-144.9781,64.5716],[-144.6212,64.5982],[-144.6337,64.1991],[-145.1738,64.2047],[-145.1764,64.127],[-145.0829,64.0902],[-145.128,64.0754],[-144.8664,64.0129],[-144.9175,63.9453],[-144.9002,63.9165],[-144.7589,63.8765],[-144.7927,63.8205],[-144.6214,63.7171],[-144.7524,63.7047],[-144.8352,63.6573],[-144.8609,63.6039],[-144.8253,63.5125],[-144.8631,63.4543],[-144.8222,63.4458],[-145.0929,63.3587],[-144.9815,63.3084],[-145.0378,63.2835],[-145.0,63.2691],[-145.0135,63.2509],[-144.87,63.2378],[-144.9815,63.195],[-144.994,63.2332],[-145.0086,63.209],[-145.1063,63.2126],[-145.0835,63.248],[-145.113,63.25],[-145.1832,63.2394],[-145.1729,63.2178],[-145.6468,63.2178],[-145.5137,63.1673],[-145.4817,63.1115],[-145.4948,63.0707],[-145.4503,63.0218],[-145.4831,62.968],[-145.4627,62.8844],[-145.4983,62.8061],[-145.4365,62.7355],[-145.4853,62.6633],[-145.4434,62.6149],[-145.5118,62.5133],[-145.5449,62.5084],[-145.495,62.4141],[-145.5107,62.2071],[-145.4852,62.0495],[-145.324,61.9514],[-145.1578,61.7626],[-145.1836,61.6608],[-145.0753,61.5876],[-145.0646,61.5344],[-144.9345,61.4777],[-144.9467,61.4568],[-144.8978,61.4314],[-144.6771,61.3736],[-144.8429,61.2998],[-144.8711,61.2111],[-144.4161,61.212],[-144.427,61.0376],[-143.7161,61.0378],[-143.7132,60.8504],[-143.408,60.8506],[-143.4081,60.7607],[-142.8716,60.789],[-142.8619,60.5954],[-141.9627,60.6077],[-141.9631,60.5219],[-141.7906,60.5219],[-141.7906,60.4352],[-141.2135,60.4353],[-141.2134,60.3917],[-141.0019,60.3917],[-141.0027,68.4984],[-146.0,68.5],[-146.0,68.0],[-146.0526,68.0],[-146.0132,67.9534],[-146.0565,67.9211],[-146.0658,67.8529],[-146.1267,67.8358],[-146.1534,67.7824],[-146.0623,67.6826],[-146.1102,67.6023],[-146.2885,67.4754],[-146.5665,67.4419],[-146.699,67.3887],[-146.7335,67.3445],[-147.1009,67.2694],[-147.107,67.2385],[-147.2851,67.1622],[-147.2423,67.1177],[-147.2623,67.0973],[-147.742,67.1116],[-147.9787,67.1696],[-148.2206,67.1521],[-148.3785,67.176],[-148.5748,67.0776],[-148.6384,67.089],[-148.6387,67.0344],[-148.686,67.0345],[-148.6862,66.9979],[-148.8134,66.998],[-148.8136,66.9664],[-149.0986,66.9248],[-149.3339,66.9626],[-149.4773,66.922],[-149.6977,66.9221],[-149.6977,66.8827],[-149.5997,66.8526],[-149.5996,66.8167],[-149.6762,66.7999],[-149.6762,66.7508],[-149.9172,66.6976],[-149.956,66.6593],[-149.9986,66.6593],[-149.9975,66.702],[-150.2706,66.7435],[-150.6674,66.6622],[-150.8673,66.6729],[-151.1617,66.5606],[-151.3585,66.6301],[-151.5949,66.5983],[-151.6544,66.6181],[-151.76,66.5715],[-151.9833,66.5765],[-151.9898,66.5528],[-152.0257,66.5682],[-152.1355,66.5311],[-152.22,66.5498],[-152.1316,66.5075],[-152.1663,66.3692],[-152.2928,66.3498],[-152.3234,66.3274],[-152.3146,66.2742],[-152.3805,66.2885],[-152.3592,66.306],[-152.5147,66.2881],[-152.7128,66.3177],[-152.8788,66.3191],[-152.9023,66.2915],[-152.9553,66.3011],[-152.9251,66.3496],[-152.9612,66.356],[-152.9566,66.2403],[-152.9211,66.2181],[-152.9044,66.0958],[-152.862,66.0376],[-152.8786,65.9822],[-152.8506,65.9622],[-152.9192,65.9284],[-152.9003,65.8891],[-152.9549,65.851],[-152.8936,65.7826],[-152.9311,65.7753],[-152.95,65.7142],[-153.0917,65.6339],[-153.1926,65.6394],[-153.1717,65.5919],[-153.2582,65.5716],[-153.3719,65.4599],[-153.581,65.4438],[-153.7019,65.3863],[-153.7949,65.2379],[-153.7886,65.201],[-153.7166,65.2012],[-153.773,65.1332],[-153.7204,65.0795],[-153.7702,65.0609],[-153.7603,65.0344],[-153.8911,65.0233],[-154.002,64.9684],[-154.2756,64.9384],[-154.2519,64.8806],[-154.1508,64.8701],[-154.1668,64.8261],[-154.2395,64.8154],[-154.2674,64.7923],[-154.2303,64.7827],[-154.2633,64.7682],[-154.3386,64.7743],[-154.2856,64.7559],[-154.4487,64.7329],[-154.4097,64.7069],[-154.4316,64.6912],[-154.4782,64.7154],[-154.4547,64.6974],[-154.5724,64.6607],[-154.4191,64.6395],[-154.4725,64.6029],[-154.4328,64.5928],[-154.4616,64.5743],[-154.3939,64.5983],[-154.3279,64.5418],[-154.2482,64.5459],[-154.2757,64.524],[-154.2242,64.5182],[-154.2483,64.498],[-154.1562,64.4845],[-154.1886,64.4666],[-154.1312,64.4696],[-154.059,64.4158],[-153.7526,64.4315],[-153.6389,64.4743],[-153.5958,64.4311],[-153.6225,64.3795],[-153.8927,64.2836],[-153.8812,64.2534],[-153.9753,64.1932],[-153.9323,64.1722],[-154.0071,64.1345],[-154.0355,64.1498],[-154.0481,64.1103],[-154.0762,64.1281],[-154.2259,64.0944],[-154.2135,64.0709],[-154.3744,64.0592],[-154.3484,64.0465],[-154.3626,64.0268],[-154.423,64.0402],[-154.5425,64.0005],[-154.5686,64.021],[-154.6128,63.9853]]]},"properties":{"GEOID":"02006","STATE":"02","BASENAME":"6","NAME":"State House District 6","SLDL":"006"}},{"type":"Feature","geometry":{"type":"Polygon","coordinates":[[[-152.3518,59.6923],[-151.7515,59.6709],[-151.6321,59.625],[-151.4034,59.597],[-151.3395,59.659],[-151.0044,59.7911],[-150.8234,59.8083],[-150.8213,59.7788],[-150.7443,59.7787],[-150.6984,59.6784],[-150.3424,59.6958],[-150.2913,59.8666],[-150.0667,59.9765],[-150.1518,60.1037],[-149.7866,60.1869],[-149.8054,60.2831],[-149.7809,60.3045],[-150.0094,60.3964],[-149.9726,60.4798],[-149.9991,60.4866],[-150.1213,60.4801],[-150.2625,60.41],[-150.4813,60.4728],[-150.8811,60.4739],[-150.9332,60.4451],[-151.1691,60.4734],[-151.2322,60.4235],[-151.2799,60.4694],[-151.7383,60.4779],[-152.3518,59.6923]]]},"properties":{"GEOID":"02031","STATE":"02","BASENAME":"31","NAME":"State House District 31","SLDL":"031"}},{"type":"Feature","geometry":{"type":"Polygon","coordinates":[[[-149.9686,61.2332],[-149.9038,61.2204],[-149.9174,61.2029],[-149.8233,61.2097],[-149.8799,61.246],[-149.9686,61.2332]]]},"properties":{"GEOID":"02020","STATE":"02","BASENAME":"20","NAME":"State House District 20","SLDL":"020"}},{"type":"Feature","geometry":{"type":"Polygon","coordinates":[[[-149.864,61.1346],[-149.8439,61.1032],[-149.7445,61.1086],[-149.7446,61.1375],[-149.864,61.1346]]]},"properties":{"GEOID":"02026","STATE":"02","BASENAME":"26","NAME":"State House District 26","SLDL":"026"}},{"type":"Feature","geometry":{"type":"Polygon","coordinates":[[[-149.7187,61.2224],[-149.7184,61.1664],[-149.6118,61.1664],[-149.5365,61.1229],[-149.5623,61.0594],[-149.2205,61.1005],[-149.1611,61.0613],[-148.9363,61.0713],[-148.9029,61.1264],[-149.2716,61.3271],[-149.3536,61.3062],[-149.5712,61.3252],[-149.7187,61.2224]]]},"properties":{"GEOID":"02014","STATE":"02","BASENAME":"14","NAME":"State House District 14","SLDL":"014"}},{"type":"Feature","geometry":{"type":"Polygon","coordinates":[[[-150.4265,61.1675],[-150.2477,61.0796],[-150.0148,61.0663],[-150.0119,61.1533],[-149.909,61.1485],[-149.9356,61.2028],[-149.9038,61.2204],[-150.4265,61.1675]]]},"properties":{"GEOID":"02021","STATE":"02","BASENAME":"21","NAME":"State House District 21","SLDL":"021"}},{"type":"Feature","geometry":{"type":"Polygon","coordinates":[[[-149.6019,61.5709],[-149.5712,61.538],[-149.3599,61.5633],[-149.2539,61.6146],[-149.4496,61.6159],[-149.6019,61.5709]]]},"properties":{"GEOID":"02007","STATE":"02","BASENAME":"7","NAME":"State House District 7","SLDL":"007"}},{"type":"Feature","geometry":{"type":"MultiPolygon","coordinates":[[[[-165.0362,54.5766],[-164.9956,54.4573],[-164.8713,54.364],[-164.6633,54.3375],[-164.415,54.3688],[-164.2767,54.4372],[-164.2279,54.5237],[-164.1227,54.5561],[-163.7579,54.572],[-163.5641,54.5396],[-163.4359,54.6028],[-163.0256,54.6112],[-162.9548,54.6598],[-162.9686,54.7087],[-163.1373,54.8298],[-163.0632,54.8795],[-162.8468,54.8484],[-162.643,54.9333],[-162.5789,54.9085],[-162.6146,54.8779],[-162.6,54.8268],[-162.4831,54.7927],[-162.5549,54.7493],[-162.5262,54.6947],[-162.4599,54.6665],[-162.4903,54.6224],[-162.4642,54.5875],[-162.4798,54.5409],[-162.365,54.5077],[-162.2405,54.6405],[-162.048,54.6319],[-162.0285,54.6591],[-162.0566,54.7045],[-161.9647,54.7169],[-161.841,54.6845],[-161.6984,54.7474],[-161.5903,54.7498],[-161.5767,54.8142],[-161.7173,54.8957],[-161.6667,54.9281],[-161.6723,54.9592],[-161.3849,54.974],[-161.3531,55.0196],[-161.4177,55.0668],[-161.2723,55.1001],[-161.2485,55.1933],[-161.0586,55.2201],[-161.0129,55.263],[-161.09,55.3166],[-161.2395,55.2985],[-160.9079,55.4204],[-160.859,55.4199],[-160.9534,55.3254],[-160.8997,55.0953],[-160.8368,55.0682],[-160.7097,55.1121],[-160.6077,55.0984],[-160.5733,55.037],[-160.5195,55.0251],[-160.4309,55.0649],[-160.4469,55.1082],[-160.3668,55.1965],[-160.2784,55.2051],[-160.2158,55.3083],[-160.239,55.3403],[-160.2036,55.3358],[-160.1301,55.2387],[-160.1497,55.1964],[-160.2853,55.1246],[-160.2444,55.0226],[-160.3434,54.9309],[-160.3158,54.8433],[-160.2581,54.8069],[-160.1554,54.829],[-160.094,54.8904],[-159.9868,54.8912],[-159.953,54.9294],[-159.816,54.9095],[-159.7245,55.0178],[-159.6766,54.9872],[-159.5648,54.9914],[-159.5185,54.9078],[-159.4318,54.8942],[-159.3337,54.8186],[-159.2459,54.8155],[-159.1327,54.8855],[-159.1133,54.9303],[-159.2501,54.9981],[-159.2032,55.0433],[-159.2334,55.0986],[-159.4109,55.1235],[-159.407,55.3089],[-159.5443,55.3284],[-159.6091,55.2678],[-159.7379,55.2223],[-159.8042,55.324],[-159.9326,55.337],[-160.0505,55.3958],[-160.0412,55.4489],[-159.9511,55.5076],[-159.5382,55.532],[-159.505,55.5581],[-159.5215,55.6009],[-159.4469,55.6385],[-158.0,55.6394],[-156.3286,56.75],[-156.3288,57.1778],[-156.7514,57.1778],[-156.7514,57.2501],[-156.6724,57.2501],[-156.6725,57.3079],[-156.6191,57.3079],[-156.6192,57.3513],[-156.5404,57.3513],[-156.5528,57.3802],[-156.4993,57.3802],[-156.4993,57.4524],[-156.4461,57.4524],[-156.4462,57.4958],[-156.3925,57.4958],[-156.3657,57.5391],[-156.1254,57.5247],[-156.0717,57.597],[-156.0179,57.6114],[-155.9652,57.6114],[-155.965,57.568],[-155.9382,57.568],[-155.8316,57.6114],[-155.9114,57.6403],[-155.9114,57.6836],[-155.778,57.6836],[-155.7567,57.7559],[-155.7029,57.7559],[-155.703,57.8137],[-155.541,57.8137],[-155.5411,57.8426],[-155.4598,57.8426],[-155.4599,57.8859],[-155.3521,57.8859],[-155.3525,58.0459],[-155.2998,58.0459],[-155.2999,58.1037],[-155.3545,58.1037],[-155.3548,58.1904],[-155.2453,58.1904],[-155.2453,58.2337],[-155.0818,58.2337],[-155.0281,58.2915],[-154.5913,58.3349],[-154.5913,58.3638],[-154.4828,58.3638],[-154.45,58.4216],[-154.3674,58.4216],[-154.3675,58.4649],[-154.3124,58.4649],[-154.3124,58.6528],[-154.6425,58.6527],[-154.6426,58.7394],[-154.695,58.7394],[-154.6951,59.0862],[-154.7488,59.0862],[-154.7489,59.2595],[-154.412,59.2595],[-154.412,59.4329],[-154.1233,59.4329],[-154.1233,59.5196],[-153.9532,59.5196],[-153.9532,59.6929],[-153.7831,59.6929],[-153.7831,59.7796],[-153.657,59.7796],[-153.657,60.1263],[-153.5284,60.1263],[-153.5284,60.4729],[-153.3973,60.4729],[-153.3973,60.8196],[-153.4409,60.8196],[-153.4409,61.1662],[-153.4856,61.1662],[-153.4856,61.4262],[-153.0017,61.4262],[-153.0019,62.7258],[-152.4281,63.1832],[-152.4281,63.3043],[-152.6195,63.3043],[-152.6195,63.3476],[-152.8109,63.3476],[-152.8109,63.4775],[-152.8734,63.4775],[-152.8734,63.6507],[-152.2284,63.6508],[-152.2293,63.824],[-152.0551,63.824],[-152.0474,64.0002],[-158.9804,63.9555],[-159.2161,63.8764],[-159.2256,63.7947],[-159.3603,63.7521],[-159.4036,63.6479],[-159.5278,63.5554],[-159.5291,63.504],[-159.4606,63.4337],[-159.6923,63.3056],[-159.7429,63.2188],[-159.7359,63.168],[-159.803,63.1193],[-159.8001,63.0745],[-159.9515,63.0255],[-160.0552,62.9278],[-160.1523,62.9278],[-160.1526,62.8701],[-160.0749,62.8701],[-160.0957,62.8405],[-160.075,62.7896],[-160.1548,62.7103],[-160.2454,62.6968],[-160.2454,62.6102],[-160.1974,62.6061],[-160.214,62.5346],[-160.3192,62.5189],[-160.3284,62.5451],[-160.3814,62.4974],[-160.4609,62.5127],[-160.6084,62.4723],[-160.6338,62.4926],[-160.7279,62.4534],[-160.7262,62.4775],[-160.7959,62.4623],[-160.883,62.501],[-161.0482,62.5078],[-161.0482,62.2059],[-160.916,62.2059],[-160.916,61.9459],[-159.265,61.946],[-159.265,62.0326],[-158.5314,62.0326],[-158.5314,62.1193],[-157.2565,62.1193],[-157.4383,61.9927],[-157.6248,61.9913],[-157.6409,61.9622],[-157.706,61.9602],[-157.6938,61.9167],[-157.8126,61.942],[-157.7649,61.8945],[-158.0364,61.8235],[-158.0685,61.8674],[-158.1215,61.867],[-158.1313,61.8056],[-158.2237,61.7877],[-158.1906,61.7443],[-158.2971,61.6189],[-158.5927,61.5349],[-158.5068,61.5155],[-158.4532,61.4259],[-158.3142,61.3955],[-158.2929,61.3587],[-157.9191,61.3815],[-157.8805,61.3561],[-157.8479,61.2579],[-157.6432,61.1653],[-157.5941,61.0872],[-157.5572,61.0793],[-157.6831,61.0397],[-157.7034,60.9896],[-157.6789,60.9709],[-157.7199,60.9505],[-157.6673,60.9149],[-157.6998,60.9062],[-157.6998,60.8195],[-157.8772,60.8195],[-157.8772,60.9062],[-158.9419,60.9062],[-158.9419,60.8195],[-159.0151,60.8195],[-159.0151,60.7328],[-159.1907,60.7328],[-159.1907,60.6462],[-159.3662,60.6462],[-159.3662,60.4729],[-159.4345,60.4729],[-159.4345,60.3862],[-159.6082,60.3862],[-159.6082,60.2129],[-159.7819,60.2129],[-159.7819,60.1262],[-159.8455,60.1262],[-159.8455,59.9528],[-160.0174,59.9528],[-160.0174,59.7795],[-160.2485,59.7795],[-160.2485,59.6062],[-160.4186,59.6062],[-160.4186,59.4328],[-160.4754,59.4328],[-160.4753,59.3461],[-160.6437,59.3461],[-160.6437,59.2594],[-160.8121,59.2594],[-160.8121,59.0861],[-160.8647,59.0861],[-160.8647,58.9994],[-161.0314,58.9994],[-161.0314,58.8398],[-161.3649,58.826],[-161.365,58.7394],[-161.1982,58.7393],[-161.3418,58.6071],[-161.234,58.6435],[-161.177,58.6071],[-161.1589,58.5124],[-161.0675,58.4898],[-160.9018,58.5022],[-160.8018,58.5514],[-160.6016,58.7933],[-160.6087,58.8436],[-160.3431,58.8805],[-160.2976,58.7991],[-160.2364,58.7747],[-160.1508,58.772],[-160.0892,58.8063],[-159.975,58.7307],[-159.8939,58.715],[-159.7017,58.7964],[-159.553,58.7805],[-159.1514,58.4158],[-159.1484,58.3703],[-159.0477,58.3343],[-158.7727,58.3549],[-158.6052,58.4556],[-158.213,58.5426],[-158.1479,58.5438],[-158.0698,58.4903],[-158.8935,56.9998],[-158.8936,56.9451],[-159.1739,56.8145],[-159.8702,56.5909],[-160.0691,56.4803],[-160.2254,56.4336],[-160.4394,56.2988],[-160.584,56.0794],[-161.2111,56.0674],[-161.8583,55.9325],[-162.3032,55.7171],[-162.5709,55.5158],[-162.9352,55.3821],[-163.1413,55.232],[-163.5679,55.1002],[-163.9127,55.0906],[-164.0474,55.0207],[-164.1579,55.0157],[-164.2979,54.9526],[-164.5212,54.9691],[-164.6277,54.9115],[-164.7828,54.6917],[-164.9995,54.6262],[-165.0362,54.5766]]],[[[179.3887,51.9419],[179.4568,51.8599],[179.6232,51.819],[179.7851,51.8626],[179.8597,51.9604],[179.771,52.0408],[179.6584,52.0783],[179.4296,52.0236],[179.3887,51.9419]]],[[[178.5318,51.6497],[178.5518,51.5999],[178.7902,51.4925],[178.896,51.4925],[179.1811,51.3054],[179.5109,51.3083],[179.5784,51.3543],[179.5532,51.4],[179.4252,51.4628],[179.2871,51.4698],[179.1703,51.523],[179.0402,51.64],[178.6073,51.7165],[178.5595,51.7017],[178.5318,51.6497]]],[[[178.1238,51.844],[178.1405,51.7965],[178.2499,51.7245],[178.4005,51.7036],[178.4963,51.7445],[178.4312,51.827],[178.3322,51.8709],[178.198,51.8889],[178.1238,51.844]]],[[[178.0035,52.0496],[178.0163,51.9787],[178.0597,51.9481],[178.1959,51.9488],[178.5021,51.8469],[178.5807,51.8596],[178.6702,51.9441],[178.6433,51.9976],[178.5124,52.0434],[178.2672,52.0375],[178.1627,52.1067],[178.0769,52.1],[178.0035,52.0496]]],[[[177.9339,51.8723],[177.9972,51.822],[178.0664,51.8272],[178.1013,51.863],[178.0343,51.9226],[177.9339,51.8723]]],[[[177.2802,52.1276],[177.3451,52.0721],[177.4466,52.1145],[177.3805,52.1745],[177.2802,52.1276]]],[[[177.112,51.8905],[177.1425,51.8422],[177.3453,51.7577],[177.4152,51.791],[177.4162,51.8712],[177.8192,51.8954],[177.874,51.9561],[177.7032,52.007],[177.7604,52.0612],[177.7646,52.121],[177.5867,52.1895],[177.4981,52.1516],[177.4164,52.0381],[177.166,51.949],[177.112,51.8905]]],[[[175.7653,52.3873],[175.8314,52.3056],[175.8966,52.2813],[176.0099,52.2996],[176.0645,52.3634],[176.0049,52.4095],[175.8748,52.4397],[175.7948,52.4248],[175.7653,52.3873]]],[[[173.7738,52.7816],[173.838,52.716],[174.018,52.6718],[174.1625,52.6567],[174.2378,52.7033],[174.2214,52.7677],[174.1286,52.8012],[174.0501,52.7891],[173.8706,52.8348],[173.7738,52.7816]]],[[[173.2734,52.4105],[173.3215,52.35],[173.7477,52.3],[173.8141,52.3533],[173.7806,52.4508],[173.8556,52.5283],[173.7781,52.5661],[173.6083,52.5599],[173.3367,52.4762],[173.2734,52.4105]]],[[[172.3493,52.9222],[172.4194,52.8597],[172.9015,52.6816],[173.0458,52.7488],[173.362,52.6958],[173.4143,52.7282],[173.4034,52.7776],[173.5261,52.7745],[173.5806,52.8155],[173.4895,52.9001],[173.3926,52.9074],[173.3219,52.9921],[173.1322,53.044],[172.6232,53.0532],[172.3764,52.9596],[172.3493,52.9222]]],[[[-159.9103,54.8142],[-159.8351,54.7455],[-159.6886,54.7656],[-159.6524,54.7178],[-159.5479,54.6993],[-159.4693,54.721],[-159.4164,54.782],[-159.5561,54.8803],[-159.7293,54.8942],[-159.8546,54.8644],[-159.9103,54.8142]]],[[[-160.0976,58.5999],[-160.0085,58.5347],[-159.9213,58.544],[-159.8626,58.5857],[-159.9053,58.6467],[-160.0046,58.6656],[-160.0976,58.5999]]],[[[-160.5441,58.6878],[-160.4753,58.6272],[-160.3876,58.6276],[-160.4143,58.5869],[-160.3969,58.5539],[-160.301,58.5358],[-160.2256,58.5655],[-160.0963,58.7053],[-160.1376,58.7489],[-160.416,58.7984],[-160.4904,58.7736],[-160.5441,58.6878]]],[[[-161.1945,55.159],[-161.0957,55.1035],[-161.02,55.1292],[-161.0054,55.1635],[-161.1091,55.208],[-161.1945,55.159]]],[[[-162.819,54.8112],[-162.7402,54.7531],[-162.6372,54.8048],[-162.7252,54.8574],[-162.819,54.8112]]],[[[-163.0137,54.3851],[-162.9833,54.3378],[-162.8752,54.339],[-162.7001,54.238],[-162.5469,54.248],[-162.4923,54.2938],[-162.2822,54.331],[-162.2384,54.3699],[-162.3544,54.4567],[-162.8606,54.5543],[-162.9388,54.5211],[-162.9599,54.428],[-163.0137,54.3851]]],[[[-163.2709,55.4317],[-163.2471,55.3745],[-163.1539,55.3431],[-163.071,55.3613],[-163.0279,55.4208],[-163.076,55.4887],[-163.1739,55.5321],[-163.26,55.5062],[-163.2709,55.4317]]],[[[-168.135,53.9515],[-168.1164,53.9055],[-168.0553,53.8763],[-167.9535,53.9212],[-167.9936,53.9904],[-168.083,53.9924],[-168.135,53.9515]]],[[[-169.3263,52.7654],[-169.2915,52.7226],[-169.2281,52.7146],[-168.827,52.8584],[-168.743,52.8547],[-168.5571,52.9582],[-168.4763,52.9195],[-168.4027,52.9293],[-168.3148,52.9821],[-168.334,53.0832],[-168.2577,53.1419],[-168.1699,53.1586],[-168.1322,53.2193],[-168.044,53.2442],[-167.5925,53.174],[-167.1068,53.367],[-166.7248,53.3942],[-166.3787,53.6021],[-166.1749,53.6598],[-165.9764,53.7711],[-165.9227,53.846],[-165.9611,53.9162],[-165.789,54.0162],[-165.6572,54.0363],[-165.5632,53.9673],[-165.4031,54.0171],[-165.2696,53.9807],[-165.1845,54.017],[-164.9228,54.0285],[-164.8219,54.1308],[-164.6921,54.1822],[-164.6806,54.2322],[-164.8054,54.2824],[-165.0669,54.1801],[-165.321,54.1445],[-165.2428,54.1779],[-165.2321,54.2165],[-165.3452,54.251],[-165.4313,54.3407],[-165.6556,54.3471],[-165.769,54.2392],[-165.9372,54.277],[-166.1375,54.2143],[-166.2024,54.1198],[-166.1408,54.0469],[-166.2432,54.0302],[-166.3544,54.0611],[-166.7558,54.0688],[-167.054,54.0086],[-167.2301,53.8883],[-167.2341,53.8142],[-167.1649,53.7738],[-167.1382,53.7094],[-167.2444,53.6294],[-167.2304,53.5667],[-167.7524,53.4215],[-167.696,53.5146],[-167.7623,53.568],[-168.0803,53.6205],[-168.284,53.5711],[-168.4767,53.4506],[-168.4776,53.3787],[-168.6669,53.3152],[-168.8194,53.2217],[-168.8831,53.1502],[-168.8728,53.0817],[-168.9654,53.0507],[-169.0001,52.9828],[-169.2339,52.9459],[-169.2554,52.8845],[-169.1882,52.8507],[-169.2943,52.8116],[-169.3263,52.7654]]],[[[-169.8796,56.6148],[-169.8048,56.5474],[-169.5813,56.4832],[-169.3775,56.5877],[-169.4016,56.6366],[-169.5093,56.6675],[-169.8025,56.674],[-169.8796,56.6148]]],[[[-170.0505,57.1869],[-169.969,57.128],[-169.8477,57.1849],[-169.94,57.2389],[-170.0505,57.1869]]],[[[-170.273,52.7485],[-170.2501,52.6811],[-170.1738,52.6629],[-170.0484,52.6706],[-169.9755,52.7381],[-169.8488,52.7631],[-169.738,52.721],[-169.6597,52.7262],[-169.5886,52.8006],[-169.5934,52.8895],[-169.6336,52.9291],[-169.5804,52.9824],[-169.5806,53.0322],[-169.7006,53.1165],[-169.8141,53.1266],[-169.8834,53.0515],[-169.833,53.01],[-169.8177,52.9374],[-169.9082,52.9225],[-169.9634,52.9632],[-170.1165,52.9631],[-170.1986,52.9164],[-170.1528,52.8358],[-170.2068,52.8228],[-170.273,52.7485]]],[[[-170.5227,57.1934],[-170.4953,57.1283],[-170.4148,57.1047],[-170.492,57.0802],[-170.502,57.0332],[-170.3995,56.9958],[-170.1118,57.1367],[-170.0124,57.2541],[-170.0654,57.2979],[-170.1589,57.3044],[-170.2617,57.2641],[-170.4382,57.2549],[-170.5227,57.1934]]],[[[-170.926,52.5586],[-170.8876,52.5138],[-170.7638,52.4898],[-170.5361,52.5738],[-170.4747,52.6738],[-170.5263,52.7292],[-170.6805,52.7496],[-170.8654,52.6691],[-170.926,52.5586]]],[[[-171.3933,52.4809],[-171.3584,52.4125],[-171.2063,52.3989],[-171.1365,52.4457],[-171.1118,52.5076],[-171.0495,52.531],[-171.0201,52.5968],[-171.1792,52.6387],[-171.3744,52.5371],[-171.3933,52.4809]]],[[[-172.7207,52.2644],[-172.676,52.2106],[-172.5106,52.1999],[-172.2877,52.2657],[-172.2105,52.3271],[-172.2745,52.4058],[-172.4483,52.4431],[-172.6332,52.3879],[-172.7207,52.2644]]],[[[-175.2248,52.233],[-175.1525,52.163],[-175.0363,52.2176],[-175.1198,52.2805],[-175.2248,52.233]]],[[[-175.6098,52.183],[-175.5987,52.1467],[-175.5124,52.1074],[-175.437,52.1328],[-175.4037,52.182],[-175.492,52.2376],[-175.5793,52.2202],[-175.6098,52.183]]],[[[-177.5517,51.9155],[-177.469,51.8399],[-177.3809,51.8557],[-177.3326,51.9008],[-177.3647,51.9568],[-177.4595,51.9829],[-177.5517,51.9155]]],[[[-178.3078,51.8816],[-178.2725,51.8231],[-178.132,51.7579],[-178.1923,51.7208],[-178.1894,51.6337],[-177.8994,51.5402],[-177.8305,51.57],[-177.8249,51.6311],[-177.7834,51.6479],[-177.6577,51.5987],[-177.403,51.6704],[-177.2811,51.6276],[-177.1269,51.6534],[-177.0341,51.7327],[-177.0403,51.8077],[-176.9837,51.8338],[-177.0042,51.7878],[-176.9702,51.7437],[-177.0454,51.6907],[-177.0743,51.6209],[-177.0426,51.5661],[-176.9428,51.5371],[-176.6987,51.5784],[-176.4565,51.6764],[-176.2552,51.6954],[-176.2113,51.7331],[-175.9647,51.7554],[-175.913,51.8004],[-175.8271,51.8054],[-175.8059,51.8665],[-175.3487,51.9626],[-175.0564,51.9482],[-174.8693,51.9891],[-174.7451,51.9556],[-174.5943,51.9784],[-174.4809,51.9525],[-174.3504,51.9803],[-174.2772,52.0454],[-174.0499,52.0552],[-173.854,51.9913],[-173.6379,52.0037],[-173.5186,51.9716],[-173.2432,52.0094],[-173.1513,51.9471],[-173.0852,51.9749],[-173.07,52.026],[-172.9231,52.0242],[-172.8199,52.105],[-172.8949,52.1555],[-173.3098,52.155],[-173.4408,52.1688],[-173.5063,52.2131],[-173.9905,52.1831],[-173.9046,52.2937],[-173.9229,52.3781],[-174.1579,52.473],[-174.3127,52.4567],[-174.4107,52.3764],[-174.4947,52.367],[-174.5376,52.317],[-174.4944,52.2653],[-174.6685,52.2252],[-174.7947,52.1502],[-174.9252,52.1639],[-175.5491,52.0099],[-175.7393,52.0213],[-175.8537,52.0965],[-175.9278,52.0911],[-175.9919,52.1497],[-176.1484,52.1715],[-176.2244,52.1531],[-176.2854,52.0941],[-176.2429,51.9267],[-176.2693,51.919],[-176.4528,51.9079],[-176.4885,52.026],[-176.6013,52.0566],[-176.827,52.0091],[-176.9102,51.8896],[-176.971,51.8611],[-176.97,51.9245],[-177.0169,51.965],[-177.2062,51.9931],[-177.2675,51.9596],[-177.3089,51.8368],[-177.5421,51.7883],[-177.5643,51.796],[-177.5323,51.8551],[-177.5678,51.8972],[-177.8119,51.8908],[-177.947,51.9713],[-178.2284,51.9569],[-178.3078,51.8816]]],[[[-178.4312,51.4891],[-178.3874,51.4368],[-178.3043,51.4213],[-178.2181,51.4315],[-178.1878,51.4726],[-178.279,51.542],[-178.3901,51.5292],[-178.4312,51.4891]]],[[[-178.9573,51.7808],[-178.7962,51.6934],[-178.7009,51.7165],[-178.6466,51.7994],[-178.7191,51.8653],[-178.8394,51.8883],[-178.9153,51.8581],[-178.9573,51.7808]]],[[[-179.1495,51.5766],[-179.1025,51.5135],[-179.0024,51.5216],[-178.9503,51.5648],[-178.8002,51.4859],[-178.6364,51.5248],[-178.5502,51.5085],[-178.4406,51.5509],[-178.4217,51.5873],[-178.4704,51.6287],[-178.6343,51.6665],[-178.7683,51.6166],[-178.8908,51.6285],[-178.9486,51.5873],[-179.0783,51.6436],[-179.1495,51.5766]]],[[[-179.2302,51.2839],[-179.1838,51.1838],[-179.0736,51.179],[-178.8424,51.3155],[-178.8256,51.3675],[-178.8732,51.4248],[-178.9901,51.4568],[-179.2302,51.2839]]]]},"properties":{"GEOID":"02037","STATE":"02","BASENAME":"37","NAME":"State House District 37","SLDL":"037"}},{"type":"Feature","geometry":{"type":"Polygon","coordinates":[[[-166.9717,68.3452],[-166.942,68.3026],[-166.8606,68.2875],[-166.652,68.2883],[-166.2853,68.2244],[-165.966,68.0725],[-165.5164,68.0236],[-164.6552,67.6924],[-164.2303,67.5751],[-163.9628,67.3385],[-163.8825,67.215],[-164.0027,67.1726],[-163.9114,67.1047],[-163.0495,66.9866],[-162.832,66.9268],[-163.6262,66.6242],[-164.4614,66.6265],[-164.3959,66.5819],[-164.3959,66.4763],[-164.3189,66.4763],[-164.3189,66.1299],[-164.2442,66.1299],[-164.2442,65.7836],[-163.9635,65.7836],[-163.9635,65.6104],[-163.7554,65.6104],[-163.7554,65.4372],[-159.8017,65.4372],[-159.8017,65.5238],[-159.5935,65.5238],[-159.6048,65.9568],[-158.9722,65.9568],[-158.9722,66.13],[-157.9063,66.13],[-157.9063,66.4764],[-157.0513,66.4764],[-157.0513,66.3033],[-156.6238,66.3033],[-156.6129,66.3249],[-156.4537,66.2535],[-156.3623,66.1666],[-156.2753,66.1456],[-156.2749,66.1093],[-156.2031,66.0414],[-156.2583,65.9983],[-156.2109,65.9779],[-156.177,65.9842],[-156.1734,66.0175],[-156.1016,65.9819],[-156.0406,66.0252],[-156.0067,65.9877],[-155.912,66.0185],[-155.7969,65.9944],[-155.8386,65.9748],[-155.7332,65.9951],[-155.7653,65.9647],[-155.7137,65.9514],[-155.6916,65.9583],[-155.7261,65.9726],[-155.7085,65.9821],[-155.6352,65.9626],[-155.4041,65.9961],[-155.4099,65.9677],[-155.3484,65.9333],[-155.5132,65.8923],[-155.3195,65.8887],[-155.3189,65.9123],[-155.2117,65.9353],[-155.2832,65.8886],[-155.1864,65.8953],[-155.2276,65.862],[-155.0696,65.8459],[-155.012,65.8171],[-155.0591,65.8079],[-155.042,65.7909],[-154.8989,65.7797],[-154.7885,65.8087],[-154.7523,65.7737],[-154.5425,65.8586],[-154.4921,65.8309],[-154.3278,65.8884],[-154.1524,65.8588],[-153.7516,65.8965],[-153.5597,65.9644],[-153.4273,65.9553],[-153.4372,66.0229],[-153.5567,66.0119],[-153.4697,66.0449],[-153.4064,66.1122],[-153.3463,66.1051],[-153.1748,66.1797],[-153.0954,66.1961],[-153.0849,66.153],[-152.9778,66.1661],[-152.9483,66.2067],[-152.9598,66.3563],[-152.9251,66.3496],[-152.9553,66.3011],[-152.9023,66.2915],[-152.8788,66.3191],[-152.7128,66.3177],[-152.5147,66.2881],[-152.3592,66.306],[-152.3805,66.2885],[-152.3146,66.2742],[-152.3234,66.3274],[-152.2928,66.3498],[-152.1663,66.3692],[-152.1316,66.5075],[-152.22,66.5498],[-152.1355,66.5311],[-152.0257,66.5682],[-151.9898,66.5528],[-151.9833,66.5765],[-151.76,66.5715],[-151.6544,66.6181],[-151.5949,66.5983],[-151.3585,66.6301],[-151.1617,66.5606],[-150.8673,66.6729],[-150.6674,66.6622],[-150.2706,66.7435],[-149.9975,66.702],[-149.9986,66.6593],[-149.956,66.6593],[-149.9172,66.6976],[-149.6762,66.7508],[-149.6762,66.7999],[-149.5996,66.8167],[-149.5997,66.8526],[-149.6977,66.8827],[-149.6977,66.9221],[-149.4773,66.922],[-149.3339,66.9626],[-149.0986,66.9248],[-148.8136,66.9664],[-148.8134,66.998],[-148.6862,66.9979],[-148.686,67.0345],[-148.6387,67.0344],[-148.6384,67.089],[-148.5748,67.0776],[-148.3779,67.1761],[-148.2206,67.1521],[-147.9787,67.1696],[-147.742,67.1116],[-147.2648,67.0966],[-147.2423,67.1177],[-147.2851,67.1622],[-147.107,67.2385],[-147.1009,67.2694],[-146.7335,67.3445],[-146.699,67.3887],[-146.5665,67.4419],[-146.2885,67.4754],[-146.1102,67.6023],[-146.0623,67.6826],[-146.1534,67.7824],[-146.1267,67.8358],[-146.0658,67.8529],[-146.0565,67.9211],[-146.0132,67.9534],[-146.0526,68.0],[-146.0,68.0],[-146.0,68.5],[-141.0009,68.4984],[-141.0028,69.7036],[-141.3779,69.7441],[-143.2264,70.202],[-143.9406,70.1697],[-144.5291,70.0791],[-144.6815,70.0158],[-144.9266,70.04],[-145.065,70.0876],[-145.3355,70.0987],[-145.9818,70.2423],[-146.709,70.2824],[-146.9265,70.3508],[-147.1719,70.3502],[-147.3725,70.4305],[-147.7794,70.4719],[-147.8185,70.52],[-147.8996,70.5421],[-148.052,70.5388],[-148.1269,70.5013],[-148.4213,70.5329],[-148.5149,70.4897],[-148.487,70.4533],[-148.7873,70.5254],[-149.7191,70.6219],[-150.0335,70.5877],[-150.2427,70.6043],[-150.3452,70.5532],[-150.7952,70.5484],[-151.315,70.4634],[-151.5489,70.4911],[-151.5033,70.536],[-151.5168,70.5714],[-151.6127,70.5936],[-152.1519,70.8751],[-153.0001,70.9699],[-153.8992,70.9362],[-154.4377,71.0236],[-155.0033,71.2001],[-155.7562,71.2834],[-155.9264,71.3577],[-156.4877,71.4398],[-156.9408,71.3112],[-157.5324,71.0076],[-157.9315,70.9022],[-158.3335,70.872],[-158.734,70.9631],[-159.2384,70.9203],[-159.7555,70.8305],[-160.4142,70.5613],[-160.9079,70.4157],[-161.3151,70.3473],[-161.9487,70.3747],[-162.4652,70.2172],[-163.1336,69.8387],[-163.2878,69.6324],[-163.2896,69.4304],[-163.3332,69.3593],[-163.7923,69.108],[-164.2794,68.9796],[-165.357,68.9089],[-166.2783,68.9271],[-166.3661,68.8689],[-166.3273,68.7818],[-166.3333,68.6961],[-166.3712,68.6513],[-166.3677,68.575],[-166.4349,68.5306],[-166.4578,68.4661],[-166.85,68.4016],[-166.9717,68.3452]]]},"properties":{"GEOID":"02040","STATE":"02","BASENAME":"40","NAME":"State House District 40","SLDL":"040"}},{"type":"Feature","geometry":{"type":"Polygon","coordinates":[[[-150.0069,62.6178],[-149.8789,62.5376],[-149.8164,62.5355],[-149.8632,62.5022],[-149.6526,62.4919],[-149.6898,62.4771],[-149.6704,62.455],[-149.6966,62.4258],[-149.7965,62.3741],[-149.5764,62.3642],[-149.4618,62.3042],[-149.2573,62.2684],[-149.3092,62.1866],[-149.4291,62.1227],[-149.154,62.0745],[-149.1939,61.8575],[-149.2742,61.8369],[-149.311,61.7598],[-149.3908,61.7283],[-149.3599,61.6428],[-149.2412,61.6137],[-149.0488,61.6673],[-148.8859,61.6372],[-148.9066,61.6175],[-148.8728,61.5867],[-148.755,61.5615],[-148.521,61.6268],[-148.3945,61.6141],[-148.3963,61.5623],[-148.5155,61.4399],[-148.4625,61.4263],[-148.4721,60.8485],[-148.7384,60.8485],[-148.7456,60.733],[-148.6571,60.7251],[-148.455,60.8027],[-148.0344,60.7818],[-147.9137,60.8234],[-147.7445,60.8123],[-147.5155,60.8966],[-147.4533,60.8957],[-147.4338,60.8636],[-147.4094,60.8933],[-147.3834,60.8717],[-147.1789,60.8815],[-147.1903,60.8591],[-147.1376,60.8533],[-147.0716,60.8939],[-147.1339,60.9134],[-147.2231,60.8852],[-147.2084,60.9077],[-147.26,60.9173],[-146.9264,60.9416],[-146.7943,61.0309],[-146.7931,61.0687],[-146.7296,61.0496],[-146.7299,61.023],[-145.8438,61.023],[-145.8438,61.1012],[-145.8105,61.1078],[-145.5798,61.1137],[-145.565,61.0751],[-145.4283,61.1365],[-145.3526,61.1451],[-145.3065,61.1148],[-145.2201,61.157],[-145.01,61.1686],[-144.9682,61.1151],[-144.8844,61.1292],[-144.9656,61.1224],[-144.9056,61.1255],[-144.9348,61.1593],[-144.8501,61.2177],[-144.8429,61.2998],[-144.6767,61.3732],[-144.8978,61.4314],[-144.9467,61.4568],[-144.9345,61.4777],[-145.0646,61.5344],[-145.0753,61.5876],[-145.1836,61.6608],[-145.1578,61.7626],[-145.324,61.9514],[-145.484,62.0471],[-145.5107,62.2071],[-145.495,62.4141],[-145.5449,62.5084],[-145.5118,62.5133],[-145.4434,62.6149],[-145.4853,62.6633],[-145.4365,62.7355],[-145.4983,62.8061],[-145.4627,62.8844],[-145.4831,62.968],[-145.4503,63.0218],[-145.4948,63.0707],[-145.4817,63.1115],[-145.5137,63.1673],[-145.6468,63.2178],[-145.1729,63.2178],[-145.1832,63.2394],[-145.113,63.25],[-145.0835,63.248],[-145.1063,63.2126],[-145.0086,63.209],[-144.994,63.2332],[-144.9815,63.195],[-144.87,63.2378],[-145.0135,63.2509],[-145.0,63.2691],[-145.0378,63.2835],[-144.9815,63.3084],[-145.0929,63.3587],[-144.8222,63.4458],[-144.8631,63.4543],[-144.8253,63.5125],[-144.8609,63.6039],[-144.8352,63.6573],[-144.7524,63.7047],[-144.6214,63.7171],[-144.7927,63.8205],[-144.7589,63.8765],[-144.9002,63.9165],[-144.9175,63.9453],[-144.8664,64.0129],[-145.128,64.0754],[-145.0829,64.0902],[-145.1764,64.127],[-145.1738,64.2047],[-144.6337,64.1991],[-144.6212,64.5982],[-144.9781,64.5716],[-145.0828,64.5073],[-145.3782,64.4857],[-145.3741,64.4552],[-145.5289,64.4181],[-145.7424,64.4642],[-146.0038,64.3811],[-146.2187,64.3682],[-146.2429,64.3555],[-146.2323,64.3108],[-146.3447,64.2764],[-146.9999,64.2572],[-147.0,63.4776],[-148.0256,63.4776],[-148.0256,63.3332],[-149.1167,63.3332],[-149.5815,63.0441],[-149.6689,62.9375],[-149.5869,62.8832],[-149.7113,62.7474],[-150.0069,62.6178]]]},"properties":{"GEOID":"02009","STATE":"02","BASENAME":"9","NAME":"State House District 9","SLDL":"009"}},{"type":"Feature","geometry":{"type":"Polygon","coordinates":[[[-138.0216,58.79],[-137.996,58.7495],[-137.7759,58.6408],[-137.7206,58.5709],[-137.1203,58.3297],[-137.0145,58.3443],[-136.8338,58.1995],[-136.6584,58.1456],[-136.53,58.1715],[-136.4214,58.277],[-135.9707,58.3593],[-135.3951,58.276],[-135.25,58.1667],[-135.0004,58.1181],[-135.0139,58.1913],[-134.9,58.1972],[-134.6754,58.0295],[-134.6285,58.061],[-134.557,58.0556],[-134.5384,58.0982],[-134.177,58.1583],[-133.8133,57.8378],[-133.7,57.7917],[-133.1723,58.1537],[-133.4615,58.3877],[-133.3773,58.4305],[-133.7071,58.6123],[-133.8405,58.7294],[-134.2675,58.8685],[-134.3004,58.817],[-134.4095,58.8064],[-134.6507,58.7093],[-134.6231,58.6725],[-134.658,58.6597],[-134.6304,58.6525],[-134.7021,58.5981],[-134.6235,58.5795],[-134.6918,58.5318],[-134.5635,58.5423],[-134.6051,58.4858],[-134.5401,58.4712],[-134.5654,58.4234],[-134.4754,58.4627],[-134.3735,58.4433],[-134.4087,58.4169],[-134.3403,58.4235],[-134.5531,58.3759],[-134.5159,58.3561],[-134.7242,58.294],[-135.0709,58.5001],[-135.2191,58.975],[-134.3214,58.9636],[-134.4071,58.9792],[-134.3819,59.0388],[-134.4834,59.1316],[-134.5656,59.1311],[-134.6791,59.1923],[-134.7007,59.249],[-134.9599,59.2809],[-135.0305,59.3463],[-134.9897,59.3871],[-135.101,59.4275],[-135.0276,59.4747],[-135.0289,59.5637],[-135.2198,59.6628],[-135.2337,59.6961],[-135.4792,59.798],[-135.9526,59.6622],[-136.3539,59.5998],[-136.2398,59.5594],[-136.2385,59.5243],[-136.3625,59.4504],[-136.4772,59.4658],[-136.4692,59.2841],[-136.5815,59.1649],[-136.8266,59.1584],[-137.4474,58.9095],[-138.0216,58.79]]]},"properties":{"GEOID":"02033","STATE":"02","BASENAME":"33","NAME":"State House District 33","SLDL":"033"}},{"type":"Feature","geometry":{"type":"Polygon","coordinates":[[[-149.8383,61.2061],[-149.7936,61.2063],[-149.7935,61.2313],[-149.8383,61.2061]]]},"properties":{"GEOID":"02019","STATE":"02","BASENAME":"19","NAME":"State House District 19","SLDL":"019"}},{"type":"Feature","geometry":{"type":"Polygon","coordinates":[[[-133.7905,55.0006],[-133.6489,54.632],[-131.2031,54.6913],[-130.6479,54.6489],[-130.6257,54.7381],[-130.659,54.7631],[-130.3445,54.9188],[-130.1876,55.0628],[-130.1028,55.1926],[-129.9742,55.2819],[-130.1279,55.581],[-130.1117,55.6829],[-130.1524,55.7663],[-130.0038,55.9074],[-130.0035,56.0081],[-130.1038,56.1228],[-130.2462,56.0964],[-130.426,56.1416],[-130.4679,56.2431],[-130.6233,56.2669],[-130.782,56.3668],[-131.0873,56.406],[-131.5811,56.6122],[-131.8353,56.5992],[-131.9011,56.7537],[-131.8729,56.806],[-132.1602,56.9033],[-132.2071,56.8946],[-132.3485,56.7713],[-132.4315,56.7732],[-132.473,56.7298],[-132.5735,56.7206],[-132.5932,56.6697],[-132.5183,56.5862],[-132.6014,56.5369],[-132.7567,56.4844],[-132.9892,56.4652],[-133.1691,56.3551],[-133.0471,56.257],[-133.0077,56.1349],[-132.3559,55.7958],[-132.2709,55.6656],[-132.1997,55.6338],[-132.2757,55.6338],[-132.226,55.5658],[-132.037,55.4652],[-132.0021,55.4148],[-132.2073,55.44],[-132.4936,55.5493],[-132.6595,55.4544],[-132.753,55.3361],[-133.2474,55.3978],[-133.4141,55.3688],[-133.5269,55.3064],[-133.6137,55.1703],[-133.7905,55.0006]]]},"properties":{"GEOID":"02036","STATE":"02","BASENAME":"36","NAME":"State House District 36","SLDL":"036"}},{"type":"Feature","geometry":{"type":"Polygon","coordinates":[[[-149.8566,61.1415],[-149.7146,61.152],[-149.8083,61.1808],[-149.8566,61.1415]]]},"properties":{"GEOID":"02025","STATE":"02","BASENAME":"25","NAME":"State House District 25","SLDL":"025"}},{"type":"Feature","geometry":{"type":"Polygon","coordinates":[[[-148.6612,65.1556],[-148.6482,64.6866],[-148.0028,64.8457],[-147.5073,64.8923],[-147.5029,64.924],[-147.5412,64.9291],[-147.5213,64.9555],[-147.6244,64.9636],[-147.6736,65.0735],[-147.9788,65.1851],[-148.076,65.177],[-148.1046,65.2099],[-148.6612,65.2099],[-148.6612,65.1556]]]},"properties":{"GEOID":"02004","STATE":"02","BASENAME":"4","NAME":"State House District 4","SLDL":"004"}},{"type":"Feature","geometry":{"type":"Polygon","coordinates":[[[-149.8478,61.1068],[-149.8346,61.0223],[-149.3594,60.9063],[-149.0637,60.8774],[-149.0341,60.8485],[-149.0377,60.733],[-148.7456,60.733],[-148.7384,60.8485],[-148.4721,60.8485],[-148.4721,61.0708],[-149.1611,61.0613],[-149.2205,61.1005],[-149.5623,61.0594],[-149.5365,61.1229],[-149.6118,61.1664],[-149.7146,61.152],[-149.7445,61.1086],[-149.8478,61.1068]]]},"properties":{"GEOID":"02028","STATE":"02","BASENAME":"28","NAME":"State House District 28","SLDL":"028"}},{"type":"Feature","geometry":{"type":"Polygon","coordinates":[[[-149.6147,61.4942],[-149.5849,61.4338],[-149.5005,61.4526],[-149.5142,61.4009],[-149.4675,61.402],[-149.5157,61.3839],[-149.4798,61.3794],[-149.5028,61.3271],[-149.1831,61.3012],[-149.0625,61.1987],[-148.9045,61.1319],[-148.9363,61.0713],[-148.4721,61.0708],[-148.4625,61.4263],[-148.5155,61.4399],[-148.3818,61.5844],[-148.4219,61.635],[-148.7448,61.5614],[-148.9409,61.6092],[-149.0489,61.5996],[-149.0517,61.569],[-149.1733,61.539],[-149.3536,61.571],[-149.5328,61.5522],[-149.5592,61.5011],[-149.6147,61.4942]]]},"properties":{"GEOID":"02012","STATE":"02","BASENAME":"12","NAME":"State House District 12","SLDL":"012"}},{"type":"Feature","geometry":{"type":"Polygon","coordinates":[[[-136.6789,58.0363],[-136.6511,57.9938],[-136.6586,57.9015],[-136.4544,57.8307],[-135.8599,56.9924],[-134.4942,55.9996],[-134.5125,55.9559],[-134.632,55.8988],[-134.6189,55.8347],[-134.192,55.6931],[-134.027,55.892],[-133.9959,55.7952],[-133.838,55.7933],[-133.8318,55.7415],[-133.8877,55.6836],[-133.7982,55.6332],[-133.9072,55.434],[-133.8739,55.3988],[-133.7716,55.3943],[-133.7756,55.2822],[-133.6912,55.1985],[-133.6115,55.1765],[-133.4852,55.3383],[-133.2739,55.3949],[-132.753,55.3361],[-132.6595,55.4544],[-132.4936,55.5493],[-132.2073,55.44],[-132.0021,55.4148],[-132.037,55.4652],[-132.226,55.5658],[-132.2757,55.6338],[-132.1997,55.6338],[-132.2709,55.6656],[-132.3559,55.7958],[-133.0077,56.1349],[-133.0471,56.257],[-133.1691,56.3551],[-133.0069,56.4595],[-132.7539,56.4851],[-132.5183,56.5862],[-132.5932,56.6697],[-132.5735,56.7206],[-132.473,56.7298],[-132.4315,56.7732],[-132.3485,56.7713],[-132.2144,56.8922],[-132.1159,56.8903],[-132.0452,57.0451],[-132.369,57.0915],[-132.2479,57.2113],[-132.8693,57.8429],[-133.0764,57.9998],[-133.1769,58.1506],[-133.7,57.7917],[-133.8133,57.8378],[-134.177,58.1583],[-134.5384,58.0982],[-134.557,58.0556],[-134.6285,58.061],[-134.6754,58.0295],[-134.9,58.1972],[-135.0139,58.1913],[-135.0004,58.1181],[-135.25,58.1667],[-135.3951,58.276],[-135.9707,58.3593],[-136.4214,58.277],[-136.5134,58.1911],[-136.5103,58.1535],[-136.6502,58.1026],[-136.6789,58.0363]]]},"properties":{"GEOID":"02035","STATE":"02","BASENAME":"35","NAME":"State House District 35","SLDL":"035"}},{"type":"Feature","geometry":{"type":"Polygon","coordinates":[[[-147.8138,64.8344],[-147.6937,64.8058],[-147.7181,64.8585],[-147.8138,64.8344]]]},"properties":{"GEOID":"02001","STATE":"02","BASENAME":"1","NAME":"State House District 1","SLDL":"001"}},{"type":"Feature","geometry":{"type":"MultiPolygon","coordinates":[[[[-165.5194,60.5586],[-165.4265,60.4744],[-165.2396,60.4432],[-165.1414,60.358],[-164.9719,60.277],[-164.7488,60.2403],[-164.5974,60.1582],[-164.4882,60.055],[-164.3428,60.0029],[-164.4497,59.9533],[-164.4157,59.8849],[-164.0133,59.6378],[-163.8119,59.6208],[-163.7399,59.6686],[-163.7878,59.7092],[-163.8969,59.7146],[-163.9937,59.7638],[-163.7077,59.7411],[-163.1459,59.7956],[-162.9472,59.7683],[-162.8261,59.8007],[-162.818,59.8403],[-162.6984,59.8918],[-162.4498,59.8846],[-162.4417,59.8441],[-162.3643,59.8109],[-162.1783,59.8148],[-161.8713,59.5248],[-161.9144,59.4693],[-162.0536,59.409],[-162.171,59.2476],[-162.1022,59.1288],[-161.9025,58.9776],[-161.8512,58.808],[-161.9492,58.7243],[-162.1851,58.7061],[-162.269,58.6676],[-162.2777,58.6329],[-162.1322,58.5714],[-161.8636,58.5687],[-161.8022,58.5017],[-161.6402,58.5023],[-161.3418,58.6071],[-161.1982,58.7393],[-161.365,58.7394],[-161.3649,58.826],[-161.0314,58.8398],[-161.0314,58.9994],[-160.8647,58.9994],[-160.8647,59.0861],[-160.8121,59.0861],[-160.8121,59.2594],[-160.6437,59.2594],[-160.6437,59.3461],[-160.4753,59.3461],[-160.4754,59.4328],[-160.4186,59.4328],[-160.4186,59.6062],[-160.2485,59.6062],[-160.2485,59.7795],[-160.0174,59.7795],[-160.0174,59.9528],[-159.8455,59.9528],[-159.8455,60.1262],[-159.7819,60.1262],[-159.7819,60.2129],[-159.6082,60.2129],[-159.6082,60.3862],[-159.4345,60.3862],[-159.4345,60.4729],[-159.3662,60.4729],[-159.3662,60.6462],[-159.1907,60.6462],[-159.1907,60.7328],[-159.0151,60.7328],[-159.0151,60.8195],[-158.9419,60.8195],[-158.9419,60.9062],[-157.8772,60.9062],[-157.8772,60.8195],[-157.6998,60.8195],[-157.6998,60.9062],[-157.6673,60.9149],[-157.7199,60.9505],[-157.6789,60.9709],[-157.7034,60.9896],[-157.6831,61.0397],[-157.5573,61.0804],[-157.5941,61.0872],[-157.6432,61.1653],[-157.8479,61.2579],[-157.8884,61.3629],[-157.9685,61.3886],[-158.2929,61.3587],[-158.3142,61.3955],[-158.4532,61.4259],[-158.5068,61.5155],[-158.5927,61.5349],[-158.2971,61.6189],[-158.1906,61.7443],[-158.2237,61.7877],[-158.1313,61.8056],[-158.1215,61.867],[-158.0685,61.8674],[-158.0364,61.8235],[-157.7649,61.8945],[-157.8126,61.942],[-157.6938,61.9167],[-157.706,61.9602],[-157.6409,61.9622],[-157.6248,61.9913],[-157.4383,61.9927],[-157.2445,62.1148],[-158.5314,62.1193],[-158.5314,62.0326],[-159.265,62.0326],[-159.265,61.946],[-160.916,61.9459],[-160.9192,62.0567],[-161.2708,62.0535],[-161.3418,62.0237],[-161.3981,61.9048],[-161.4834,61.8982],[-161.534,61.9479],[-161.7877,62.0143],[-162.0067,62.0229],[-162.0342,62.1011],[-162.1715,62.1323],[-162.1877,62.12],[-162.149,62.1065],[-162.2035,62.0871],[-162.1166,62.0173],[-162.1685,62.0072],[-162.1435,61.9796],[-162.1691,61.9617],[-162.5937,62.0104],[-162.8268,61.9593],[-162.9665,61.8332],[-163.0698,61.8262],[-163.0821,61.7834],[-163.0232,61.7569],[-163.0507,61.6987],[-162.9955,61.6789],[-162.9716,61.6187],[-162.8303,61.5687],[-162.8636,61.4939],[-163.1714,61.4491],[-163.4313,61.4841],[-163.4863,61.433],[-163.4629,61.4129],[-163.5426,61.3932],[-163.5241,61.3551],[-163.5851,61.3391],[-163.9928,61.3718],[-163.9818,61.2433],[-163.9238,61.2481],[-163.9135,61.2224],[-164.1215,61.127],[-164.2019,61.1516],[-164.2285,61.121],[-164.2007,61.0759],[-164.1463,61.0747],[-164.1547,61.0226],[-164.4181,60.9487],[-164.5986,60.9421],[-164.6166,60.979],[-164.7976,60.9825],[-165.2542,60.9171],[-165.1705,60.8769],[-165.1762,60.7963],[-165.1234,60.7366],[-165.3402,60.6383],[-165.4456,60.6235],[-165.5194,60.5586]]],[[[-167.5582,60.2244],[-167.4364,60.1088],[-167.4408,60.0565],[-167.4008,60.0261],[-166.9406,59.9119],[-166.6543,59.8024],[-166.3219,59.7731],[-166.1769,59.6998],[-166.0125,59.7054],[-165.739,59.8414],[-165.4955,59.8702],[-165.4025,59.9679],[-165.5666,60.0587],[-165.5883,60.2414],[-165.5615,60.3017],[-165.5862,60.3298],[-165.7385,60.4056],[-165.9814,60.3741],[-166.0542,60.4695],[-166.1524,60.5107],[-166.2493,60.4911],[-166.3498,60.4177],[-166.5058,60.4476],[-166.7633,60.3813],[-166.9438,60.2781],[-167.3098,60.2907],[-167.5081,60.2631],[-167.5582,60.2244]]],[[[-172.8857,60.2088],[-172.881,60.1688],[-172.7995,60.1388],[-172.6942,60.1546],[-172.6343,60.2007],[-172.6492,60.2369],[-172.7315,60.2622],[-172.8857,60.2088]]],[[[-173.2322,60.6543],[-173.1402,60.5755],[-173.1583,60.4675],[-172.9315,60.3897],[-172.8778,60.3263],[-172.5961,60.2586],[-172.4075,60.2788],[-172.2955,60.2388],[-172.1895,60.2508],[-172.1088,60.3034],[-172.3475,60.4277],[-172.53,60.4357],[-172.7603,60.5142],[-172.8153,60.5579],[-172.8288,60.6222],[-172.9438,60.6507],[-172.9623,60.7098],[-173.0125,60.7404],[-173.1586,60.7288],[-173.2322,60.6543]]]]},"properties":{"GEOID":"02038","STATE":"02","BASENAME":"38","NAME":"State House District 38","SLDL":"038"}},{"type":"Feature","geometry":{"type":"Polygon","coordinates":[[[-149.9284,61.1831],[-149.9072,61.1358],[-149.8567,61.1327],[-149.8606,61.1808],[-149.9284,61.1831]]]},"properties":{"GEOID":"02023","STATE":"02","BASENAME":"23","NAME":"State House District 23","SLDL":"023"}},{"type":"Feature","geometry":{"type":"Polygon","coordinates":[[[-149.8163,61.3382],[-149.7484,61.2964],[-149.7486,61.2374],[-149.7115,61.2242],[-149.5843,61.3199],[-149.4875,61.3271],[-149.5096,61.358],[-149.4798,61.3794],[-149.516,61.3832],[-149.4675,61.402],[-149.5142,61.4009],[-149.5005,61.4526],[-149.7484,61.3974],[-149.8163,61.3382]]]},"properties":{"GEOID":"02013","STATE":"02","BASENAME":"13","NAME":"State House District 13","SLDL":"013"}},{"type":"Feature","geometry":{"type":"MultiPolygon","coordinates":[[[[-168.2315,65.6262],[-168.153,65.5389],[-167.938,65.4999],[-167.6064,65.3856],[-166.9489,65.3079],[-167.0724,65.1998],[-167.073,65.1384],[-166.7619,64.9635],[-166.5227,64.8711],[-166.5822,64.8221],[-166.5902,64.7389],[-166.4913,64.619],[-166.2814,64.545],[-166.3539,64.5064],[-166.3511,64.4779],[-166.272,64.4378],[-166.1335,64.4382],[-166.0709,64.4902],[-166.0778,64.5205],[-165.0322,64.388],[-164.7548,64.4078],[-164.3554,64.5084],[-163.8141,64.5312],[-163.5362,64.5036],[-163.3638,64.4456],[-163.2419,64.3607],[-162.7958,64.2757],[-162.5579,64.3558],[-162.472,64.4868],[-162.3135,64.5428],[-161.5908,64.3355],[-161.4139,64.3586],[-161.0754,64.2067],[-161.0457,64.0225],[-160.9446,63.9215],[-160.877,63.7969],[-161.0085,63.6777],[-161.0981,63.6561],[-161.2852,63.5234],[-161.8404,63.4933],[-161.957,63.5572],[-162.2227,63.5969],[-162.3044,63.672],[-162.5843,63.6914],[-162.7306,63.6512],[-162.8264,63.5764],[-162.6798,63.4916],[-162.4378,63.492],[-162.7003,63.2912],[-162.8709,63.2536],[-163.1187,63.1016],[-163.2525,63.0925],[-163.6581,63.2497],[-164.1289,63.3153],[-164.4957,63.2512],[-164.7438,63.0932],[-164.8998,63.0523],[-164.9159,62.9026],[-165.0363,62.8289],[-164.9867,62.7607],[-165.2473,62.7099],[-165.2481,62.648],[-165.2131,62.6144],[-165.3387,62.576],[-165.4489,62.391],[-165.9018,62.1193],[-166.0058,62.1234],[-166.0962,62.0735],[-166.1298,62.0253],[-166.0759,61.9831],[-166.1125,61.8731],[-166.2297,61.7983],[-166.2864,61.6031],[-166.1945,61.4599],[-166.0313,61.3953],[-165.9904,61.3164],[-165.8376,61.2387],[-165.6637,61.0578],[-165.4167,61.0125],[-165.246,61.0535],[-165.298,60.959],[-165.2542,60.9171],[-165.1571,60.9174],[-164.7976,60.9825],[-164.6166,60.979],[-164.6033,60.9436],[-164.5299,60.9408],[-164.235,60.9882],[-164.1483,61.0394],[-164.1463,61.0747],[-164.2118,61.0823],[-164.1964,61.1034],[-164.2285,61.121],[-164.2019,61.1516],[-164.1215,61.127],[-164.0176,61.1929],[-163.9209,61.2107],[-163.9238,61.2481],[-163.9818,61.2433],[-163.9928,61.3718],[-163.5851,61.3391],[-163.5241,61.3551],[-163.5426,61.3932],[-163.4629,61.4129],[-163.4863,61.433],[-163.4313,61.4841],[-163.1714,61.4491],[-162.8636,61.4939],[-162.8303,61.5687],[-162.9723,61.6191],[-162.9955,61.6789],[-163.0597,61.7114],[-163.0232,61.7569],[-163.0822,61.7849],[-163.0695,61.8265],[-162.9665,61.8332],[-162.8268,61.9593],[-162.7452,61.9611],[-162.7822,61.9734],[-162.4711,62.0134],[-162.1728,61.9606],[-162.1435,61.9796],[-162.1685,62.0072],[-162.1166,62.0173],[-162.2035,62.0871],[-162.149,62.1065],[-162.1877,62.12],[-162.1715,62.1323],[-162.0342,62.1011],[-162.0067,62.0229],[-161.7877,62.0143],[-161.534,61.9479],[-161.4834,61.8982],[-161.3981,61.9048],[-161.3418,62.0237],[-161.2846,62.0517],[-160.916,62.0549],[-160.916,62.2059],[-161.0482,62.2059],[-161.0482,62.5078],[-160.883,62.501],[-160.7959,62.4623],[-160.7262,62.4775],[-160.7279,62.4534],[-160.6338,62.4926],[-160.6084,62.4723],[-160.4609,62.5127],[-160.3814,62.4974],[-160.3284,62.5451],[-160.3192,62.5189],[-160.214,62.5346],[-160.1974,62.6061],[-160.2454,62.6102],[-160.2454,62.6968],[-160.1548,62.7103],[-160.075,62.7896],[-160.0957,62.8405],[-160.0749,62.8701],[-160.1526,62.8701],[-160.1523,62.9278],[-160.0552,62.9278],[-159.9515,63.0255],[-159.8001,63.0745],[-159.803,63.1193],[-159.7359,63.168],[-159.7429,63.2188],[-159.6923,63.3056],[-159.4606,63.4337],[-159.533,63.5178],[-159.4905,63.6022],[-159.4036,63.6479],[-159.3603,63.7521],[-159.2256,63.7947],[-159.2161,63.8764],[-159.0687,63.945],[-154.6128,63.9853],[-154.5686,64.021],[-154.5425,64.0005],[-154.423,64.0402],[-154.3626,64.0268],[-154.3484,64.0465],[-154.3744,64.0592],[-154.2135,64.0709],[-154.2259,64.0944],[-154.0762,64.1281],[-154.0481,64.1103],[-154.0355,64.1498],[-154.0071,64.1345],[-153.9323,64.1722],[-153.9753,64.1932],[-153.8812,64.2534],[-153.8927,64.2836],[-153.7034,64.3314],[-153.6237,64.3782],[-153.5961,64.4315],[-153.6414,64.4743],[-153.7526,64.4315],[-154.059,64.4158],[-154.1312,64.4696],[-154.1886,64.4666],[-154.1562,64.4845],[-154.2483,64.498],[-154.2242,64.5182],[-154.2757,64.524],[-154.2482,64.5459],[-154.3279,64.5418],[-154.3939,64.5983],[-154.4616,64.5743],[-154.4328,64.5928],[-154.4725,64.6029],[-154.4191,64.6395],[-154.5724,64.6607],[-154.4547,64.6974],[-154.4782,64.7154],[-154.4316,64.6912],[-154.4097,64.7069],[-154.4487,64.7329],[-154.2856,64.7559],[-154.3386,64.7743],[-154.2633,64.7682],[-154.2303,64.7827],[-154.2674,64.7923],[-154.2395,64.8154],[-154.1668,64.8261],[-154.1508,64.8701],[-154.2519,64.8806],[-154.2756,64.9384],[-154.002,64.9684],[-153.8911,65.0233],[-153.7603,65.0344],[-153.7702,65.0609],[-153.7204,65.0795],[-153.773,65.1332],[-153.7166,65.2012],[-153.7886,65.201],[-153.7949,65.2379],[-153.707,65.3823],[-153.581,65.4438],[-153.3719,65.4599],[-153.2582,65.5716],[-153.1717,65.5919],[-153.1926,65.6394],[-153.0917,65.6339],[-152.9898,65.6863],[-152.9311,65.7753],[-152.8936,65.7824],[-152.9559,65.8462],[-152.9003,65.8891],[-152.9192,65.9284],[-152.8506,65.9622],[-152.8786,65.9822],[-152.862,66.0376],[-152.9044,66.0958],[-152.9211,66.2181],[-152.952,66.2324],[-153.0002,66.1579],[-153.1035,66.1602],[-153.0954,66.1961],[-153.1748,66.1797],[-153.3463,66.1051],[-153.4064,66.1122],[-153.4697,66.0449],[-153.5567,66.0119],[-153.4372,66.0229],[-153.4285,65.955],[-153.5597,65.9644],[-153.7516,65.8965],[-154.1524,65.8588],[-154.3278,65.8884],[-154.4921,65.8309],[-154.5425,65.8586],[-154.7523,65.7737],[-154.7885,65.8087],[-154.8989,65.7797],[-155.0317,65.7892],[-155.0599,65.8068],[-155.012,65.8171],[-155.0696,65.8459],[-155.2276,65.862],[-155.1864,65.8953],[-155.2832,65.8886],[-155.2103,65.935],[-155.3189,65.9123],[-155.3195,65.8887],[-155.5132,65.8923],[-155.3484,65.9333],[-155.4099,65.9677],[-155.4041,65.9961],[-155.6352,65.9626],[-155.7085,65.9821],[-155.7261,65.9726],[-155.6916,65.9583],[-155.7137,65.9514],[-155.7653,65.9647],[-155.7332,65.9951],[-155.8386,65.9748],[-155.7969,65.9944],[-155.912,66.0185],[-156.0067,65.9877],[-156.0406,66.0252],[-156.1016,65.9819],[-156.1734,66.0175],[-156.177,65.9842],[-156.2109,65.9779],[-156.2583,65.9983],[-156.2031,66.0414],[-156.2749,66.1093],[-156.2753,66.1456],[-156.3623,66.1666],[-156.4537,66.2535],[-156.6129,66.3249],[-156.6238,66.3033],[-157.0513,66.3033],[-157.0513,66.4764],[-157.9063,66.4764],[-157.9063,66.13],[-158.9722,66.13],[-158.9722,65.9568],[-159.6048,65.9568],[-159.5935,65.5238],[-159.8017,65.5238],[-159.8017,65.4372],[-163.7554,65.4372],[-163.7554,65.6104],[-163.9635,65.6104],[-163.9635,65.7836],[-164.2442,65.7836],[-164.2442,66.1299],[-164.3189,66.1299],[-164.3189,66.4763],[-164.3959,66.4763],[-164.3959,66.5819],[-164.4614,66.6265],[-165.4344,66.4752],[-166.094,66.316],[-166.7195,66.148],[-167.5208,65.8782],[-168.0771,65.7561],[-168.2001,65.6994],[-168.2315,65.6262]]],[[[-161.4369,64.1336],[-161.4144,64.0868],[-161.306,64.062],[-161.2099,64.082],[-161.1767,64.1469],[-161.3104,64.1894],[-161.4369,64.1336]]],[[[-161.8593,63.6109],[-161.8392,63.5704],[-161.752,63.5521],[-161.634,63.6043],[-161.7585,63.6545],[-161.8593,63.6109]]],[[[-168.214,64.9843],[-168.187,64.9349],[-168.0909,64.9111],[-167.9761,64.9229],[-167.9138,64.9699],[-167.9531,65.0235],[-168.0761,65.0433],[-168.214,64.9843]]],[[[-168.8692,65.6209],[-168.7661,65.5715],[-168.6268,65.6124],[-168.666,65.6598],[-168.7349,65.6743],[-168.8201,65.6652],[-168.8692,65.6209]]],[[[-168.9717,65.7139],[-168.9719,65.6888],[-168.8809,65.6858],[-168.7625,65.7512],[-168.8357,65.8107],[-168.9508,65.8188],[-168.9717,65.7139]]],[[[-171.9547,63.5209],[-171.9653,63.4729],[-171.8392,63.3427],[-171.5946,63.2696],[-171.3989,63.2576],[-171.0484,63.3737],[-170.5969,63.3116],[-170.4391,63.2516],[-170.3594,63.1477],[-170.1154,63.1272],[-169.9014,63.0374],[-169.839,62.9259],[-169.6388,62.8849],[-169.4363,62.9474],[-169.4199,62.9739],[-169.4511,63.0386],[-169.2638,63.1185],[-169.0278,63.1245],[-168.9228,63.0996],[-168.9487,63.0625],[-168.9175,63.0311],[-168.7641,63.0276],[-168.7007,63.0569],[-168.6828,63.0847],[-168.7335,63.1316],[-168.6093,63.2294],[-168.5786,63.3087],[-168.7047,63.3547],[-169.4555,63.415],[-169.6023,63.4806],[-169.793,63.4907],[-169.9266,63.5267],[-169.9856,63.623],[-170.2968,63.7556],[-170.6567,63.7235],[-170.9592,63.6259],[-171.5356,63.7219],[-171.5488,63.8005],[-171.6747,63.8437],[-171.846,63.7999],[-171.8602,63.6747],[-171.9248,63.6108],[-171.9547,63.5209]]]]},"properties":{"GEOID":"02039","STATE":"02","BASENAME":"39","NAME":"State House District 39","SLDL":"039"}},{"type":"Feature","geometry":{"type":"Polygon","coordinates":[[[-147.7448,64.8635],[-147.6073,64.7799],[-147.4394,64.8057],[-147.5352,64.8523],[-147.5241,64.8779],[-147.7448,64.8635]]]},"properties":{"GEOID":"02002","STATE":"02","BASENAME":"2","NAME":"State House District 2","SLDL":"002"}},{"type":"Feature","geometry":{"type":"Polygon","coordinates":[[[-149.3599,61.5787],[-149.1733,61.539],[-149.0517,61.569],[-149.0489,61.5996],[-148.8901,61.5957],[-148.8859,61.6372],[-149.0671,61.6683],[-149.1169,61.6282],[-149.3599,61.5787]]]},"properties":{"GEOID":"02011","STATE":"02","BASENAME":"11","NAME":"State House District 11","SLDL":"011"}},{"type":"Feature","geometry":{"type":"MultiPolygon","coordinates":[[[[-156.7514,57.2501],[-156.7514,57.1778],[-156.3288,57.1778],[-156.328,57.0533],[-156.3165,57.1055],[-156.2278,57.1625],[-156.2145,57.1952],[-156.247,57.2438],[-156.1672,57.3459],[-155.9398,57.4129],[-155.8445,57.4975],[-155.668,57.5084],[-155.6395,57.6023],[-155.3004,57.6429],[-155.1501,57.75],[-155.1609,57.7906],[-155.0435,57.8124],[-154.9407,57.9751],[-154.8009,57.9591],[-154.3907,57.9993],[-154.1337,58.1001],[-153.97,58.3127],[-153.8586,58.3743],[-153.8818,58.4565],[-153.8107,58.5154],[-153.628,58.5083],[-153.4615,58.5726],[-153.447,58.5984],[-153.4788,58.6417],[-153.318,58.713],[-153.187,58.7293],[-153.1659,58.765],[-153.2025,58.8013],[-153.1516,58.8576],[-153.1841,58.9057],[-153.0212,59.0025],[-151.4442,59.0997],[-150.9922,59.1808],[-149.6213,59.5275],[-149.4675,59.7338],[-149.2696,59.8454],[-148.9802,59.8937],[-148.2185,59.8756],[-147.9564,59.7441],[-147.6872,59.7417],[-147.3348,59.8339],[-147.281,59.8787],[-147.2417,59.9983],[-147.1019,60.0813],[-145.9766,60.3147],[-145.8243,60.3151],[-145.3177,60.1797],[-144.776,60.1296],[-144.6073,60.0783],[-144.5397,60.0101],[-144.7778,59.8299],[-144.7781,59.7786],[-144.6768,59.7274],[-144.4105,59.7463],[-144.1441,59.9195],[-143.5395,59.9999],[-142.578,60.0435],[-141.9396,59.964],[-140.9129,59.6985],[-140.4251,59.657],[-139.3903,59.3174],[-138.967,59.2115],[-138.6377,59.0796],[-138.2789,59.0004],[-138.0215,58.8614],[-138.0216,58.79],[-137.5252,58.9091],[-137.5,58.9854],[-137.6074,59.2438],[-138.6262,59.7686],[-138.7074,59.9063],[-139.0537,59.9948],[-139.1988,60.0883],[-139.0748,60.3525],[-139.693,60.3352],[-139.9811,60.182],[-140.4582,60.3081],[-140.5204,60.2198],[-141.002,60.3064],[-141.002,60.3917],[-141.2134,60.3917],[-141.2135,60.4353],[-141.7906,60.4352],[-141.7906,60.5219],[-141.9631,60.5219],[-141.9627,60.6077],[-142.8619,60.5954],[-142.8716,60.789],[-143.4081,60.7607],[-143.408,60.8506],[-143.7132,60.8504],[-143.7161,61.0378],[-144.427,61.0376],[-144.4161,61.212],[-144.8711,61.2111],[-144.9348,61.1593],[-144.9056,61.1255],[-144.9656,61.1224],[-144.8844,61.1292],[-144.9417,61.1126],[-145.01,61.1686],[-145.2201,61.157],[-145.3065,61.1148],[-145.3526,61.1451],[-145.4283,61.1365],[-145.565,61.0751],[-145.5798,61.1137],[-145.8105,61.1078],[-145.8438,61.1012],[-145.8438,61.023],[-146.7299,61.023],[-146.7296,61.0496],[-146.7931,61.0687],[-146.7943,61.0309],[-146.9264,60.9416],[-147.26,60.9173],[-147.2084,60.9077],[-147.2231,60.8852],[-147.1339,60.9134],[-147.0716,60.8939],[-147.1395,60.853],[-147.1903,60.8591],[-147.1789,60.8815],[-147.3834,60.8717],[-147.4094,60.8933],[-147.4332,60.8636],[-147.4533,60.8957],[-147.5155,60.8966],[-147.7445,60.8123],[-147.9137,60.8234],[-148.0338,60.7819],[-148.455,60.8027],[-148.6571,60.7251],[-148.6645,60.423],[-149.0062,60.3878],[-149.011,60.3012],[-149.3447,60.3001],[-149.3161,60.2379],[-149.1532,60.2005],[-149.3568,60.1784],[-149.3592,60.1118],[-149.2742,60.1118],[-149.2741,60.0829],[-149.4428,60.0829],[-149.4436,60.0465],[-149.5281,60.0286],[-149.5331,60.1754],[-149.7682,60.3048],[-149.8054,60.2831],[-149.7866,60.1869],[-150.1518,60.1037],[-150.0667,59.9765],[-150.2913,59.8666],[-150.3424,59.6958],[-150.6984,59.6784],[-150.7443,59.7787],[-150.8213,59.7788],[-150.8234,59.8083],[-151.0044,59.7911],[-151.3395,59.659],[-151.4034,59.597],[-151.6321,59.625],[-151.7515,59.6709],[-152.3608,59.6801],[-151.9405,60.2496],[-151.8229,60.3513],[-151.6458,60.6594],[-151.4864,60.8625],[-151.3775,60.9169],[-150.7791,61.0796],[-150.974,61.1663],[-150.974,61.2529],[-151.3328,61.2529],[-151.3328,61.4262],[-153.4856,61.4262],[-153.4856,61.1662],[-153.4409,61.1662],[-153.4409,60.8196],[-153.3973,60.8196],[-153.3973,60.4729],[-153.5284,60.4729],[-153.5284,60.1263],[-153.657,60.1263],[-153.657,59.7796],[-153.7831,59.7796],[-153.7831,59.6929],[-153.9532,59.6929],[-153.9532,59.5196],[-154.1233,59.5196],[-154.1233,59.4329],[-154.412,59.4329],[-154.412,59.2595],[-154.7489,59.2595],[-154.7488,59.0862],[-154.6951,59.0862],[-154.695,58.7394],[-154.6426,58.7394],[-154.6425,58.6527],[-154.3124,58.6528],[-154.3124,58.4649],[-154.3675,58.4649],[-154.3674,58.4216],[-154.45,58.4216],[-154.4828,58.3638],[-154.5913,58.3638],[-154.5913,58.3349],[-155.0281,58.2915],[-155.0818,58.2337],[-155.2453,58.2337],[-155.2453,58.1904],[-155.3548,58.1904],[-155.3545,58.1037],[-155.2999,58.1037],[-155.2998,58.0459],[-155.3525,58.0459],[-155.3521,57.8859],[-155.4599,57.8859],[-155.4598,57.8426],[-155.5411,57.8426],[-155.541,57.8137],[-155.703,57.8137],[-155.7029,57.7559],[-155.7567,57.7559],[-155.778,57.6836],[-155.9114,57.6836],[-155.9114,57.6403],[-155.8316,57.6114],[-155.9382,57.568],[-155.965,57.568],[-155.9652,57.6114],[-156.0179,57.6114],[-156.0717,57.597],[-156.1254,57.5247],[-156.3657,57.5391],[-156.3925,57.4958],[-156.4462,57.4958],[-156.4461,57.4524],[-156.4993,57.4524],[-156.4993,57.3802],[-156.5528,57.3802],[-156.5404,57.3513],[-156.6192,57.3513],[-156.6191,57.3079],[-156.6725,57.3079],[-156.6724,57.2501],[-156.7514,57.2501]]],[[[-146.5083,59.3907],[-146.4693,59.35],[-146.3619,59.3355],[-146.2535,59.3577],[-146.1454,59.4352],[-146.1855,59.497],[-146.2429,59.52],[-146.2552,59.567],[-146.3585,59.5861],[-146.4264,59.5555],[-146.4278,59.4667],[-146.5083,59.3907]]],[[[-152.4665,58.915],[-152.4014,58.8367],[-152.3146,58.82],[-152.1341,58.8581],[-152.0172,58.8285],[-151.8516,58.9173],[-151.9372,58.9883],[-152.1454,59.0179],[-152.414,58.9922],[-152.4665,58.915]]],[[[-154.9337,57.2947],[-154.8311,57.2306],[-154.6858,57.2142],[-154.6198,57.1624],[-154.6086,56.9703],[-154.3877,56.8956],[-154.3855,56.8303],[-154.2178,56.7205],[-154.2367,56.6676],[-154.3521,56.6325],[-154.5405,56.6558],[-154.7581,56.5598],[-154.8938,56.4447],[-154.8629,56.3839],[-154.7257,56.3552],[-154.4982,56.4558],[-153.9191,56.457],[-153.8066,56.5094],[-153.7649,56.5881],[-153.8421,56.6206],[-153.9821,56.609],[-153.9998,56.635],[-153.7835,56.6976],[-153.7476,56.745],[-153.7604,56.7765],[-153.4887,56.8637],[-153.4509,56.9003],[-153.4769,56.9413],[-153.4491,56.9708],[-153.32,56.9409],[-153.2055,56.9532],[-153.0983,57.0403],[-152.8342,57.0944],[-152.7744,57.1606],[-152.8356,57.2174],[-152.6427,57.2354],[-152.4156,57.3845],[-152.3377,57.3216],[-152.1863,57.3532],[-152.1565,57.4059],[-152.2165,57.4382],[-152.2224,57.4753],[-152.0635,57.5712],[-152.0349,57.6533],[-152.0798,57.6863],[-152.138,57.8298],[-152.2552,57.8663],[-152.2356,57.9499],[-152.4745,58.0454],[-152.3123,58.0496],[-152.0553,58.1045],[-151.9664,58.1537],[-151.8842,58.113],[-151.7822,58.1288],[-151.7066,58.1878],[-151.6966,58.2598],[-151.7552,58.3034],[-151.704,58.3573],[-151.7505,58.3947],[-151.8952,58.3717],[-152.1821,58.452],[-152.0798,58.4786],[-152.0655,58.5268],[-152.1828,58.574],[-152.2477,58.6807],[-152.3848,58.6904],[-152.4345,58.7508],[-152.5456,58.7424],[-152.7191,58.6354],[-152.7751,58.5494],[-152.8469,58.5315],[-153.2,58.2663],[-153.4702,58.1087],[-153.5066,58.0662],[-153.4802,58.0188],[-153.7866,57.9177],[-153.9171,57.9166],[-154.2401,57.7155],[-154.407,57.6905],[-154.4809,57.6319],[-154.589,57.6129],[-154.723,57.528],[-154.8154,57.4128],[-154.8886,57.3819],[-154.9337,57.2947]]],[[[-155.8368,55.8008],[-155.7943,55.7296],[-155.5281,55.7058],[-155.4748,55.7415],[-155.4852,55.8186],[-155.4531,55.8839],[-155.4744,55.9136],[-155.6341,55.9255],[-155.8368,55.8008]]],[[[-156.902,56.1654],[-156.8836,56.1228],[-156.8172,56.1041],[-156.8465,56.0302],[-156.7931,55.9558],[-156.6478,55.9623],[-156.548,56.0386],[-156.556,56.0902],[-156.6759,56.1525],[-156.6511,56.201],[-156.7074,56.2674],[-156.842,56.2701],[-156.902,56.1654]]]]},"properties":{"GEOID":"02032","STATE":"02","BASENAME":"32","NAME":"State House District 32","SLDL":"032"}},{"type":"Feature","geometry":{"type":"Polygon","coordinates":[[[-153.0019,62.7258],[-153.0017,61.4262],[-151.3328,61.4262],[-151.3328,61.2529],[-150.974,61.2529],[-150.974,61.1663],[-150.7791,61.0796],[-150.4369,61.166],[-150.5633,61.3377],[-150.4559,61.4133],[-150.5515,61.5071],[-150.5153,61.5442],[-150.3334,61.5995],[-150.0916,61.6003],[-150.0702,61.5742],[-149.8135,61.5994],[-149.7301,61.5597],[-149.7228,61.6348],[-149.662,61.6399],[-149.5899,61.6194],[-149.5725,61.5778],[-149.4496,61.6159],[-149.2542,61.6146],[-149.3599,61.6428],[-149.3908,61.7283],[-149.311,61.7598],[-149.2742,61.8369],[-149.1939,61.8575],[-149.154,62.0745],[-149.4291,62.1227],[-149.3092,62.1866],[-149.2573,62.2684],[-149.4618,62.3042],[-149.5764,62.3642],[-149.7965,62.3741],[-149.6966,62.4258],[-149.6704,62.455],[-149.6898,62.4771],[-149.6526,62.4919],[-149.8632,62.5022],[-149.8164,62.5355],[-149.8789,62.5376],[-150.0074,62.6178],[-149.7113,62.7474],[-149.5869,62.8832],[-149.6689,62.9375],[-149.5815,63.0441],[-149.1167,63.3332],[-149.4923,63.3332],[-150.1311,63.1957],[-151.894,62.7981],[-151.8938,62.7259],[-153.0019,62.7258]]]},"properties":{"GEOID":"02010","STATE":"02","BASENAME":"10","NAME":"State House District 10","SLDL":"010"}},{"type":"Feature","geometry":{"type":"Polygon","coordinates":[[[-150.5633,61.3387],[-150.4369,61.166],[-149.9875,61.2241],[-149.7484,61.3974],[-149.5849,61.4338],[-149.6152,61.4945],[-149.5592,61.5011],[-149.5328,61.5519],[-149.6018,61.5629],[-149.5721,61.5955],[-149.6381,61.6403],[-149.7228,61.6348],[-149.7301,61.5597],[-149.8135,61.5994],[-149.9991,61.5995],[-150.0324,61.5743],[-150.1195,61.6023],[-150.3631,61.5954],[-150.5479,61.5253],[-150.4559,61.4133],[-150.5633,61.3387]]]},"properties":{"GEOID":"02008","STATE":"02","BASENAME":"8","NAME":"State House District 8","SLDL":"008"}},{"type":"Feature","geometry":{"type":"Polygon","coordinates":[[[-149.9356,61.203],[-149.9349,61.1817],[-149.8299,61.1953],[-149.9356,61.203]]]},"properties":{"GEOID":"02018","STATE":"02","BASENAME":"18","NAME":"State House District 18","SLDL":"018"}},{"type":"Feature","geometry":{"type":"Polygon","coordinates":[[[-147.5817,64.8825],[-147.5241,64.8779],[-147.5352,64.8523],[-147.4433,64.822],[-147.4419,64.7913],[-147.3884,64.7921],[-147.4269,64.7733],[-147.2931,64.7039],[-147.2214,64.719],[-147.1887,64.7861],[-147.3271,64.8484],[-147.4104,64.8468],[-147.4056,64.8924],[-147.5817,64.8825]]]},"properties":{"GEOID":"02003","STATE":"02","BASENAME":"3","NAME":"State House District 3","SLDL":"003"}},{"type":"Feature","geometry":{"type":"MultiPolygon","coordinates":[[[[-151.6787,60.5902],[-151.1308,60.6033],[-151.1162,60.5636],[-150.999,60.5455],[-151.0122,60.4733],[-150.9393,60.4454],[-150.8811,60.4739],[-150.4813,60.4728],[-150.2625,60.41],[-150.1213,60.4801],[-149.9771,60.4837],[-150.0095,60.3967],[-149.9742,60.3675],[-149.696,60.2812],[-149.5757,60.1788],[-149.5331,60.1754],[-149.5286,60.029],[-149.5039,60.029],[-149.4431,60.0469],[-149.4428,60.0829],[-149.2741,60.0829],[-149.2742,60.1118],[-149.3592,60.1118],[-149.3568,60.1784],[-149.1532,60.2005],[-149.3161,60.2379],[-149.3447,60.3001],[-149.011,60.3012],[-149.0062,60.3878],[-148.6645,60.423],[-148.6571,60.733],[-149.0377,60.733],[-149.0341,60.8485],[-149.0637,60.8774],[-149.3594,60.9063],[-150.0692,61.0796],[-150.2477,61.0796],[-150.4358,61.1663],[-151.3775,60.9169],[-151.4864,60.8625],[-151.6787,60.5902]]],[[[-151.0125,60.5024],[-151.0065,60.5022],[-151.0101,60.5028],[-151.0125,60.5024]]]]},"properties":{"GEOID":"02029","STATE":"02","BASENAME":"29","NAME":"State House District 29","SLDL":"029"}},{"type":"Feature","geometry":{"type":"Polygon","coordinates":[[[-150.0148,61.0669],[-149.9905,61.0604],[-149.9714,61.132],[-149.9085,61.1514],[-150.0119,61.1533],[-150.0148,61.0669]]]},"properties":{"GEOID":"02022","STATE":"02","BASENAME":"22","NAME":"State House District 22","SLDL":"022"}},{"type":"Feature","geometry":{"type":"Polygon","coordinates":[[[-149.9321,61.2508],[-149.7635,61.2097],[-149.7141,61.2242],[-149.7486,61.2374],[-149.7484,61.2964],[-149.8163,61.3382],[-149.9321,61.2508]]]},"properties":{"GEOID":"02015","STATE":"02","BASENAME":"15","NAME":"State House District 15","SLDL":"015"}},{"type":"Feature","geometry":{"type":"Polygon","coordinates":[[[-148.6633,64.5908],[-148.5507,64.6172],[-148.4575,64.5898],[-148.4031,64.5313],[-148.2409,64.4849],[-148.2237,64.4353],[-148.1086,64.3622],[-147.7795,64.259],[-146.6773,64.2572],[-146.7244,64.316],[-146.8638,64.3372],[-146.9151,64.3933],[-146.977,64.4087],[-146.9982,64.5161],[-147.325,64.719],[-147.2996,64.7216],[-147.4269,64.7733],[-147.3884,64.7921],[-147.5096,64.8057],[-147.5097,64.7785],[-147.6073,64.7799],[-147.6703,64.8166],[-147.8125,64.831],[-147.7735,64.8639],[-148.0028,64.8457],[-148.6482,64.6866],[-148.6633,64.5908]]]},"properties":{"GEOID":"02005","STATE":"02","BASENAME":"5","NAME":"State House District 5","SLDL":"005"}},{"type":"Feature","geometry":{"type":"Polygon","coordinates":[[[-151.7305,60.4884],[-151.2799,60.4694],[-151.2123,60.4235],[-151.1691,60.4734],[-150.9991,60.4733],[-150.999,60.5455],[-151.1162,60.5636],[-151.1308,60.6033],[-151.6815,60.5842],[-151.7305,60.4884]],[[-151.0129,60.5022],[-151.0101,60.5028],[-151.0065,60.5022],[-151.0129,60.5022]]]},"properties":{"GEOID":"02030","STATE":"02","BASENAME":"30","NAME":"State House District 30","SLDL":"030"}},{"type":"Feature","geometry":{"type":"Polygon","coordinates":[[[-149.9904,61.0608],[-149.8346,61.0223],[-149.8294,61.076],[-149.9072,61.1405],[-149.9714,61.132],[-149.9904,61.0608]]]},"properties":{"GEOID":"02024","STATE":"02","BASENAME":"24","NAME":"State House District 24","SLDL":"024"}},{"type":"Feature","geometry":{"type":"Polygon","coordinates":[[[-149.7945,61.1952],[-149.7634,61.1808],[-149.7559,61.2247],[-149.7917,61.2246],[-149.7945,61.1952]]]},"properties":{"GEOID":"02016","STATE":"02","BASENAME":"16","NAME":"State House District 16","SLDL":"016"}}]}